id,title,description,start,end,timezone,duration,category,labels,country,rank,local_rank,aviation_rank,phq_attendance,entities,location,place_hierarchies,scope,relevance,state,first_seen,updated,deleted_reason,duplicate_of_id,entity_name,longitude,latitude,sub_category,session_type,estimated,on_campus
2LGRhd4ZTAHFtdTysF,Summer Session,,2021-05-10 04:00:00+00:00,2021-07-31 03:59:59+00:00,America/New_York,7084799,academic,"['academic', 'academic-session', 'hybrid-session']",US,51,,,1117.0,"[{'entity_id': 'PybDgt32wRPBDymANpjFdW', 'name': 'Florida Agricultural and Mechanical University', 'type': 'venue', 'formatted_address': '1601 South Martin Luther King Junior Boulevard\nTallahassee, FL 32307\nUnited States of America'}]","[-84.285131, 30.426857]","[['6295630', '6255149', '6252001', '4155751', '4161831', '4174715']]",locality,1.0,active,2020-10-15 22:16:18+00:00,2021-01-26 04:26:47+00:00,,,Florida Agricultural and Mechanical University,-84.285131,30.426857,academic-session,hybrid-session,not_estimated,True
ZGxD9mFQPQ39afjCxJ,Summer Session,,2021-05-10 04:00:00+00:00,2021-07-31 03:59:59+00:00,America/New_York,7084799,academic,"['academic', 'academic-session', 'hybrid-session']",US,62,,,3888.0,"[{'entity_id': 'wEjwmnhbGa9ZZdkBrakmkb', 'name': 'Florida State University', 'type': 'venue', 'formatted_address': '600 W College Ave\nTallahassee, FL 32306\nUnited States of America'}]","[-84.298489, 30.441878]","[['6295630', '6255149', '6252001', '4155751', '4161831', '4174715']]",locality,1.0,active,2020-10-15 22:17:03+00:00,2021-02-22 03:38:58+00:00,,,Florida State University,-84.298489,30.441878,academic-session,hybrid-session,not_estimated,True
e249DCwy4AxsMbzL5L,Summer Session,,2021-05-06 04:00:00+00:00,2021-08-05 03:59:59+00:00,America/New_York,7862399,academic,"['academic', 'academic-session', 'hybrid-session']",US,54,,,1549.0,"[{'entity_id': 'cYZWN4rzcehFcb3MgPSbQU', 'name': 'Tallahassee Community College', 'type': 'venue', 'formatted_address': '444 Appleyard Drive\nTallahassee, FL 32304\nUnited States of America'}]","[-84.340421, 30.444305]","[['6295630', '6255149', '6252001', '4155751', '4161831', '4174715'], ['6295630', '6255149', '6252001', '4155751', '4161831', '4178953']]",locality,1.0,active,2020-10-15 22:19:34+00:00,2021-03-01 22:23:33+00:00,,,Tallahassee Community College,-84.340421,30.444305,academic-session,hybrid-session,not_estimated,True
oUnjGLKaeSQGyrJnGs,Summer Break,,2021-05-01 04:00:00+00:00,2021-08-23 03:59:59+00:00,America/New_York,9849599,academic,"['academic', 'holiday']",US,69,,,9081.0,"[{'entity_id': 'cYZWN4rzcehFcb3MgPSbQU', 'name': 'Tallahassee Community College', 'type': 'venue', 'formatted_address': '444 Appleyard Drive\nTallahassee, FL 32304\nUnited States of America'}]","[-84.340421, 30.444305]","[['6295630', '6255149', '6252001', '4155751', '4161831', '4174715'], ['6295630', '6255149', '6252001', '4155751', '4161831', '4178953']]",locality,1.0,active,2020-10-15 22:19:34+00:00,2020-11-05 22:16:18+00:00,,,Tallahassee Community College,-84.340421,30.444305,holiday,in-person,not_estimated,False
k78fESJ2XTpeijBq7n,Spring Exams,,2021-04-26 04:00:00+00:00,2021-05-01 03:59:59+00:00,America/New_York,431999,academic,"['academic', 'exam', 'hybrid-session']",US,64,,,5166.0,"[{'entity_id': 'cYZWN4rzcehFcb3MgPSbQU', 'name': 'Tallahassee Community College', 'type': 'venue', 'formatted_address': '444 Appleyard Drive\nTallahassee, FL 32304\nUnited States of America'}]","[-84.340421, 30.444305]","[['6295630', '6255149', '6252001', '4155751', '4161831', '4174715'], ['6295630', '6255149', '6252001', '4155751', '4161831', '4178953']]",locality,1.0,active,2020-10-15 22:19:33+00:00,2021-01-26 04:12:21+00:00,,,Tallahassee Community College,-84.340421,30.444305,exam,hybrid-session,not_estimated,True
jbJ6xDdhuk9r2p9a4u,Summer Break,,2021-04-24 04:00:00+00:00,2021-08-23 03:59:59+00:00,America/New_York,10454399,academic,"['academic', 'estimated', 'holiday']",US,80,,,32250.0,"[{'entity_id': 'wEjwmnhbGa9ZZdkBrakmkb', 'name': 'Florida State University', 'type': 'venue', 'formatted_address': '600 W College Ave\nTallahassee, FL 32306\nUnited States of America'}]","[-84.298489, 30.441878]","[['6295630', '6255149', '6252001', '4155751', '4161831', '4174715']]",locality,1.0,active,2020-10-15 22:17:03+00:00,2021-03-01 21:57:38+00:00,,,Florida State University,-84.298489,30.441878,holiday,in-person,estimated,False
vBkPiZtJ2Ap2FVnVGB,Summer Break,,2021-04-24 04:00:00+00:00,2021-08-23 03:59:59+00:00,America/New_York,10454399,academic,"['academic', 'holiday']",US,65,,,5624.0,"[{'entity_id': 'PybDgt32wRPBDymANpjFdW', 'name': 'Florida Agricultural and Mechanical University', 'type': 'venue', 'formatted_address': '1601 South Martin Luther King Junior Boulevard\nTallahassee, FL 32307\nUnited States of America'}]","[-84.285131, 30.426857]","[['6295630', '6255149', '6252001', '4155751', '4161831', '4174715']]",locality,1.0,active,2020-10-15 22:16:17+00:00,2021-01-26 04:26:40+00:00,,,Florida Agricultural and Mechanical University,-84.285131,30.426857,holiday,in-person,not_estimated,False
7V4cCtpVPekUQBKpUg,Spring Exams,,2021-04-19 04:00:00+00:00,2021-04-24 03:59:59+00:00,America/New_York,431999,academic,"['academic', 'exam', 'hybrid-session']",US,61,,,3724.0,"[{'entity_id': 'PybDgt32wRPBDymANpjFdW', 'name': 'Florida Agricultural and Mechanical University', 'type': 'venue', 'formatted_address': '1601 South Martin Luther King Junior Boulevard\nTallahassee, FL 32307\nUnited States of America'}]","[-84.285131, 30.426857]","[['6295630', '6255149', '6252001', '4155751', '4161831', '4174715']]",locality,1.0,active,2020-10-15 22:16:16+00:00,2021-01-26 04:26:06+00:00,,,Florida Agricultural and Mechanical University,-84.285131,30.426857,exam,hybrid-session,not_estimated,True
RDewTrEyLwjCMs7P7m,Spring Exams,,2021-04-19 04:00:00+00:00,2021-04-24 03:59:59+00:00,America/New_York,431999,academic,"['academic', 'estimated', 'exam', 'hybrid-session']",US,72,,,12961.0,"[{'entity_id': 'wEjwmnhbGa9ZZdkBrakmkb', 'name': 'Florida State University', 'type': 'venue', 'formatted_address': '600 W College Ave\nTallahassee, FL 32306\nUnited States of America'}]","[-84.298489, 30.441878]","[['6295630', '6255149', '6252001', '4155751', '4161831', '4174715']]",locality,1.0,active,2020-10-15 22:17:02+00:00,2020-11-26 09:07:42+00:00,,,Florida State University,-84.298489,30.441878,exam,hybrid-session,estimated,True
mMKTaMChgyzHuPShXb,Spring Break,,2021-03-13 05:00:00+00:00,2021-03-22 03:59:59+00:00,America/New_York,773999,academic,"['academic', 'holiday']",US,69,,,9081.0,"[{'entity_id': 'cYZWN4rzcehFcb3MgPSbQU', 'name': 'Tallahassee Community College', 'type': 'venue', 'formatted_address': '444 Appleyard Drive\nTallahassee, FL 32304\nUnited States of America'}]","[-84.340421, 30.444305]","[['6295630', '6255149', '6252001', '4155751', '4161831', '4174715'], ['6295630', '6255149', '6252001', '4155751', '4161831', '4178953']]",locality,1.0,active,2020-10-15 22:19:32+00:00,2020-11-05 22:17:55+00:00,,,Tallahassee Community College,-84.340421,30.444305,holiday,in-person,not_estimated,False
NnSATZewPMPYkHmUkf,Spring Session,,2021-01-07 05:00:00+00:00,2021-04-24 03:59:59+00:00,America/New_York,9241199,academic,"['academic', 'academic-session', 'hybrid-session']",US,64,,,5166.0,"[{'entity_id': 'cYZWN4rzcehFcb3MgPSbQU', 'name': 'Tallahassee Community College', 'type': 'venue', 'formatted_address': '444 Appleyard Drive\nTallahassee, FL 32304\nUnited States of America'}]","[-84.340421, 30.444305]","[['6295630', '6255149', '6252001', '4155751', '4161831', '4174715'], ['6295630', '6255149', '6252001', '4155751', '4161831', '4178953']]",locality,1.0,active,2020-10-15 22:19:31+00:00,2021-01-26 04:12:31+00:00,,,Tallahassee Community College,-84.340421,30.444305,academic-session,hybrid-session,not_estimated,True
qmwz3kz2pFwu93Ldkg,Spring Session,,2021-01-06 05:00:00+00:00,2021-04-17 03:59:59+00:00,America/New_York,8722799,academic,"['academic', 'academic-session', 'estimated', 'hybrid-session']",US,72,,,12961.0,"[{'entity_id': 'wEjwmnhbGa9ZZdkBrakmkb', 'name': 'Florida State University', 'type': 'venue', 'formatted_address': '600 W College Ave\nTallahassee, FL 32306\nUnited States of America'}]","[-84.298489, 30.441878]","[['6295630', '6255149', '6252001', '4155751', '4161831', '4174715']]",locality,1.0,active,2020-10-15 22:17:00+00:00,2020-11-26 09:06:57+00:00,,,Florida State University,-84.298489,30.441878,academic-session,hybrid-session,estimated,True
xKXxuToiiWsDDgjyKk,Spring Session,,2021-01-06 05:00:00+00:00,2021-04-17 03:59:59+00:00,America/New_York,8722799,academic,"['academic', 'academic-session', 'hybrid-session']",US,61,,,3724.0,"[{'entity_id': 'PybDgt32wRPBDymANpjFdW', 'name': 'Florida Agricultural and Mechanical University', 'type': 'venue', 'formatted_address': '1601 South Martin Luther King Junior Boulevard\nTallahassee, FL 32307\nUnited States of America'}]","[-84.285131, 30.426857]","[['6295630', '6255149', '6252001', '4155751', '4161831', '4174715']]",locality,1.0,active,2020-10-15 22:16:15+00:00,2021-01-26 04:26:13+00:00,,,Florida Agricultural and Mechanical University,-84.285131,30.426857,academic-session,hybrid-session,not_estimated,True
FcC8TK6yAVoDWc4JG3,Winter Break,,2020-12-12 05:00:00+00:00,2021-01-07 04:59:59+00:00,America/New_York,2246399,academic,"['academic', 'holiday']",US,69,,,9081.0,"[{'entity_id': 'cYZWN4rzcehFcb3MgPSbQU', 'name': 'Tallahassee Community College', 'type': 'venue', 'formatted_address': '444 Appleyard Drive\nTallahassee, FL 32304\nUnited States of America'}]","[-84.340421, 30.444305]","[['6295630', '6255149', '6252001', '4155751', '4161831', '4174715'], ['6295630', '6255149', '6252001', '4155751', '4161831', '4178953']]",locality,1.0,active,2020-10-15 22:19:30+00:00,2020-11-05 22:14:04+00:00,,,Tallahassee Community College,-84.340421,30.444305,holiday,in-person,not_estimated,False
eqzhDenKDuAFdmbajT,Winter Break,,2020-12-12 05:00:00+00:00,2021-01-06 04:59:59+00:00,America/New_York,2159999,academic,"['academic', 'holiday']",US,80,,,32250.0,"[{'entity_id': 'wEjwmnhbGa9ZZdkBrakmkb', 'name': 'Florida State University', 'type': 'venue', 'formatted_address': '600 W College Ave\nTallahassee, FL 32306\nUnited States of America'}]","[-84.298489, 30.441878]","[['6295630', '6255149', '6252001', '4155751', '4161831', '4174715']]",locality,1.0,active,2020-10-15 22:16:59+00:00,2020-10-15 22:17:53+00:00,,,Florida State University,-84.298489,30.441878,holiday,in-person,not_estimated,False
BVTBQAfEvKqD8X4MtR,Winter Break,,2020-12-11 05:00:00+00:00,2021-01-06 04:59:59+00:00,America/New_York,2246399,academic,"['academic', 'holiday']",US,65,,,5624.0,"[{'entity_id': 'PybDgt32wRPBDymANpjFdW', 'name': 'Florida Agricultural and Mechanical University', 'type': 'venue', 'formatted_address': '1601 South Martin Luther King Junior Boulevard\nTallahassee, FL 32307\nUnited States of America'}]","[-84.285131, 30.426857]","[['6295630', '6255149', '6252001', '4155751', '4161831', '4174715']]",locality,1.0,active,2020-10-15 22:16:14+00:00,2020-10-21 00:01:06+00:00,,,Florida Agricultural and Mechanical University,-84.285131,30.426857,holiday,in-person,not_estimated,False
DidEqSsSHtyH4bcuFc,Fall Exams,,2020-12-07 05:00:00+00:00,2020-12-12 04:59:59+00:00,America/New_York,431999,academic,"['academic', 'exam', 'hybrid-session']",US,64,,,5166.0,"[{'entity_id': 'cYZWN4rzcehFcb3MgPSbQU', 'name': 'Tallahassee Community College', 'type': 'venue', 'formatted_address': '444 Appleyard Drive\nTallahassee, FL 32304\nUnited States of America'}]","[-84.340421, 30.444305]","[['6295630', '6255149', '6252001', '4155751', '4161831', '4174715'], ['6295630', '6255149', '6252001', '4155751', '4161831', '4178953']]",locality,1.0,active,2020-10-15 22:19:30+00:00,2020-10-15 22:20:56+00:00,,,Tallahassee Community College,-84.340421,30.444305,exam,hybrid-session,not_estimated,True
cWinewXrjmzx7uFALE,Fall Exams,,2020-12-07 05:00:00+00:00,2020-12-12 04:59:59+00:00,America/New_York,431999,academic,"['academic', 'exam', 'online-session']",US,60,,,3239.0,"[{'entity_id': 'wEjwmnhbGa9ZZdkBrakmkb', 'name': 'Florida State University', 'type': 'venue', 'formatted_address': '600 W College Ave\nTallahassee, FL 32306\nUnited States of America'}]","[-84.298489, 30.441878]","[['6295630', '6255149', '6252001', '4155751', '4161831', '4174715']]",locality,1.0,active,2020-10-15 22:16:59+00:00,2020-10-15 22:18:24+00:00,,,Florida State University,-84.298489,30.441878,exam,online-session,not_estimated,True
getfebQzWBMHSkRaHk,Fall Exams,,2020-12-07 05:00:00+00:00,2020-12-12 04:59:59+00:00,America/New_York,431999,academic,"['academic', 'exam', 'hybrid-session']",US,61,,,3724.0,"[{'entity_id': 'PybDgt32wRPBDymANpjFdW', 'name': 'Florida Agricultural and Mechanical University', 'type': 'venue', 'formatted_address': '1601 South Martin Luther King Junior Boulevard\nTallahassee, FL 32307\nUnited States of America'}]","[-84.285131, 30.426857]","[['6295630', '6255149', '6252001', '4155751', '4161831', '4174715']]",locality,1.0,active,2020-10-15 22:16:13+00:00,2020-10-21 00:01:28+00:00,,,Florida Agricultural and Mechanical University,-84.285131,30.426857,exam,hybrid-session,not_estimated,True
WKCkVrX2hMKZfYGsQY,Thanksgiving Break,,2020-11-26 05:00:00+00:00,2020-11-30 04:59:59+00:00,America/New_York,345599,academic,"['academic', 'holiday']",US,65,,,5624.0,"[{'entity_id': 'PybDgt32wRPBDymANpjFdW', 'name': 'Florida Agricultural and Mechanical University', 'type': 'venue', 'formatted_address': '1601 South Martin Luther King Junior Boulevard\nTallahassee, FL 32307\nUnited States of America'}]","[-84.285131, 30.426857]","[['6295630', '6255149', '6252001', '4155751', '4161831', '4174715']]",locality,1.0,active,2020-10-15 22:16:12+00:00,2020-10-21 00:00:24+00:00,,,Florida Agricultural and Mechanical University,-84.285131,30.426857,holiday,in-person,not_estimated,False
Xai47vVcT7jvrNtyzi,Thanksgiving Break,,2020-11-26 05:00:00+00:00,2020-11-30 04:59:59+00:00,America/New_York,345599,academic,"['academic', 'holiday']",US,80,,,32250.0,"[{'entity_id': 'wEjwmnhbGa9ZZdkBrakmkb', 'name': 'Florida State University', 'type': 'venue', 'formatted_address': '600 W College Ave\nTallahassee, FL 32306\nUnited States of America'}]","[-84.298489, 30.441878]","[['6295630', '6255149', '6252001', '4155751', '4161831', '4174715']]",locality,1.0,active,2020-10-15 22:16:58+00:00,2020-10-15 22:17:53+00:00,,,Florida State University,-84.298489,30.441878,holiday,in-person,not_estimated,False
RsPppgZmL3Y3bYqAi4,Thanksgiving Break,,2020-11-25 05:00:00+00:00,2020-11-30 04:59:59+00:00,America/New_York,431999,academic,"['academic', 'holiday']",US,69,,,9081.0,"[{'entity_id': 'cYZWN4rzcehFcb3MgPSbQU', 'name': 'Tallahassee Community College', 'type': 'venue', 'formatted_address': '444 Appleyard Drive\nTallahassee, FL 32304\nUnited States of America'}]","[-84.340421, 30.444305]","[['6295630', '6255149', '6252001', '4155751', '4161831', '4174715'], ['6295630', '6255149', '6252001', '4155751', '4161831', '4178953']]",locality,1.0,active,2020-10-15 22:19:29+00:00,2020-11-05 22:13:37+00:00,,,Tallahassee Community College,-84.340421,30.444305,holiday,in-person,not_estimated,False
zbCcpGNVru2EZWnryR,Homecoming,,2020-10-18 04:00:00+00:00,2020-10-25 03:59:59+00:00,America/New_York,604799,academic,"['academic', 'social']",US,0,,,0.0,"[{'entity_id': 'wEjwmnhbGa9ZZdkBrakmkb', 'name': 'Florida State University', 'type': 'venue', 'formatted_address': '600 W College Ave\nTallahassee, FL 32306\nUnited States of America'}]","[-84.298489, 30.441878]","[['6295630', '6255149', '6252001', '4155751', '4161831', '4174715']]",locality,1.0,active,2020-10-15 22:16:57+00:00,2020-10-15 22:17:45+00:00,,,Florida State University,-84.298489,30.441878,social,in-person,not_estimated,True
MX5o6f5SdjmyngHGyA,Fall Session,,2020-08-24 04:00:00+00:00,2020-12-05 04:59:59+00:00,America/New_York,8902799,academic,"['academic', 'academic-session', 'hybrid-session']",US,61,,,3724.0,"[{'entity_id': 'PybDgt32wRPBDymANpjFdW', 'name': 'Florida Agricultural and Mechanical University', 'type': 'venue', 'formatted_address': '1601 South Martin Luther King Junior Boulevard\nTallahassee, FL 32307\nUnited States of America'}]","[-84.285131, 30.426857]","[['6295630', '6255149', '6252001', '4155751', '4161831', '4174715']]",locality,1.0,active,2020-10-15 22:16:11+00:00,2020-10-20 23:59:57+00:00,,,Florida Agricultural and Mechanical University,-84.285131,30.426857,academic-session,hybrid-session,not_estimated,True
MwcHDUictLJu33ZsCw,Fall Session,,2020-08-24 04:00:00+00:00,2020-12-05 04:59:59+00:00,America/New_York,8902799,academic,"['academic', 'academic-session', 'hybrid-session']",US,64,,,5166.0,"[{'entity_id': 'cYZWN4rzcehFcb3MgPSbQU', 'name': 'Tallahassee Community College', 'type': 'venue', 'formatted_address': '444 Appleyard Drive\nTallahassee, FL 32304\nUnited States of America'}]","[-84.340421, 30.444305]","[['6295630', '6255149', '6252001', '4155751', '4161831', '4174715'], ['6295630', '6255149', '6252001', '4155751', '4161831', '4178953']]",locality,1.0,active,2020-10-15 22:19:28+00:00,2020-10-15 22:20:44+00:00,,,Tallahassee Community College,-84.340421,30.444305,academic-session,hybrid-session,not_estimated,True
jL29uatDbPYdHuw6Ph,Fall Session,,2020-08-24 04:00:00+00:00,2020-12-05 04:59:59+00:00,America/New_York,8902799,academic,"['academic', 'academic-session', 'online-session']",US,60,,,3239.0,"[{'entity_id': 'wEjwmnhbGa9ZZdkBrakmkb', 'name': 'Florida State University', 'type': 'venue', 'formatted_address': '600 W College Ave\nTallahassee, FL 32306\nUnited States of America'}]","[-84.298489, 30.441878]","[['6295630', '6255149', '6252001', '4155751', '4161831', '4174715']]",locality,1.0,active,2020-10-15 22:16:56+00:00,2020-10-23 02:14:37+00:00,,,Florida State University,-84.298489,30.441878,academic-session,online-session,not_estimated,True
Gay9YSHUcf7N37STuQ,Summer Session,,2020-05-11 04:00:00+00:00,2020-08-01 03:59:59+00:00,America/New_York,7084799,academic,"['academic', 'academic-session']",US,55,,,1687.0,"[{'entity_id': 'PybDgt32wRPBDymANpjFdW', 'name': 'Florida Agricultural and Mechanical University', 'type': 'venue', 'formatted_address': '1601 South Martin Luther King Junior Boulevard\nTallahassee, FL 32307\nUnited States of America'}]","[-84.285131, 30.426857]","[['6295630', '6255149', '6252001', '4155751', '4161831', '4174715']]",locality,1.0,active,2019-03-15 01:13:48+00:00,2020-10-21 00:01:13+00:00,,,Florida Agricultural and Mechanical University,-84.285131,30.426857,academic-session,in-person,not_estimated,True
LneReaatkApdpg3PLv,Summer Session,,2020-05-11 04:00:00+00:00,2020-08-01 03:59:59+00:00,America/New_York,7084799,academic,"['academic', 'academic-session']",US,70,,,9675.0,"[{'entity_id': 'wEjwmnhbGa9ZZdkBrakmkb', 'name': 'Florida State University', 'type': 'venue', 'formatted_address': '600 W College Ave\nTallahassee, FL 32306\nUnited States of America'}]","[-84.298489, 30.441878]","[['6295630', '6255149', '6252001', '4155751', '4161831', '4174715']]",locality,1.0,active,2019-03-12 02:29:16+00:00,2020-10-06 20:41:20+00:00,,,Florida State University,-84.298489,30.441878,academic-session,in-person,not_estimated,True
gvKhMRZuEajHapP3AV,Summer Session,,2020-05-07 04:00:00+00:00,2020-08-04 03:59:59+00:00,America/New_York,7689599,academic,"['academic', 'academic-session']",US,69,,,9081.0,"[{'entity_id': 'cYZWN4rzcehFcb3MgPSbQU', 'name': 'Tallahassee Community College', 'type': 'venue', 'formatted_address': '444 Appleyard Drive\nTallahassee, FL 32304\nUnited States of America'}]","[-84.340421, 30.444305]","[['6295630', '6255149', '6252001', '4155751', '4161831', '4174715'], ['6295630', '6255149', '6252001', '4155751', '4161831', '4178953']]",locality,1.0,active,2019-03-14 22:41:15+00:00,2020-11-05 22:13:25+00:00,,,Tallahassee Community College,-84.340421,30.444305,academic-session,in-person,not_estimated,True
6M4YSmKbAHxx9P5d9t,Summer Break,,2020-05-02 04:00:00+00:00,2020-08-24 03:59:59+00:00,America/New_York,9849599,academic,"['academic', 'holiday']",US,69,,,9081.0,"[{'entity_id': 'cYZWN4rzcehFcb3MgPSbQU', 'name': 'Tallahassee Community College', 'type': 'venue', 'formatted_address': '444 Appleyard Drive\nTallahassee, FL 32304\nUnited States of America'}]","[-84.340421, 30.444305]","[['6295630', '6255149', '6252001', '4155751', '4161831', '4174715'], ['6295630', '6255149', '6252001', '4155751', '4161831', '4178953']]",locality,1.0,active,2019-03-14 22:43:14+00:00,2020-11-05 22:16:42+00:00,,,Tallahassee Community College,-84.340421,30.444305,holiday,in-person,not_estimated,False
AM52jrM27rAgUKWK87,Summer Break,,2020-05-02 04:00:00+00:00,2020-08-24 03:59:59+00:00,America/New_York,9849599,academic,"['academic', 'holiday']",US,80,,,32250.0,"[{'entity_id': 'wEjwmnhbGa9ZZdkBrakmkb', 'name': 'Florida State University', 'type': 'venue', 'formatted_address': '600 W College Ave\nTallahassee, FL 32306\nUnited States of America'}]","[-84.298489, 30.441878]","[['6295630', '6255149', '6252001', '4155751', '4161831', '4174715']]",locality,1.0,active,2019-03-12 02:31:24+00:00,2020-10-07 13:13:12+00:00,,,Florida State University,-84.298489,30.441878,holiday,in-person,not_estimated,False
KeEY7ufoqkeFzQUFcu,COVID-19 Class Cancellation,All classes being conducted remotely / suspended in response to COVID-19,2020-05-02 04:00:00+00:00,2020-08-01 03:59:59+00:00,America/New_York,7862399,academic,"['academic', 'holiday']",US,80,,,32250.0,"[{'entity_id': 'wEjwmnhbGa9ZZdkBrakmkb', 'name': 'Florida State University', 'type': 'venue', 'formatted_address': '600 W College Ave\nTallahassee, FL 32306\nUnited States of America'}]","[-84.298489, 30.441878]","[['6295630', '6255149', '6252001', '4155751', '4161831', '4174715']]",locality,1.0,active,2020-04-30 05:24:12+00:00,2020-10-07 18:53:47+00:00,,,Florida State University,-84.298489,30.441878,holiday,in-person,not_estimated,False
SN5bJxVGwTdzsBkCZw,Summer Break,,2020-05-02 04:00:00+00:00,2020-08-24 03:59:59+00:00,America/New_York,9849599,academic,"['academic', 'holiday']",US,65,,,5624.0,"[{'entity_id': 'PybDgt32wRPBDymANpjFdW', 'name': 'Florida Agricultural and Mechanical University', 'type': 'venue', 'formatted_address': '1601 South Martin Luther King Junior Boulevard\nTallahassee, FL 32307\nUnited States of America'}]","[-84.285131, 30.426857]","[['6295630', '6255149', '6252001', '4155751', '4161831', '4174715']]",locality,1.0,active,2019-03-15 01:19:36+00:00,2020-10-21 00:00:31+00:00,,,Florida Agricultural and Mechanical University,-84.285131,30.426857,holiday,in-person,not_estimated,False
WN6zLPiFx8LnzPvLGb,Spring Exams,,2020-04-27 04:00:00+00:00,2020-05-02 03:59:59+00:00,America/New_York,431999,academic,"['academic', 'exam']",US,69,,,9081.0,"[{'entity_id': 'cYZWN4rzcehFcb3MgPSbQU', 'name': 'Tallahassee Community College', 'type': 'venue', 'formatted_address': '444 Appleyard Drive\nTallahassee, FL 32304\nUnited States of America'}]","[-84.340421, 30.444305]","[['6295630', '6255149', '6252001', '4155751', '4161831', '4174715'], ['6295630', '6255149', '6252001', '4155751', '4161831', '4178953']]",locality,1.0,active,2019-03-14 22:42:28+00:00,2020-11-05 22:18:15+00:00,,,Tallahassee Community College,-84.340421,30.444305,exam,in-person,not_estimated,True
xq9ESREKqkUUFkFH6t,Spring Exams,,2020-04-27 04:00:00+00:00,2020-05-02 03:59:59+00:00,America/New_York,431999,academic,"['academic', 'exam']",US,65,,,5624.0,"[{'entity_id': 'PybDgt32wRPBDymANpjFdW', 'name': 'Florida Agricultural and Mechanical University', 'type': 'venue', 'formatted_address': '1601 South Martin Luther King Junior Boulevard\nTallahassee, FL 32307\nUnited States of America'}]","[-84.285131, 30.426857]","[['6295630', '6255149', '6252001', '4155751', '4161831', '4174715']]",locality,1.0,active,2019-03-15 01:14:20+00:00,2020-10-21 00:00:23+00:00,,,Florida Agricultural and Mechanical University,-84.285131,30.426857,exam,in-person,not_estimated,True
xuCiaSnn3DViQpiqgh,Spring Exams,,2020-04-27 04:00:00+00:00,2020-05-02 03:59:59+00:00,America/New_York,431999,academic,"['academic', 'exam']",US,80,,,32250.0,"[{'entity_id': 'wEjwmnhbGa9ZZdkBrakmkb', 'name': 'Florida State University', 'type': 'venue', 'formatted_address': '600 W College Ave\nTallahassee, FL 32306\nUnited States of America'}]","[-84.298489, 30.441878]","[['6295630', '6255149', '6252001', '4155751', '4161831', '4174715']]",locality,1.0,active,2019-03-12 02:29:53+00:00,2020-10-08 01:02:09+00:00,,,Florida State University,-84.298489,30.441878,exam,in-person,not_estimated,True
h7bfLNpGKi99mMnkR6,Spring Break,,2020-03-14 04:00:00+00:00,2020-03-23 03:59:59+00:00,America/New_York,777599,academic,"['academic', 'holiday']",US,65,,,5624.0,"[{'entity_id': 'PybDgt32wRPBDymANpjFdW', 'name': 'Florida Agricultural and Mechanical University', 'type': 'venue', 'formatted_address': '1601 South Martin Luther King Junior Boulevard\nTallahassee, FL 32307\nUnited States of America'}]","[-84.285131, 30.426857]","[['6295630', '6255149', '6252001', '4155751', '4161831', '4174715']]",locality,1.0,active,2019-03-15 01:19:21+00:00,2020-10-21 00:00:23+00:00,,,Florida Agricultural and Mechanical University,-84.285131,30.426857,holiday,in-person,not_estimated,False
h7xYZm567WjSQUPiZZ,Spring Break,,2020-03-14 04:00:00+00:00,2020-03-23 03:59:59+00:00,America/New_York,777599,academic,"['academic', 'holiday']",US,80,,,32250.0,"[{'entity_id': 'wEjwmnhbGa9ZZdkBrakmkb', 'name': 'Florida State University', 'type': 'venue', 'formatted_address': '600 W College Ave\nTallahassee, FL 32306\nUnited States of America'}]","[-84.298489, 30.441878]","[['6295630', '6255149', '6252001', '4155751', '4161831', '4174715']]",locality,1.0,active,2019-03-12 02:31:10+00:00,2020-10-07 14:12:21+00:00,,,Florida State University,-84.298489,30.441878,holiday,in-person,not_estimated,False
rP9iGM8cWk6cNv2ain,Spring Break,,2020-03-14 04:00:00+00:00,2020-03-23 03:59:59+00:00,America/New_York,777599,academic,"['academic', 'holiday']",US,69,,,9081.0,"[{'entity_id': 'cYZWN4rzcehFcb3MgPSbQU', 'name': 'Tallahassee Community College', 'type': 'venue', 'formatted_address': '444 Appleyard Drive\nTallahassee, FL 32304\nUnited States of America'}]","[-84.340421, 30.444305]","[['6295630', '6255149', '6252001', '4155751', '4161831', '4174715'], ['6295630', '6255149', '6252001', '4155751', '4161831', '4178953']]",locality,1.0,active,2019-03-14 22:43:00+00:00,2020-11-05 22:14:36+00:00,,,Tallahassee Community College,-84.340421,30.444305,holiday,in-person,not_estimated,False
SRRx8yK2HB2aQmpmd9,COVID-19 Class Cancellation,All classes being conducted remotely / suspended in response to COVID-19,2020-03-11 04:00:00+00:00,2020-05-02 03:59:59+00:00,America/New_York,4492799,academic,"['academic', 'estimated', 'holiday']",US,69,,,9081.0,"[{'entity_id': 'cYZWN4rzcehFcb3MgPSbQU', 'name': 'Tallahassee Community College', 'type': 'venue', 'formatted_address': '444 Appleyard Drive\nTallahassee, FL 32304\nUnited States of America'}]","[-84.340421, 30.444305]","[['6295630', '6255149', '6252001', '4155751', '4161831', '4174715'], ['6295630', '6255149', '6252001', '4155751', '4161831', '4178953']]",locality,1.0,active,2020-03-25 01:45:56+00:00,2020-11-05 22:15:12+00:00,,,Tallahassee Community College,-84.340421,30.444305,holiday,in-person,estimated,False
sXNDSEydnMrdrcZ3vb,COVID-19 Class Cancellation,All classes being conducted remotely / suspended in response to COVID-19,2020-03-11 04:00:00+00:00,2020-05-02 03:59:59+00:00,America/New_York,4492799,academic,"['academic', 'estimated', 'holiday']",US,65,,,5624.0,"[{'entity_id': 'PybDgt32wRPBDymANpjFdW', 'name': 'Florida Agricultural and Mechanical University', 'type': 'venue', 'formatted_address': '1601 South Martin Luther King Junior Boulevard\nTallahassee, FL 32307\nUnited States of America'}]","[-84.285131, 30.426857]","[['6295630', '6255149', '6252001', '4155751', '4161831', '4174715']]",locality,1.0,active,2020-03-25 01:46:51+00:00,2020-10-21 00:03:28+00:00,,,Florida Agricultural and Mechanical University,-84.285131,30.426857,holiday,in-person,estimated,False
xpNVWYoqQFAzV8PiX7,COVID-19 Class Cancellation,All classes being conducted remotely / suspended in response to COVID-19,2020-03-11 04:00:00+00:00,2020-05-02 03:59:59+00:00,America/New_York,4492799,academic,"['academic', 'estimated', 'holiday']",US,80,,,32250.0,"[{'entity_id': 'wEjwmnhbGa9ZZdkBrakmkb', 'name': 'Florida State University', 'type': 'venue', 'formatted_address': '600 W College Ave\nTallahassee, FL 32306\nUnited States of America'}]","[-84.298489, 30.441878]","[['6295630', '6255149', '6252001', '4155751', '4161831', '4174715']]",locality,1.0,active,2020-03-25 01:47:17+00:00,2020-10-07 03:00:21+00:00,,,Florida State University,-84.298489,30.441878,holiday,in-person,estimated,False
Ptp8AVQdPLZXANfsvk,Spring Session,,2020-01-08 05:00:00+00:00,2020-04-25 03:59:59+00:00,America/New_York,9327599,academic,"['academic', 'academic-session']",US,69,,,9081.0,"[{'entity_id': 'cYZWN4rzcehFcb3MgPSbQU', 'name': 'Tallahassee Community College', 'type': 'venue', 'formatted_address': '444 Appleyard Drive\nTallahassee, FL 32304\nUnited States of America'}]","[-84.340421, 30.444305]","[['6295630', '6255149', '6252001', '4155751', '4161831', '4174715'], ['6295630', '6255149', '6252001', '4155751', '4161831', '4178953']]",locality,1.0,active,2019-03-14 22:40:59+00:00,2020-11-05 22:11:31+00:00,,,Tallahassee Community College,-84.340421,30.444305,academic-session,in-person,not_estimated,True
SfpVeKSysknwKJMxmu,Spring Session,,2020-01-06 05:00:00+00:00,2020-04-25 03:59:59+00:00,America/New_York,9500399,academic,"['academic', 'academic-session']",US,65,,,5624.0,"[{'entity_id': 'PybDgt32wRPBDymANpjFdW', 'name': 'Florida Agricultural and Mechanical University', 'type': 'venue', 'formatted_address': '1601 South Martin Luther King Junior Boulevard\nTallahassee, FL 32307\nUnited States of America'}]","[-84.285131, 30.426857]","[['6295630', '6255149', '6252001', '4155751', '4161831', '4174715']]",locality,1.0,active,2019-03-15 01:13:24+00:00,2020-10-21 00:01:52+00:00,,,Florida Agricultural and Mechanical University,-84.285131,30.426857,academic-session,in-person,not_estimated,True
ZHWNcTwxEYtBC5ugLi,Spring Session,,2020-01-06 05:00:00+00:00,2020-04-25 03:59:59+00:00,America/New_York,9500399,academic,"['academic', 'academic-session']",US,80,,,32250.0,"[{'entity_id': 'wEjwmnhbGa9ZZdkBrakmkb', 'name': 'Florida State University', 'type': 'venue', 'formatted_address': '600 W College Ave\nTallahassee, FL 32306\nUnited States of America'}]","[-84.298489, 30.441878]","[['6295630', '6255149', '6252001', '4155751', '4161831', '4174715']]",locality,1.0,active,2019-03-12 02:28:43+00:00,2020-10-06 20:34:58+00:00,,,Florida State University,-84.298489,30.441878,academic-session,in-person,not_estimated,True
EcfSbgSFyhUnuURbwt,Winter Break,,2019-12-14 05:00:00+00:00,2020-01-08 04:59:59+00:00,America/New_York,2159999,academic,"['academic', 'holiday']",US,69,,,9081.0,"[{'entity_id': 'cYZWN4rzcehFcb3MgPSbQU', 'name': 'Tallahassee Community College', 'type': 'venue', 'formatted_address': '444 Appleyard Drive\nTallahassee, FL 32304\nUnited States of America'}]","[-84.340421, 30.444305]","[['6295630', '6255149', '6252001', '4155751', '4161831', '4174715'], ['6295630', '6255149', '6252001', '4155751', '4161831', '4178953']]",locality,1.0,active,2019-03-14 22:43:58+00:00,2020-11-05 22:15:34+00:00,,,Tallahassee Community College,-84.340421,30.444305,holiday,in-person,not_estimated,False
SQNVzgTeD4PW8X8DrS,Winter Break,,2019-12-14 05:00:00+00:00,2020-01-06 04:59:59+00:00,America/New_York,1987199,academic,"['academic', 'holiday']",US,80,,,32250.0,"[{'entity_id': 'wEjwmnhbGa9ZZdkBrakmkb', 'name': 'Florida State University', 'type': 'venue', 'formatted_address': '600 W College Ave\nTallahassee, FL 32306\nUnited States of America'}]","[-84.298489, 30.441878]","[['6295630', '6255149', '6252001', '4155751', '4161831', '4174715']]",locality,1.0,active,2019-03-12 02:31:58+00:00,2020-10-07 00:10:09+00:00,,,Florida State University,-84.298489,30.441878,holiday,in-person,not_estimated,False
xpmm4YjeTENmphduRt,Winter Break,,2019-12-14 05:00:00+00:00,2020-01-06 04:59:59+00:00,America/New_York,1987199,academic,"['academic', 'holiday']",US,65,,,5624.0,"[{'entity_id': 'PybDgt32wRPBDymANpjFdW', 'name': 'Florida Agricultural and Mechanical University', 'type': 'venue', 'formatted_address': '1601 South Martin Luther King Junior Boulevard\nTallahassee, FL 32307\nUnited States of America'}]","[-84.285131, 30.426857]","[['6295630', '6255149', '6252001', '4155751', '4161831', '4174715']]",locality,1.0,active,2019-03-15 01:20:11+00:00,2020-10-21 00:02:55+00:00,,,Florida Agricultural and Mechanical University,-84.285131,30.426857,holiday,in-person,not_estimated,False
9vSF43PuLxDxQgMtkg,Florida Agricultural and Mechanical University - Fall Graduation,,2019-12-13 05:00:00+00:00,2019-12-15 04:59:59+00:00,America/New_York,172799,academic,"['academic', 'graduation']",US,0,,,0.0,"[{'entity_id': 'PybDgt32wRPBDymANpjFdW', 'name': 'Florida Agricultural and Mechanical University', 'type': 'venue', 'formatted_address': '1601 South Martin Luther King Junior Boulevard\nTallahassee, FL 32307\nUnited States of America'}]","[-84.285131, 30.426857]","[['6295630', '6255149', '6252001', '4155751', '4161831', '4174715']]",locality,1.0,active,2019-03-15 01:14:34+00:00,2020-10-21 00:00:24+00:00,,,Florida Agricultural and Mechanical University,-84.285131,30.426857,graduation,in-person,not_estimated,True
AMPRtLAqkudyY5vzPp,Florida State University - Fall Graduation,,2019-12-13 05:00:00+00:00,2019-12-15 04:59:59+00:00,America/New_York,172799,academic,"['academic', 'graduation']",US,51,,,1174.0,"[{'entity_id': 'uYAUd32nYDHNEhN9B46cSE', 'name': 'Ruby Diamond Concert Hall', 'type': 'venue', 'formatted_address': '222 South Copeland Street\nTallahassee, FL 32304\nUnited States of America'}]","[-84.291908, 30.440791]","[['6295630', '6255149', '6252001', '4155751', '4161831', '4174715']]",locality,1.0,active,2019-03-12 02:30:07+00:00,2020-09-03 22:27:30+00:00,,,Ruby Diamond Concert Hall,-84.291908,30.440791,graduation,in-person,not_estimated,True
YBCX5CD2FBfKvnqwa9,Fall Exams,,2019-12-09 05:00:00+00:00,2019-12-14 04:59:59+00:00,America/New_York,431999,academic,"['academic', 'exam']",US,80,,,32250.0,"[{'entity_id': 'wEjwmnhbGa9ZZdkBrakmkb', 'name': 'Florida State University', 'type': 'venue', 'formatted_address': '600 W College Ave\nTallahassee, FL 32306\nUnited States of America'}]","[-84.298489, 30.441878]","[['6295630', '6255149', '6252001', '4155751', '4161831', '4174715']]",locality,1.0,active,2019-03-12 02:29:32+00:00,2020-10-06 21:10:20+00:00,,,Florida State University,-84.298489,30.441878,exam,in-person,not_estimated,True
vLcNeSVwE5LSzmJnhK,Fall Exams,,2019-12-09 05:00:00+00:00,2019-12-14 04:59:59+00:00,America/New_York,431999,academic,"['academic', 'exam']",US,65,,,5624.0,"[{'entity_id': 'PybDgt32wRPBDymANpjFdW', 'name': 'Florida Agricultural and Mechanical University', 'type': 'venue', 'formatted_address': '1601 South Martin Luther King Junior Boulevard\nTallahassee, FL 32307\nUnited States of America'}]","[-84.285131, 30.426857]","[['6295630', '6255149', '6252001', '4155751', '4161831', '4174715']]",locality,1.0,active,2019-03-15 01:14:07+00:00,2020-10-21 00:01:05+00:00,,,Florida Agricultural and Mechanical University,-84.285131,30.426857,exam,in-person,not_estimated,True
wfMnVwoF2QJHWhgGVs,Fall Exams,,2019-12-09 05:00:00+00:00,2019-12-14 04:59:59+00:00,America/New_York,431999,academic,"['academic', 'exam']",US,69,,,9081.0,"[{'entity_id': 'cYZWN4rzcehFcb3MgPSbQU', 'name': 'Tallahassee Community College', 'type': 'venue', 'formatted_address': '444 Appleyard Drive\nTallahassee, FL 32304\nUnited States of America'}]","[-84.340421, 30.444305]","[['6295630', '6255149', '6252001', '4155751', '4161831', '4174715'], ['6295630', '6255149', '6252001', '4155751', '4161831', '4178953']]",locality,1.0,active,2019-03-14 22:42:05+00:00,2020-11-05 22:11:09+00:00,,,Tallahassee Community College,-84.340421,30.444305,exam,in-person,not_estimated,True
6KweiWK8hzNPZhfVxM,Thanksgiving Break,,2019-11-28 05:00:00+00:00,2019-12-02 04:59:59+00:00,America/New_York,345599,academic,"['academic', 'holiday']",US,65,,,5624.0,"[{'entity_id': 'PybDgt32wRPBDymANpjFdW', 'name': 'Florida Agricultural and Mechanical University', 'type': 'venue', 'formatted_address': '1601 South Martin Luther King Junior Boulevard\nTallahassee, FL 32307\nUnited States of America'}]","[-84.285131, 30.426857]","[['6295630', '6255149', '6252001', '4155751', '4161831', '4174715']]",locality,1.0,active,2019-03-15 01:19:56+00:00,2020-10-20 23:59:58+00:00,,,Florida Agricultural and Mechanical University,-84.285131,30.426857,holiday,in-person,not_estimated,False
5czHfvoSJubtmmHwR4,Thanksgiving Break,,2019-11-27 05:00:00+00:00,2019-12-02 04:59:59+00:00,America/New_York,431999,academic,"['academic', 'holiday']",US,80,,,32250.0,"[{'entity_id': 'wEjwmnhbGa9ZZdkBrakmkb', 'name': 'Florida State University', 'type': 'venue', 'formatted_address': '600 W College Ave\nTallahassee, FL 32306\nUnited States of America'}]","[-84.298489, 30.441878]","[['6295630', '6255149', '6252001', '4155751', '4161831', '4174715']]",locality,1.0,active,2019-03-12 02:31:41+00:00,2020-10-07 02:02:21+00:00,,,Florida State University,-84.298489,30.441878,holiday,in-person,not_estimated,False
eVEUH7HKfZqEgK2Dau,Thanksgiving Break,,2019-11-27 05:00:00+00:00,2019-12-02 04:59:59+00:00,America/New_York,431999,academic,"['academic', 'holiday']",US,69,,,9081.0,"[{'entity_id': 'cYZWN4rzcehFcb3MgPSbQU', 'name': 'Tallahassee Community College', 'type': 'venue', 'formatted_address': '444 Appleyard Drive\nTallahassee, FL 32304\nUnited States of America'}]","[-84.340421, 30.444305]","[['6295630', '6255149', '6252001', '4155751', '4161831', '4174715'], ['6295630', '6255149', '6252001', '4155751', '4161831', '4178953']]",locality,1.0,active,2019-03-14 22:43:33+00:00,2020-11-05 22:16:00+00:00,,,Tallahassee Community College,-84.340421,30.444305,holiday,in-person,not_estimated,False
PP9GBRzLSAUWDLX2NX,Homecoming,,2019-10-19 04:00:00+00:00,2019-10-28 03:59:59+00:00,America/New_York,777599,academic,"['academic', 'social']",US,82,,,40000.0,"[{'entity_id': 'wEjwmnhbGa9ZZdkBrakmkb', 'name': 'Florida State University', 'type': 'venue', 'formatted_address': '600 W College Ave\nTallahassee, FL 32306\nUnited States of America'}]","[-84.298489, 30.441878]","[['6295630', '6255149', '6252001', '4155751', '4161831', '4174715']]",locality,1.0,active,2019-03-12 02:32:17+00:00,2020-09-03 22:19:14+00:00,,,Florida State University,-84.298489,30.441878,social,in-person,not_estimated,True
TbS3yb6QtJ663ZWmWo,Fall Session,,2019-08-26 04:00:00+00:00,2019-12-07 04:59:59+00:00,America/New_York,8902799,academic,"['academic', 'academic-session']",US,69,,,9081.0,"[{'entity_id': 'cYZWN4rzcehFcb3MgPSbQU', 'name': 'Tallahassee Community College', 'type': 'venue', 'formatted_address': '444 Appleyard Drive\nTallahassee, FL 32304\nUnited States of America'}]","[-84.340421, 30.444305]","[['6295630', '6255149', '6252001', '4155751', '4161831', '4174715'], ['6295630', '6255149', '6252001', '4155751', '4161831', '4178953']]",locality,1.0,active,2019-03-14 22:40:44+00:00,2020-11-05 22:18:01+00:00,,,Tallahassee Community College,-84.340421,30.444305,academic-session,in-person,not_estimated,True
gxzpZNTjtXumuGHUPS,Fall session,,2019-08-26 04:00:00+00:00,2019-12-07 04:59:59+00:00,America/New_York,8902799,academic,"['academic', 'academic-session']",US,80,,,32250.0,"[{'entity_id': 'wEjwmnhbGa9ZZdkBrakmkb', 'name': 'Florida State University', 'type': 'venue', 'formatted_address': '600 W College Ave\nTallahassee, FL 32306\nUnited States of America'}]","[-84.298489, 30.441878]","[['6295630', '6255149', '6252001', '4155751', '4161831', '4174715']]",locality,1.0,active,2019-03-12 02:28:24+00:00,2020-10-07 01:51:45+00:00,,,Florida State University,-84.298489,30.441878,academic-session,in-person,not_estimated,True
xy8JTqcwXxMGFwF7j6,Fall Session,,2019-08-26 04:00:00+00:00,2019-12-07 04:59:59+00:00,America/New_York,8902799,academic,"['academic', 'academic-session']",US,65,,,5624.0,"[{'entity_id': 'PybDgt32wRPBDymANpjFdW', 'name': 'Florida Agricultural and Mechanical University', 'type': 'venue', 'formatted_address': '1601 South Martin Luther King Junior Boulevard\nTallahassee, FL 32307\nUnited States of America'}]","[-84.285131, 30.426857]","[['6295630', '6255149', '6252001', '4155751', '4161831', '4174715']]",locality,1.0,active,2019-03-15 01:13:11+00:00,2020-10-21 00:01:59+00:00,,,Florida Agricultural and Mechanical University,-84.285131,30.426857,academic-session,in-person,not_estimated,True
Xe5CbnY6AoeMyZYSte,Florida Agricultural and Mechanical University - Summer Graduation,,2019-08-02 04:00:00+00:00,2019-08-03 03:59:59+00:00,America/New_York,86399,academic,"['academic', 'graduation']",US,0,,,0.0,"[{'entity_id': 'PybDgt32wRPBDymANpjFdW', 'name': 'Florida Agricultural and Mechanical University', 'type': 'venue', 'formatted_address': '1601 South Martin Luther King Junior Boulevard\nTallahassee, FL 32307\nUnited States of America'}]","[-84.285131, 30.426857]","[['6295630', '6255149', '6252001', '4155751', '4161831', '4174715']]",locality,1.0,active,2019-03-15 01:11:30+00:00,2020-10-20 23:59:57+00:00,,,Florida Agricultural and Mechanical University,-84.285131,30.426857,graduation,in-person,not_estimated,True
naAh8K6QAZHteXEVZT,Florida State University - Summer Graduation,,2019-08-02 04:00:00+00:00,2019-08-04 03:59:59+00:00,America/New_York,172799,academic,"['academic', 'graduation']",US,0,,,0.0,"[{'entity_id': 'wEjwmnhbGa9ZZdkBrakmkb', 'name': 'Florida State University', 'type': 'venue', 'formatted_address': '600 W College Ave\nTallahassee, FL 32306\nUnited States of America'}]","[-84.298489, 30.441878]","[['6295630', '6255149', '6252001', '4155751', '4161831', '4174715']]",locality,1.0,active,2019-03-12 02:25:07+00:00,2019-04-18 04:15:59+00:00,,,Florida State University,-84.298489,30.441878,graduation,in-person,not_estimated,True
RQepyNGheRSYtHtCZV,Summer Session,,2019-05-13 04:00:00+00:00,2019-08-03 03:59:59+00:00,America/New_York,7084799,academic,"['academic', 'academic-session']",US,70,,,9675.0,"[{'entity_id': 'wEjwmnhbGa9ZZdkBrakmkb', 'name': 'Florida State University', 'type': 'venue', 'formatted_address': '600 W College Ave\nTallahassee, FL 32306\nUnited States of America'}]","[-84.298489, 30.441878]","[['6295630', '6255149', '6252001', '4155751', '4161831', '4174715']]",locality,1.0,active,2019-03-12 02:23:35+00:00,2020-10-06 20:50:25+00:00,,,Florida State University,-84.298489,30.441878,academic-session,in-person,not_estimated,True
mph2MtH58buFb28mw5,Summer Session,,2019-05-13 04:00:00+00:00,2019-08-03 03:59:59+00:00,America/New_York,7084799,academic,"['academic', 'academic-session']",US,55,,,1687.0,"[{'entity_id': 'PybDgt32wRPBDymANpjFdW', 'name': 'Florida Agricultural and Mechanical University', 'type': 'venue', 'formatted_address': '1601 South Martin Luther King Junior Boulevard\nTallahassee, FL 32307\nUnited States of America'}]","[-84.285131, 30.426857]","[['6295630', '6255149', '6252001', '4155751', '4161831', '4174715']]",locality,1.0,active,2019-03-15 01:10:37+00:00,2020-10-21 00:00:50+00:00,,,Florida Agricultural and Mechanical University,-84.285131,30.426857,academic-session,in-person,not_estimated,True
WKsoLMCswYu8sdgAdP,Summer Session,,2019-05-09 04:00:00+00:00,2019-08-06 03:59:59+00:00,America/New_York,7689599,academic,"['academic', 'academic-session']",US,69,,,9081.0,"[{'entity_id': 'cYZWN4rzcehFcb3MgPSbQU', 'name': 'Tallahassee Community College', 'type': 'venue', 'formatted_address': '444 Appleyard Drive\nTallahassee, FL 32304\nUnited States of America'}]","[-84.340421, 30.444305]","[['6295630', '6255149', '6252001', '4155751', '4161831', '4174715'], ['6295630', '6255149', '6252001', '4155751', '4161831', '4178953']]",locality,1.0,active,2019-03-14 22:37:24+00:00,2020-11-05 22:16:28+00:00,,,Tallahassee Community College,-84.340421,30.444305,academic-session,in-person,not_estimated,True
34mTSGjBgPGWuyXco8,Summer Break,,2019-05-04 04:00:00+00:00,2019-08-26 03:59:59+00:00,America/New_York,9849599,academic,"['academic', 'holiday']",US,69,,,9081.0,"[{'entity_id': 'cYZWN4rzcehFcb3MgPSbQU', 'name': 'Tallahassee Community College', 'type': 'venue', 'formatted_address': '444 Appleyard Drive\nTallahassee, FL 32304\nUnited States of America'}]","[-84.340421, 30.444305]","[['6295630', '6255149', '6252001', '4155751', '4161831', '4174715'], ['6295630', '6255149', '6252001', '4155751', '4161831', '4178953']]",locality,1.0,active,2019-03-14 22:38:15+00:00,2020-11-05 22:15:19+00:00,,,Tallahassee Community College,-84.340421,30.444305,holiday,in-person,not_estimated,False
ALdrsyaJurgkajvT7N,Tallahassee Community College - Spring Graduation,,2019-05-04 04:00:00+00:00,2019-05-05 03:59:59+00:00,America/New_York,86399,academic,"['academic', 'graduation']",US,72,,,12099.0,"[{'entity_id': 'Qh46Bg7P98F4EMUhc8rufU', 'name': 'Donald L. Tucker Civic Center', 'type': 'venue', 'formatted_address': '505 West Pensacola Street\nTallahassee, FL 32301\nUnited States of America'}]","[-84.286658, 30.437782]","[['6295630', '6255149', '6252001', '4155751', '4161831', '4174715']]",locality,1.0,active,2019-03-14 22:37:55+00:00,2020-09-03 22:21:26+00:00,,,Donald L. Tucker Civic Center,-84.286658,30.437782,graduation,in-person,not_estimated,True
Qk2okWYDmrLeSRgSJy,Summer Break,,2019-05-04 04:00:00+00:00,2019-08-26 03:59:59+00:00,America/New_York,9849599,academic,"['academic', 'holiday']",US,65,,,5624.0,"[{'entity_id': 'PybDgt32wRPBDymANpjFdW', 'name': 'Florida Agricultural and Mechanical University', 'type': 'venue', 'formatted_address': '1601 South Martin Luther King Junior Boulevard\nTallahassee, FL 32307\nUnited States of America'}]","[-84.285131, 30.426857]","[['6295630', '6255149', '6252001', '4155751', '4161831', '4174715']]",locality,1.0,active,2019-03-15 01:11:58+00:00,2020-10-21 00:01:05+00:00,,,Florida Agricultural and Mechanical University,-84.285131,30.426857,holiday,in-person,not_estimated,False
WcVTHJyAfbk6L55tRS,Summer Break,,2019-05-04 04:00:00+00:00,2019-08-26 03:59:59+00:00,America/New_York,9849599,academic,"['academic', 'holiday']",US,80,,,32250.0,"[{'entity_id': 'wEjwmnhbGa9ZZdkBrakmkb', 'name': 'Florida State University', 'type': 'venue', 'formatted_address': '600 W College Ave\nTallahassee, FL 32306\nUnited States of America'}]","[-84.298489, 30.441878]","[['6295630', '6255149', '6252001', '4155751', '4161831', '4174715']]",locality,1.0,active,2019-03-12 02:26:24+00:00,2020-10-07 01:00:11+00:00,,,Florida State University,-84.298489,30.441878,holiday,in-person,not_estimated,False
7WDc7DCttSk2jh2iSQ,Florida State University - Spring Graduation,,2019-05-03 04:00:00+00:00,2019-05-05 03:59:59+00:00,America/New_York,172799,academic,"['academic', 'graduation']",US,82,,,40000.0,"[{'entity_id': 'Qh46Bg7P98F4EMUhc8rufU', 'name': 'Donald L. Tucker Civic Center', 'type': 'venue', 'formatted_address': '505 West Pensacola Street\nTallahassee, FL 32301\nUnited States of America'}]","[-84.286658, 30.437782]","[['6295630', '6255149', '6252001', '4155751', '4161831', '4174715']]",locality,1.0,active,2019-03-12 02:24:50+00:00,2020-09-03 22:28:15+00:00,,,Donald L. Tucker Civic Center,-84.286658,30.437782,graduation,in-person,not_estimated,True
HK9TqSnqridK9YKwYN,Florida Agricultural and Mechanical University - Spring Graduation,,2019-05-03 04:00:00+00:00,2019-05-05 03:59:59+00:00,America/New_York,172799,academic,"['academic', 'graduation']",US,66,,,6600.0,"[{'entity_id': '8jur6Z99ciRWdbnPWtcGmM', 'name': 'Alfred Lawson Jr. Multipurpose Center', 'type': 'venue', 'formatted_address': '1800 Wahnish Way\nTallahassee, FL 32310\nUnited States of America'}]","[-84.290553, 30.424214]","[['6295630', '6255149', '6252001', '4155751', '4161831', '4174715']]",locality,1.0,active,2019-03-15 01:11:22+00:00,2021-03-19 13:06:39+00:00,,,Alfred Lawson Jr. Multipurpose Center,-84.290553,30.424214,graduation,in-person,not_estimated,True
cSuN57eRXY5apebGf9,Spring Exams,,2019-04-29 04:00:00+00:00,2019-05-04 03:59:59+00:00,America/New_York,431999,academic,"['academic', 'exam']",US,65,,,5624.0,"[{'entity_id': 'PybDgt32wRPBDymANpjFdW', 'name': 'Florida Agricultural and Mechanical University', 'type': 'venue', 'formatted_address': '1601 South Martin Luther King Junior Boulevard\nTallahassee, FL 32307\nUnited States of America'}]","[-84.285131, 30.426857]","[['6295630', '6255149', '6252001', '4155751', '4161831', '4174715']]",locality,1.0,active,2019-03-15 01:11:02+00:00,2020-10-21 00:00:43+00:00,,,Florida Agricultural and Mechanical University,-84.285131,30.426857,exam,in-person,not_estimated,True
ez2gMmgizbNJyUKgSS,Spring Exams,,2019-04-29 04:00:00+00:00,2019-05-04 03:59:59+00:00,America/New_York,431999,academic,"['academic', 'exam']",US,80,,,32250.0,"[{'entity_id': 'wEjwmnhbGa9ZZdkBrakmkb', 'name': 'Florida State University', 'type': 'venue', 'formatted_address': '600 W College Ave\nTallahassee, FL 32306\nUnited States of America'}]","[-84.298489, 30.441878]","[['6295630', '6255149', '6252001', '4155751', '4161831', '4174715']]",locality,1.0,active,2019-03-12 02:24:16+00:00,2020-10-06 22:54:08+00:00,,,Florida State University,-84.298489,30.441878,exam,in-person,not_estimated,True
tSgQRdHK8gDifHLyS4,Spring Exams,,2019-04-29 04:00:00+00:00,2019-05-04 03:59:59+00:00,America/New_York,431999,academic,"['academic', 'exam']",US,69,,,9081.0,"[{'entity_id': 'cYZWN4rzcehFcb3MgPSbQU', 'name': 'Tallahassee Community College', 'type': 'venue', 'formatted_address': '444 Appleyard Drive\nTallahassee, FL 32304\nUnited States of America'}]","[-84.340421, 30.444305]","[['6295630', '6255149', '6252001', '4155751', '4161831', '4174715'], ['6295630', '6255149', '6252001', '4155751', '4161831', '4178953']]",locality,1.0,active,2019-03-14 22:37:48+00:00,2020-11-05 22:16:49+00:00,,,Tallahassee Community College,-84.340421,30.444305,exam,in-person,not_estimated,True
VGg4riHcJk7gH86Fkz,Spring Break,,2019-03-16 04:00:00+00:00,2019-03-25 03:59:59+00:00,America/New_York,777599,academic,"['academic', 'holiday']",US,65,,,5624.0,"[{'entity_id': 'PybDgt32wRPBDymANpjFdW', 'name': 'Florida Agricultural and Mechanical University', 'type': 'venue', 'formatted_address': '1601 South Martin Luther King Junior Boulevard\nTallahassee, FL 32307\nUnited States of America'}]","[-84.285131, 30.426857]","[['6295630', '6255149', '6252001', '4155751', '4161831', '4174715']]",locality,1.0,active,2019-03-15 01:11:45+00:00,2020-10-21 00:00:31+00:00,,,Florida Agricultural and Mechanical University,-84.285131,30.426857,holiday,in-person,not_estimated,False
payzm8VT7PDSNmnAAD,Spring Break,,2019-03-16 04:00:00+00:00,2019-03-25 03:59:59+00:00,America/New_York,777599,academic,"['academic', 'holiday']",US,80,,,32250.0,"[{'entity_id': 'wEjwmnhbGa9ZZdkBrakmkb', 'name': 'Florida State University', 'type': 'venue', 'formatted_address': '600 W College Ave\nTallahassee, FL 32306\nUnited States of America'}]","[-84.298489, 30.441878]","[['6295630', '6255149', '6252001', '4155751', '4161831', '4174715']]",locality,1.0,active,2019-03-12 02:26:01+00:00,2020-10-08 02:39:29+00:00,,,Florida State University,-84.298489,30.441878,holiday,in-person,not_estimated,False
MH6ueqkbtm7qVTBcfb,Spring Break,,2019-03-09 05:00:00+00:00,2019-03-18 03:59:59+00:00,America/New_York,773999,academic,"['academic', 'holiday']",US,69,,,9081.0,"[{'entity_id': 'cYZWN4rzcehFcb3MgPSbQU', 'name': 'Tallahassee Community College', 'type': 'venue', 'formatted_address': '444 Appleyard Drive\nTallahassee, FL 32304\nUnited States of America'}]","[-84.340421, 30.444305]","[['6295630', '6255149', '6252001', '4155751', '4161831', '4174715'], ['6295630', '6255149', '6252001', '4155751', '4161831', '4178953']]",locality,1.0,active,2019-03-14 22:38:04+00:00,2020-11-05 22:14:48+00:00,,,Tallahassee Community College,-84.340421,30.444305,holiday,in-person,not_estimated,False
VdGeQqkig4nZjTY46q,Spring Session,,2019-01-07 05:00:00+00:00,2019-04-27 03:59:59+00:00,America/New_York,9500399,academic,"['academic', 'academic-session']",US,80,,,32250.0,"[{'entity_id': 'wEjwmnhbGa9ZZdkBrakmkb', 'name': 'Florida State University', 'type': 'venue', 'formatted_address': '600 W College Ave\nTallahassee, FL 32306\nUnited States of America'}]","[-84.298489, 30.441878]","[['6295630', '6255149', '6252001', '4155751', '4161831', '4174715']]",locality,1.0,active,2019-03-12 02:23:21+00:00,2020-10-07 01:55:26+00:00,,,Florida State University,-84.298489,30.441878,academic-session,in-person,not_estimated,True
o9AaSBBTdiuwdqfKqK,Spring Session,,2019-01-07 05:00:00+00:00,2019-04-27 03:59:59+00:00,America/New_York,9500399,academic,"['academic', 'academic-session']",US,65,,,5624.0,"[{'entity_id': 'PybDgt32wRPBDymANpjFdW', 'name': 'Florida Agricultural and Mechanical University', 'type': 'venue', 'formatted_address': '1601 South Martin Luther King Junior Boulevard\nTallahassee, FL 32307\nUnited States of America'}]","[-84.285131, 30.426857]","[['6295630', '6255149', '6252001', '4155751', '4161831', '4174715']]",locality,1.0,active,2019-03-15 01:10:22+00:00,2020-10-21 00:02:55+00:00,,,Florida Agricultural and Mechanical University,-84.285131,30.426857,academic-session,in-person,not_estimated,True
wyo4LXtV4f87t62XSJ,Spring Session,,2019-01-07 05:00:00+00:00,2019-04-27 03:59:59+00:00,America/New_York,9500399,academic,"['academic', 'academic-session']",US,69,,,9081.0,"[{'entity_id': 'cYZWN4rzcehFcb3MgPSbQU', 'name': 'Tallahassee Community College', 'type': 'venue', 'formatted_address': '444 Appleyard Drive\nTallahassee, FL 32304\nUnited States of America'}]","[-84.340421, 30.444305]","[['6295630', '6255149', '6252001', '4155751', '4161831', '4174715'], ['6295630', '6255149', '6252001', '4155751', '4161831', '4178953']]",locality,1.0,active,2019-03-14 22:37:11+00:00,2020-11-05 22:17:08+00:00,,,Tallahassee Community College,-84.340421,30.444305,academic-session,in-person,not_estimated,True
2mstkhESS4dANWvdzU,Winter Break,,2018-12-15 05:00:00+00:00,2019-01-07 04:59:59+00:00,America/New_York,1987199,academic,"['academic', 'holiday']",US,80,,,32402.0,"[{'entity_id': 'wEjwmnhbGa9ZZdkBrakmkb', 'name': 'Florida State University', 'type': 'venue', 'formatted_address': '600 W College Ave\nTallahassee, FL 32306\nUnited States of America'}]","[-84.298489, 30.441878]","[['6295630', '6255149', '6252001', '4155751', '4161831', '4174715']]",locality,1.0,active,2019-03-12 02:26:56+00:00,2020-10-06 20:23:13+00:00,,,Florida State University,-84.298489,30.441878,holiday,in-person,not_estimated,False
cUw8X4sv5355G6N7oj,Winter Break,,2018-12-15 05:00:00+00:00,2019-01-07 04:59:59+00:00,America/New_York,1987199,academic,"['academic', 'holiday']",US,65,,,5624.0,"[{'entity_id': 'PybDgt32wRPBDymANpjFdW', 'name': 'Florida Agricultural and Mechanical University', 'type': 'venue', 'formatted_address': '1601 South Martin Luther King Junior Boulevard\nTallahassee, FL 32307\nUnited States of America'}]","[-84.285131, 30.426857]","[['6295630', '6255149', '6252001', '4155751', '4161831', '4174715']]",locality,1.0,active,2019-03-15 01:12:19+00:00,2020-10-21 00:00:44+00:00,,,Florida Agricultural and Mechanical University,-84.285131,30.426857,holiday,in-person,not_estimated,False
umWvMDo8avY9P4D8PA,Winter Break,,2018-12-08 05:00:00+00:00,2019-01-07 04:59:59+00:00,America/New_York,2591999,academic,"['academic', 'holiday']",US,69,,,9105.0,"[{'entity_id': 'cYZWN4rzcehFcb3MgPSbQU', 'name': 'Tallahassee Community College', 'type': 'venue', 'formatted_address': '444 Appleyard Drive\nTallahassee, FL 32304\nUnited States of America'}]","[-84.340421, 30.444305]","[['6295630', '6255149', '6252001', '4155751', '4161831', '4174715'], ['6295630', '6255149', '6252001', '4155751', '4161831', '4178953']]",locality,1.0,active,2019-03-14 22:38:44+00:00,2020-11-05 22:17:35+00:00,,,Tallahassee Community College,-84.340421,30.444305,holiday,in-person,not_estimated,False
