cancelled,category,country,deleted_reason,description,duplicate_of_id,duration,end,first_seen,id,labels,location,place_hierarchies,postponed,relevance,scope,start,state,timezone,title,updated,aviation_rank,brand_safe,entities,local_rank,phq_attendance,predicted_end,private,rank,entity_name,longitude,latitude,sub_category,session_type,estimated,on_campus
,academic,US,,,,3196799,2021-01-25 05:59:59+00:00,2020-07-23 22:08:33+00:00,LJ28T4J8VxYkdEge3c,"['academic', 'holiday']","[-87.624444, 41.874226]","[['6295630', '6255149', '6252001', '4896861', '4888671', '4887398']]",,1.0,locality,2020-12-19 06:00:00+00:00,active,America/Chicago,Winter Break,2020-09-03 22:20:36+00:00,,,"[{'entity_id': 'cGTQDjm24PmvJL8nePCFcK', 'name': 'Columbia College Chicago', 'type': 'venue', 'formatted_address': '600 South Michigan Avenue\nChicago, IL 60605\nUnited States of America'}]",,6708.0,,False,67,Columbia College Chicago,-87.624444,41.874226,holiday,in-person,not_estimated,False
,academic,US,,,,3283199,2021-01-19 05:59:59+00:00,2020-07-23 22:11:51+00:00,PWwevLzzXSoKbuP3Eo,"['academic', 'holiday']","[-87.674688, 41.877876]","[['6295630', '6255149', '6252001', '4896861', '4888671', '4887398']]",,1.0,locality,2020-12-12 06:00:00+00:00,active,America/Chicago,Winter Break,2020-09-03 22:11:46+00:00,,,"[{'entity_id': 'kjWXNvMsCemNExApReDM83', 'name': 'Malcolm X College', 'type': 'venue', 'formatted_address': '1900 West Jackson Boulevard\nChicago, IL 60612\nUnited States of America'}]",,4461.0,,False,63,Malcolm X College,-87.674688,41.877876,holiday,in-person,not_estimated,False
,academic,US,,,,1987199,2021-01-04 05:59:59+00:00,2020-07-23 21:40:12+00:00,QwYBmMusARpdN66RaG,"['academic', 'holiday']","[-87.598296, 41.790797]","[['6295630', '6255149', '6252001', '4896861', '4888671', '4894404'], ['6295630', '6255149', '6252001', '4896861', '4888671', '4887398']]",,1.0,locality,2020-12-12 06:00:00+00:00,active,America/Chicago,Winter Break,2020-09-03 22:29:02+00:00,,,"[{'entity_id': 'dZujRpmDZFJRjswYBjzatj', 'name': 'University of Chicago', 'type': 'venue', 'formatted_address': 'Chicago, IL 60637\nUnited States of America'}]",,6801.0,,False,67,University of Chicago,-87.598296,41.790797,holiday,in-person,not_estimated,False
,academic,US,,,,3283199,2021-01-19 05:59:59+00:00,2020-07-23 22:12:10+00:00,RY9UejhqvmrLWckJwF,"['academic', 'holiday']","[-87.723959, 41.756059]","[['6295630', '6255149', '6252001', '4896861', '4888671', '4902450'], ['6295630', '6255149', '6252001', '4896861', '4888671', '4887398']]",,1.0,locality,2020-12-12 06:00:00+00:00,active,America/Chicago,Winter Break,2020-09-03 22:23:36+00:00,,,"[{'entity_id': 'rSSm5AvsBgWMQhcJaK6MUj', 'name': 'Richard J. Daley College', 'type': 'venue', 'formatted_address': '7500 S. Pulaski Road\nChicago, IL 60652\nUnited States of America'}]",,4388.0,,False,63,Richard J. Daley College,-87.723959,41.756059,holiday,in-person,not_estimated,False
,academic,US,,,,2591999,2021-01-11 05:59:59+00:00,2020-07-23 22:11:11+00:00,SvwzkNPdqPiKiUPbNi,"['academic', 'holiday']","[-87.627006, 41.834873]","[['6295630', '6255149', '6252001', '4896861', '4888671', '4906683'], ['6295630', '6255149', '6252001', '4896861', '4888671', '4887398']]",,1.0,locality,2020-12-12 06:00:00+00:00,active,America/Chicago,Winter Break,2020-09-03 22:25:59+00:00,,,"[{'entity_id': 'qmgnxQEmGMxGuMKgJvjj4t', 'name': 'Illinois Institute of Technology', 'type': 'venue', 'formatted_address': '10 West 35th Street\nChicago, IL 60616\nUnited States of America'}]",,3143.0,,False,60,Illinois Institute of Technology,-87.627006,41.834873,holiday,in-person,not_estimated,False
,academic,US,,,,2591999,2021-01-11 05:59:59+00:00,2020-07-23 21:39:46+00:00,cnHcoPrtg33FWUXbwW,"['academic', 'holiday']","[-87.658001, 41.87521]","[['6295630', '6255149', '6252001', '4896861', '4888671', '4887398']]",,1.0,locality,2020-12-12 06:00:00+00:00,active,America/Chicago,Winter Break,2020-09-03 22:15:10+00:00,,,"[{'entity_id': 'QJjfX3mJEReLU4USjyzyKc', 'name': 'University Of Illinois At Chicago', 'type': 'venue', 'formatted_address': '1200 West Harrison Street\nChicago, IL 60607\nUnited States of America'}]",,20195.0,,False,76,University Of Illinois At Chicago,-87.658001,41.87521,holiday,in-person,not_estimated,False
,academic,US,,,,3283199,2021-01-19 05:59:59+00:00,2020-07-23 22:08:11+00:00,gJrkf9r546vgBKRwM4,"['academic', 'holiday']","[-87.626848, 41.886073]","[['6295630', '6255149', '6252001', '4896861', '4888671', '4887398']]",,1.0,locality,2020-12-12 06:00:00+00:00,active,America/Chicago,Winter Break,2020-09-03 22:13:47+00:00,,,"[{'entity_id': 'SLPHTKkiJKhB5x2pRkXWzc', 'name': 'Harold Washington College, City College of Chicago', 'type': 'venue', 'formatted_address': '30 East Lake Street\nChicago, IL 60601\nUnited States of America'}]",,5836.0,,False,65,"Harold Washington College, City College of Chicago",-87.626848,41.886073,holiday,in-person,not_estimated,False
,academic,US,,,,431999,2020-12-12 05:59:59+00:00,2020-07-23 21:39:45+00:00,DGSzxjAB2Lm7G8KfgY,"['academic', 'exam', 'online-session']","[-87.658001, 41.87521]","[['6295630', '6255149', '6252001', '4896861', '4888671', '4887398']]",,1.0,locality,2020-12-07 06:00:00+00:00,active,America/Chicago,Fall Exams,2020-10-21 01:56:35+00:00,,,"[{'entity_id': 'QJjfX3mJEReLU4USjyzyKc', 'name': 'University Of Illinois At Chicago', 'type': 'venue', 'formatted_address': '1200 West Harrison Street\nChicago, IL 60607\nUnited States of America'}]",,2020.0,,False,56,University Of Illinois At Chicago,-87.658001,41.87521,exam,online-session,not_estimated,True
,academic,US,,,,431999,2020-12-12 05:59:59+00:00,2020-07-23 22:11:11+00:00,DkrNdYQJ2itajnEo4d,"['academic', 'exam', 'hybrid-session']","[-87.627006, 41.834873]","[['6295630', '6255149', '6252001', '4896861', '4888671', '4906683'], ['6295630', '6255149', '6252001', '4896861', '4888671', '4887398']]",,1.0,locality,2020-12-07 06:00:00+00:00,active,America/Chicago,Fall Exams,2020-10-21 02:05:01+00:00,,,"[{'entity_id': 'qmgnxQEmGMxGuMKgJvjj4t', 'name': 'Illinois Institute of Technology', 'type': 'venue', 'formatted_address': '10 West 35th Street\nChicago, IL 60616\nUnited States of America'}]",,1257.0,,False,52,Illinois Institute of Technology,-87.627006,41.834873,exam,hybrid-session,not_estimated,True
,academic,US,,,,1641599,2020-12-19 05:59:59+00:00,2020-07-23 21:34:28+00:00,H5US6YaWUvpQDB3NVA,"['academic', 'academic-session', 'online-session']","[-87.656646, 41.924756]","[['6295630', '6255149', '6252001', '4896861', '4888671', '4889019'], ['6295630', '6255149', '6252001', '4896861', '4888671', '4887398']]",,1.0,locality,2020-11-30 06:00:00+00:00,active,America/Chicago,December Intersession,2020-10-21 02:13:48+00:00,,,"[{'entity_id': 'N8RpJ6bDrg4eLJBjc5gNPw', 'name': 'DePaul University', 'type': 'venue', 'formatted_address': 'Chicago, IL 60614\nUnited States of America'}]",,0.0,,False,0,DePaul University,-87.656646,41.924756,academic-session,online-session,not_estimated,True
,academic,US,,,,345599,2020-11-30 05:59:59+00:00,2020-07-23 22:08:10+00:00,68WLUy6G4DhuFegPJQ,"['academic', 'holiday']","[-87.626848, 41.886073]","[['6295630', '6255149', '6252001', '4896861', '4888671', '4887398']]",,1.0,locality,2020-11-26 06:00:00+00:00,active,America/Chicago,Thanksgiving Break,2020-09-03 22:18:09+00:00,,,"[{'entity_id': 'SLPHTKkiJKhB5x2pRkXWzc', 'name': 'Harold Washington College, City College of Chicago', 'type': 'venue', 'formatted_address': '30 East Lake Street\nChicago, IL 60601\nUnited States of America'}]",,5836.0,,False,65,"Harold Washington College, City College of Chicago",-87.626848,41.886073,holiday,in-person,not_estimated,False
,academic,US,,,,345599,2020-11-30 05:59:59+00:00,2020-07-23 22:12:09+00:00,LWCsVbpAn9EWNSKNim,"['academic', 'holiday']","[-87.723959, 41.756059]","[['6295630', '6255149', '6252001', '4896861', '4888671', '4902450'], ['6295630', '6255149', '6252001', '4896861', '4888671', '4887398']]",,1.0,locality,2020-11-26 06:00:00+00:00,active,America/Chicago,Thanksgiving Break,2020-09-03 22:29:21+00:00,,,"[{'entity_id': 'rSSm5AvsBgWMQhcJaK6MUj', 'name': 'Richard J. Daley College', 'type': 'venue', 'formatted_address': '7500 S. Pulaski Road\nChicago, IL 60652\nUnited States of America'}]",,4388.0,,False,63,Richard J. Daley College,-87.723959,41.756059,holiday,in-person,not_estimated,False
,academic,US,,,,345599,2020-11-30 05:59:59+00:00,2020-07-23 21:39:44+00:00,hUTyGyqyhoufanf2J4,"['academic', 'holiday']","[-87.658001, 41.87521]","[['6295630', '6255149', '6252001', '4896861', '4888671', '4887398']]",,1.0,locality,2020-11-26 06:00:00+00:00,active,America/Chicago,Thanksgiving Break,2020-09-03 22:21:53+00:00,,,"[{'entity_id': 'QJjfX3mJEReLU4USjyzyKc', 'name': 'University Of Illinois At Chicago', 'type': 'venue', 'formatted_address': '1200 West Harrison Street\nChicago, IL 60607\nUnited States of America'}]",,20195.0,,False,76,University Of Illinois At Chicago,-87.658001,41.87521,holiday,in-person,not_estimated,False
,academic,US,,,,345599,2020-11-30 05:59:59+00:00,2020-07-23 22:11:50+00:00,yeq7udqRAHh2xRUKBR,"['academic', 'holiday']","[-87.674688, 41.877876]","[['6295630', '6255149', '6252001', '4896861', '4888671', '4887398']]",,1.0,locality,2020-11-26 06:00:00+00:00,active,America/Chicago,Thanksgiving Break,2020-09-03 22:17:38+00:00,,,"[{'entity_id': 'kjWXNvMsCemNExApReDM83', 'name': 'Malcolm X College', 'type': 'venue', 'formatted_address': '1900 West Jackson Boulevard\nChicago, IL 60612\nUnited States of America'}]",,4461.0,,False,63,Malcolm X College,-87.674688,41.877876,holiday,in-person,not_estimated,False
,academic,US,,,,431999,2020-11-30 05:59:59+00:00,2020-07-23 22:08:33+00:00,7qXbxYw543TscSnNwV,"['academic', 'holiday']","[-87.624444, 41.874226]","[['6295630', '6255149', '6252001', '4896861', '4888671', '4887398']]",,1.0,locality,2020-11-25 06:00:00+00:00,active,America/Chicago,Thanksgiving Break,2020-09-03 22:32:58+00:00,,,"[{'entity_id': 'cGTQDjm24PmvJL8nePCFcK', 'name': 'Columbia College Chicago', 'type': 'venue', 'formatted_address': '600 South Michigan Avenue\nChicago, IL 60605\nUnited States of America'}]",,6708.0,,False,67,Columbia College Chicago,-87.624444,41.874226,holiday,in-person,not_estimated,False
,academic,US,,,,431999,2020-11-30 05:59:59+00:00,2020-07-23 22:11:10+00:00,AUdTvPsE7UMxqET8rt,"['academic', 'holiday']","[-87.627006, 41.834873]","[['6295630', '6255149', '6252001', '4896861', '4888671', '4906683'], ['6295630', '6255149', '6252001', '4896861', '4888671', '4887398']]",,1.0,locality,2020-11-25 06:00:00+00:00,active,America/Chicago,Thanksgiving Break,2020-09-03 22:15:31+00:00,,,"[{'entity_id': 'qmgnxQEmGMxGuMKgJvjj4t', 'name': 'Illinois Institute of Technology', 'type': 'venue', 'formatted_address': '10 West 35th Street\nChicago, IL 60616\nUnited States of America'}]",,3143.0,,False,60,Illinois Institute of Technology,-87.627006,41.834873,holiday,in-person,not_estimated,False
,academic,US,,,,3455999,2021-01-04 05:59:59+00:00,2020-07-23 21:34:28+00:00,ykWVpk9SDh3zbRMFtS,"['academic', 'holiday']","[-87.656646, 41.924756]","[['6295630', '6255149', '6252001', '4896861', '4888671', '4889019'], ['6295630', '6255149', '6252001', '4896861', '4888671', '4887398']]",,1.0,locality,2020-11-25 06:00:00+00:00,active,America/Chicago,Winter Break,2020-09-03 22:27:14+00:00,,,"[{'entity_id': 'N8RpJ6bDrg4eLJBjc5gNPw', 'name': 'DePaul University', 'type': 'venue', 'formatted_address': 'Chicago, IL 60614\nUnited States of America'}]",,12766.0,,False,72,DePaul University,-87.656646,41.924756,holiday,in-person,not_estimated,False
,academic,US,,,,777599,2020-11-30 05:59:59+00:00,2020-07-23 21:40:11+00:00,zxNVNgNgeCeq2seQGX,"['academic', 'holiday']","[-87.598296, 41.790797]","[['6295630', '6255149', '6252001', '4896861', '4888671', '4894404'], ['6295630', '6255149', '6252001', '4896861', '4888671', '4887398']]",,1.0,locality,2020-11-21 06:00:00+00:00,active,America/Chicago,Thanksgiving Break,2020-09-03 22:18:14+00:00,,,"[{'entity_id': 'dZujRpmDZFJRjswYBjzatj', 'name': 'University of Chicago', 'type': 'venue', 'formatted_address': 'Chicago, IL 60637\nUnited States of America'}]",,6801.0,,False,67,University of Chicago,-87.598296,41.790797,holiday,in-person,not_estimated,False
,academic,US,,,,604799,2020-11-25 05:59:59+00:00,2020-07-23 21:34:27+00:00,KWE4NiXAT7iJ558th9,"['academic', 'exam', 'online-session']","[-87.656646, 41.924756]","[['6295630', '6255149', '6252001', '4896861', '4888671', '4889019'], ['6295630', '6255149', '6252001', '4896861', '4888671', '4887398']]",,1.0,locality,2020-11-18 06:00:00+00:00,active,America/Chicago,Fall Exams,2020-10-21 02:13:00+00:00,,,"[{'entity_id': 'N8RpJ6bDrg4eLJBjc5gNPw', 'name': 'DePaul University', 'type': 'venue', 'formatted_address': 'Chicago, IL 60614\nUnited States of America'}]",,0.0,,False,0,DePaul University,-87.656646,41.924756,exam,online-session,not_estimated,True
,academic,US,,,,259199,2020-10-13 04:59:59+00:00,2020-07-23 22:11:08+00:00,pXckNoMKsmvmHyh3DX,"['academic', 'holiday']","[-87.627006, 41.834873]","[['6295630', '6255149', '6252001', '4896861', '4888671', '4906683'], ['6295630', '6255149', '6252001', '4896861', '4888671', '4887398']]",,1.0,locality,2020-10-10 05:00:00+00:00,active,America/Chicago,Fall Break,2020-09-03 22:17:05+00:00,,,"[{'entity_id': 'qmgnxQEmGMxGuMKgJvjj4t', 'name': 'Illinois Institute of Technology', 'type': 'venue', 'formatted_address': '10 West 35th Street\nChicago, IL 60616\nUnited States of America'}]",,3143.0,,False,60,Illinois Institute of Technology,-87.627006,41.834873,holiday,in-person,not_estimated,False
,academic,US,,,,6397199,2020-12-12 05:59:59+00:00,2020-07-23 21:40:10+00:00,fQ3pVS7q59VM7A6j7M,"['academic', 'academic-session', 'hybrid-session']","[-87.598296, 41.790797]","[['6295630', '6255149', '6252001', '4896861', '4888671', '4894404'], ['6295630', '6255149', '6252001', '4896861', '4888671', '4887398']]",,1.0,locality,2020-09-29 05:00:00+00:00,active,America/Chicago,Fall Session,2020-10-21 02:11:08+00:00,,,"[{'entity_id': 'dZujRpmDZFJRjswYBjzatj', 'name': 'University of Chicago', 'type': 'venue', 'formatted_address': 'Chicago, IL 60637\nUnited States of America'}]",,2720.0,,False,59,University of Chicago,-87.598296,41.790797,academic-session,hybrid-session,not_estimated,True
,academic,US,,,,172799,2020-09-27 04:59:59+00:00,2020-07-23 22:11:09+00:00,P58RUCPJ8R5B3YBoAE,"['academic', 'social']","[-87.627006, 41.834873]","[['6295630', '6255149', '6252001', '4896861', '4888671', '4906683'], ['6295630', '6255149', '6252001', '4896861', '4888671', '4887398']]",,1.0,locality,2020-09-25 05:00:00+00:00,active,America/Chicago,Homecoming,2020-07-23 22:13:23+00:00,,,"[{'entity_id': 'qmgnxQEmGMxGuMKgJvjj4t', 'name': 'Illinois Institute of Technology', 'type': 'venue', 'formatted_address': '10 West 35th Street\nChicago, IL 60616\nUnited States of America'}]",,0.0,,False,0,Illinois Institute of Technology,-87.627006,41.834873,social,in-person,not_estimated,True
,academic,US,,,,6051599,2020-11-18 05:59:59+00:00,2020-07-23 21:34:26+00:00,uHTpK9qBY5sj4eNq3V,"['academic', 'academic-session', 'online-session']","[-87.656646, 41.924756]","[['6295630', '6255149', '6252001', '4896861', '4888671', '4889019'], ['6295630', '6255149', '6252001', '4896861', '4888671', '4887398']]",,1.0,locality,2020-09-09 05:00:00+00:00,active,America/Chicago,Fall Session,2020-10-21 02:15:09+00:00,,,"[{'entity_id': 'N8RpJ6bDrg4eLJBjc5gNPw', 'name': 'DePaul University', 'type': 'venue', 'formatted_address': 'Chicago, IL 60614\nUnited States of America'}]",,0.0,,False,0,DePaul University,-87.656646,41.924756,academic-session,online-session,not_estimated,True
,academic,US,,,,8816399,2020-12-19 05:59:59+00:00,2020-07-23 22:08:32+00:00,tbcnjiUrhHuHFvNfQg,"['academic', 'academic-session', 'online-session']","[-87.624444, 41.874226]","[['6295630', '6255149', '6252001', '4896861', '4888671', '4887398']]",,1.0,locality,2020-09-08 05:00:00+00:00,active,America/Chicago,Fall Session,2020-10-21 01:55:12+00:00,,,"[{'entity_id': 'cGTQDjm24PmvJL8nePCFcK', 'name': 'Columbia College Chicago', 'type': 'venue', 'formatted_address': '600 South Michigan Avenue\nChicago, IL 60605\nUnited States of America'}]",,702.0,,False,47,Columbia College Chicago,-87.624444,41.874226,academic-session,online-session,not_estimated,True
,academic,US,,,,2678399,2020-09-29 04:59:59+00:00,2020-07-23 21:40:09+00:00,gUSzRQgxhgWDosHsUJ,"['academic', 'holiday']","[-87.598296, 41.790797]","[['6295630', '6255149', '6252001', '4896861', '4888671', '4894404'], ['6295630', '6255149', '6252001', '4896861', '4888671', '4887398']]",,1.0,locality,2020-08-29 05:00:00+00:00,active,America/Chicago,Fall Break,2020-09-03 22:16:08+00:00,,,"[{'entity_id': 'dZujRpmDZFJRjswYBjzatj', 'name': 'University of Chicago', 'type': 'venue', 'formatted_address': 'Chicago, IL 60637\nUnited States of America'}]",,6801.0,,False,67,University of Chicago,-87.598296,41.790797,holiday,in-person,not_estimated,False
,academic,US,,,,9507599,2020-12-12 05:59:59+00:00,2020-07-23 22:12:08+00:00,87jC648QoMvXWs4XNZ,"['academic', 'academic-session', 'online-session']","[-87.723959, 41.756059]","[['6295630', '6255149', '6252001', '4896861', '4888671', '4902450'], ['6295630', '6255149', '6252001', '4896861', '4888671', '4887398']]",,1.0,locality,2020-08-24 05:00:00+00:00,active,America/Chicago,Fall Session,2020-10-21 01:59:59+00:00,,,"[{'entity_id': 'rSSm5AvsBgWMQhcJaK6MUj', 'name': 'Richard J. Daley College', 'type': 'venue', 'formatted_address': '7500 S. Pulaski Road\nChicago, IL 60652\nUnited States of America'}]",,467.0,,False,43,Richard J. Daley College,-87.723959,41.756059,academic-session,online-session,not_estimated,True
,academic,US,,,,9507599,2020-12-12 05:59:59+00:00,2020-07-23 22:11:49+00:00,9zC8FsDTvF9iC99QVn,"['academic', 'academic-session', 'online-session']","[-87.674688, 41.877876]","[['6295630', '6255149', '6252001', '4896861', '4888671', '4887398']]",,1.0,locality,2020-08-24 05:00:00+00:00,active,America/Chicago,Fall Session,2020-10-21 02:13:04+00:00,,,"[{'entity_id': 'kjWXNvMsCemNExApReDM83', 'name': 'Malcolm X College', 'type': 'venue', 'formatted_address': '1900 West Jackson Boulevard\nChicago, IL 60612\nUnited States of America'}]",,446.0,,False,43,Malcolm X College,-87.674688,41.877876,academic-session,online-session,not_estimated,True
,academic,US,,,,8902799,2020-12-05 05:59:59+00:00,2020-07-23 21:39:43+00:00,SS3BpXQZ6kyB6xStut,"['academic', 'academic-session', 'online-session']","[-87.658001, 41.87521]","[['6295630', '6255149', '6252001', '4896861', '4888671', '4887398']]",,1.0,locality,2020-08-24 05:00:00+00:00,active,America/Chicago,Fall Session,2020-10-21 01:56:34+00:00,,,"[{'entity_id': 'QJjfX3mJEReLU4USjyzyKc', 'name': 'University Of Illinois At Chicago', 'type': 'venue', 'formatted_address': '1200 West Harrison Street\nChicago, IL 60607\nUnited States of America'}]",,2020.0,,False,56,University Of Illinois At Chicago,-87.658001,41.87521,academic-session,online-session,not_estimated,True
,academic,US,,,,8902799,2020-12-05 05:59:59+00:00,2020-07-23 22:11:07+00:00,rkPa8BrBT5xu429BCA,"['academic', 'academic-session', 'hybrid-session']","[-87.627006, 41.834873]","[['6295630', '6255149', '6252001', '4896861', '4888671', '4906683'], ['6295630', '6255149', '6252001', '4896861', '4888671', '4887398']]",,1.0,locality,2020-08-24 05:00:00+00:00,active,America/Chicago,Fall Session,2020-10-21 02:12:04+00:00,,,"[{'entity_id': 'qmgnxQEmGMxGuMKgJvjj4t', 'name': 'Illinois Institute of Technology', 'type': 'venue', 'formatted_address': '10 West 35th Street\nChicago, IL 60616\nUnited States of America'}]",,1257.0,,False,52,Illinois Institute of Technology,-87.627006,41.834873,academic-session,hybrid-session,not_estimated,True
,academic,US,,,,9507599,2020-12-12 05:59:59+00:00,2020-07-23 22:08:10+00:00,wVHxwjdEkCpUB2Pzpa,"['academic', 'academic-session', 'online-session']","[-87.626848, 41.886073]","[['6295630', '6255149', '6252001', '4896861', '4888671', '4887398']]",,1.0,locality,2020-08-24 05:00:00+00:00,active,America/Chicago,Fall Session,2020-10-21 01:59:47+00:00,,,"[{'entity_id': 'SLPHTKkiJKhB5x2pRkXWzc', 'name': 'Harold Washington College, City College of Chicago', 'type': 'venue', 'formatted_address': '30 East Lake Street\nChicago, IL 60601\nUnited States of America'}]",,605.0,,False,46,"Harold Washington College, City College of Chicago",-87.626848,41.886073,academic-session,online-session,not_estimated,True
,academic,US,,,,5875199,2020-08-29 04:59:59+00:00,2020-07-23 21:40:08+00:00,Qs7mp3QVxhUxMJPVgu,"['academic', 'academic-session']","[-87.598296, 41.790797]","[['6295630', '6255149', '6252001', '4896861', '4888671', '4894404'], ['6295630', '6255149', '6252001', '4896861', '4888671', '4887398']]",,1.0,locality,2020-06-22 05:00:00+00:00,active,America/Chicago,Summer Session,2020-09-03 22:13:19+00:00,,,"[{'entity_id': 'dZujRpmDZFJRjswYBjzatj', 'name': 'University of Chicago', 'type': 'venue', 'formatted_address': 'Chicago, IL 60637\nUnited States of America'}]",,6801.0,,False,67,University of Chicago,-87.598296,41.790797,academic-session,in-person,not_estimated,True
,academic,US,,,,6047999,2020-08-24 04:59:59+00:00,2020-07-23 21:34:25+00:00,w6Pv6FY88Lr7DMGBW9,"['academic', 'academic-session']","[-87.656646, 41.924756]","[['6295630', '6255149', '6252001', '4896861', '4888671', '4889019'], ['6295630', '6255149', '6252001', '4896861', '4888671', '4887398']]",,1.0,locality,2020-06-15 05:00:00+00:00,active,America/Chicago,Summer Session,2020-09-03 22:22:03+00:00,,,"[{'entity_id': 'N8RpJ6bDrg4eLJBjc5gNPw', 'name': 'DePaul University', 'type': 'venue', 'formatted_address': 'Chicago, IL 60614\nUnited States of America'}]",,12766.0,,False,72,DePaul University,-87.656646,41.924756,academic-session,in-person,not_estimated,True
,academic,US,,,,7603199,2020-09-09 04:59:59+00:00,2020-07-23 21:34:25+00:00,p5d2MFVJ7DyTspwmnz,"['academic', 'holiday']","[-87.656646, 41.924756]","[['6295630', '6255149', '6252001', '4896861', '4888671', '4889019'], ['6295630', '6255149', '6252001', '4896861', '4888671', '4887398']]",,1.0,locality,2020-06-13 05:00:00+00:00,active,America/Chicago,Summer Break,2020-09-03 22:30:19+00:00,,,"[{'entity_id': 'N8RpJ6bDrg4eLJBjc5gNPw', 'name': 'DePaul University', 'type': 'venue', 'formatted_address': 'Chicago, IL 60614\nUnited States of America'}]",,12766.0,,False,72,DePaul University,-87.656646,41.924756,holiday,in-person,not_estimated,False
,academic,US,,,,777599,2020-06-22 04:59:59+00:00,2020-07-23 21:40:07+00:00,ypXPMjLQCS8aHs4gtN,"['academic', 'holiday']","[-87.598296, 41.790797]","[['6295630', '6255149', '6252001', '4896861', '4888671', '4894404'], ['6295630', '6255149', '6252001', '4896861', '4888671', '4887398']]",,1.0,locality,2020-06-13 05:00:00+00:00,active,America/Chicago,Summer Break,2020-09-03 22:28:44+00:00,,,"[{'entity_id': 'dZujRpmDZFJRjswYBjzatj', 'name': 'University of Chicago', 'type': 'venue', 'formatted_address': 'Chicago, IL 60637\nUnited States of America'}]",,6801.0,,False,67,University of Chicago,-87.598296,41.790797,holiday,in-person,not_estimated,False
,academic,US,,,,431999,2020-06-13 04:59:59+00:00,2020-07-23 21:34:23+00:00,Pz86KjiR25foGNiguE,"['academic', 'exam']","[-87.656646, 41.924756]","[['6295630', '6255149', '6252001', '4896861', '4888671', '4889019'], ['6295630', '6255149', '6252001', '4896861', '4888671', '4887398']]",,1.0,locality,2020-06-08 05:00:00+00:00,active,America/Chicago,Spring Exams,2020-09-03 22:21:19+00:00,,,"[{'entity_id': 'N8RpJ6bDrg4eLJBjc5gNPw', 'name': 'DePaul University', 'type': 'venue', 'formatted_address': 'Chicago, IL 60614\nUnited States of America'}]",,12766.0,,False,72,DePaul University,-87.656646,41.924756,exam,in-person,not_estimated,True
,academic,US,,,,4579199,2020-07-26 04:59:59+00:00,2020-07-23 22:11:48+00:00,2YbptY5UkExNpWLLda,"['academic', 'academic-session']","[-87.674688, 41.877876]","[['6295630', '6255149', '6252001', '4896861', '4888671', '4887398']]",,1.0,locality,2020-06-03 05:00:00+00:00,active,America/Chicago,Summer Session,2020-09-03 22:18:16+00:00,,,"[{'entity_id': 'kjWXNvMsCemNExApReDM83', 'name': 'Malcolm X College', 'type': 'venue', 'formatted_address': '1900 West Jackson Boulevard\nChicago, IL 60612\nUnited States of America'}]",,4461.0,,False,63,Malcolm X College,-87.674688,41.877876,academic-session,in-person,not_estimated,True
,academic,US,,,,4579199,2020-07-26 04:59:59+00:00,2020-07-23 22:08:08+00:00,mHo2rDJJbHvHmr4mUT,"['academic', 'academic-session']","[-87.626848, 41.886073]","[['6295630', '6255149', '6252001', '4896861', '4888671', '4887398']]",,1.0,locality,2020-06-03 05:00:00+00:00,active,America/Chicago,Summer Session,2020-09-03 22:26:53+00:00,,,"[{'entity_id': 'SLPHTKkiJKhB5x2pRkXWzc', 'name': 'Harold Washington College, City College of Chicago', 'type': 'venue', 'formatted_address': '30 East Lake Street\nChicago, IL 60601\nUnited States of America'}]",,5836.0,,False,65,"Harold Washington College, City College of Chicago",-87.626848,41.886073,academic-session,in-person,not_estimated,True
,academic,US,,,,4579199,2020-07-26 04:59:59+00:00,2020-07-23 22:12:07+00:00,mJWJ6zcqjKtycz8dLf,"['academic', 'academic-session']","[-87.723959, 41.756059]","[['6295630', '6255149', '6252001', '4896861', '4888671', '4902450'], ['6295630', '6255149', '6252001', '4896861', '4888671', '4887398']]",,1.0,locality,2020-06-03 05:00:00+00:00,active,America/Chicago,Summer Session,2020-09-03 22:14:46+00:00,,,"[{'entity_id': 'rSSm5AvsBgWMQhcJaK6MUj', 'name': 'Richard J. Daley College', 'type': 'venue', 'formatted_address': '7500 S. Pulaski Road\nChicago, IL 60652\nUnited States of America'}]",,4388.0,,False,63,Richard J. Daley College,-87.723959,41.756059,academic-session,in-person,not_estimated,True
,academic,US,,,,7171199,2020-08-23 04:59:59+00:00,2020-07-23 22:08:30+00:00,CLZo7RX3CpUh5KEY34,"['academic', 'academic-session']","[-87.624444, 41.874226]","[['6295630', '6255149', '6252001', '4896861', '4888671', '4887398']]",,1.0,locality,2020-06-01 05:00:00+00:00,active,America/Chicago,Summer Session,2020-09-03 22:32:21+00:00,,,"[{'entity_id': 'cGTQDjm24PmvJL8nePCFcK', 'name': 'Columbia College Chicago', 'type': 'venue', 'formatted_address': '600 South Michigan Avenue\nChicago, IL 60605\nUnited States of America'}]",,2012.0,,False,56,Columbia College Chicago,-87.624444,41.874226,academic-session,in-person,not_estimated,True
,academic,US,,,,7171199,2020-08-09 04:59:59+00:00,2020-07-23 22:11:06+00:00,HM2vocAxj72fK73xxf,"['academic', 'academic-session']","[-87.627006, 41.834873]","[['6295630', '6255149', '6252001', '4896861', '4888671', '4906683'], ['6295630', '6255149', '6252001', '4896861', '4888671', '4887398']]",,1.0,locality,2020-05-18 05:00:00+00:00,active,America/Chicago,Summer Session,2020-09-03 22:31:28+00:00,,,"[{'entity_id': 'qmgnxQEmGMxGuMKgJvjj4t', 'name': 'Illinois Institute of Technology', 'type': 'venue', 'formatted_address': '10 West 35th Street\nChicago, IL 60616\nUnited States of America'}]",,942.0,,False,49,Illinois Institute of Technology,-87.627006,41.834873,academic-session,in-person,not_estimated,True
,academic,US,,,,7084799,2020-08-08 04:59:59+00:00,2020-07-23 21:39:42+00:00,ZuJMqVSntjhbwdRQvP,"['academic', 'academic-session']","[-87.658001, 41.87521]","[['6295630', '6255149', '6252001', '4896861', '4888671', '4887398']]",,1.0,locality,2020-05-18 05:00:00+00:00,active,America/Chicago,Summer Session,2020-09-03 22:16:01+00:00,,,"[{'entity_id': 'QJjfX3mJEReLU4USjyzyKc', 'name': 'University Of Illinois At Chicago', 'type': 'venue', 'formatted_address': '1200 West Harrison Street\nChicago, IL 60607\nUnited States of America'}]",,6058.0,,False,66,University Of Illinois At Chicago,-87.658001,41.87521,academic-session,in-person,not_estimated,True
,academic,US,,,,9935999,2020-09-08 04:59:59+00:00,2020-07-23 22:08:31+00:00,Ys3ZXfgykuSnmpj8qH,"['academic', 'holiday']","[-87.624444, 41.874226]","[['6295630', '6255149', '6252001', '4896861', '4888671', '4887398']]",,1.0,locality,2020-05-16 05:00:00+00:00,active,America/Chicago,Summer Break,2020-09-03 22:16:07+00:00,,,"[{'entity_id': 'cGTQDjm24PmvJL8nePCFcK', 'name': 'Columbia College Chicago', 'type': 'venue', 'formatted_address': '600 South Michigan Avenue\nChicago, IL 60605\nUnited States of America'}]",,6708.0,,False,67,Columbia College Chicago,-87.624444,41.874226,holiday,in-person,not_estimated,False
,academic,US,,,,9244799,2020-08-24 04:59:59+00:00,2020-07-23 22:12:08+00:00,8sQvK9F3fb5L6WJkXc,"['academic', 'holiday']","[-87.723959, 41.756059]","[['6295630', '6255149', '6252001', '4896861', '4888671', '4902450'], ['6295630', '6255149', '6252001', '4896861', '4888671', '4887398']]",,1.0,locality,2020-05-09 05:00:00+00:00,active,America/Chicago,Summer Break,2020-09-03 22:29:14+00:00,,,"[{'entity_id': 'rSSm5AvsBgWMQhcJaK6MUj', 'name': 'Richard J. Daley College', 'type': 'venue', 'formatted_address': '7500 S. Pulaski Road\nChicago, IL 60652\nUnited States of America'}]",,4388.0,,False,63,Richard J. Daley College,-87.723959,41.756059,holiday,in-person,not_estimated,False
,academic,US,,,,9244799,2020-08-24 04:59:59+00:00,2020-07-23 22:11:06+00:00,P5JppCS2TjNZCBtAmb,"['academic', 'holiday']","[-87.627006, 41.834873]","[['6295630', '6255149', '6252001', '4896861', '4888671', '4906683'], ['6295630', '6255149', '6252001', '4896861', '4888671', '4887398']]",,1.0,locality,2020-05-09 05:00:00+00:00,active,America/Chicago,Summer Break,2020-09-03 22:18:35+00:00,,,"[{'entity_id': 'qmgnxQEmGMxGuMKgJvjj4t', 'name': 'Illinois Institute of Technology', 'type': 'venue', 'formatted_address': '10 West 35th Street\nChicago, IL 60616\nUnited States of America'}]",,3143.0,,False,60,Illinois Institute of Technology,-87.627006,41.834873,holiday,in-person,not_estimated,False
,academic,US,,,,9244799,2020-08-24 04:59:59+00:00,2020-07-23 22:08:09+00:00,bWrbPd3z7AvAK7Gu3D,"['academic', 'holiday']","[-87.626848, 41.886073]","[['6295630', '6255149', '6252001', '4896861', '4888671', '4887398']]",,1.0,locality,2020-05-09 05:00:00+00:00,active,America/Chicago,Summer Break,2020-09-03 22:15:29+00:00,,,"[{'entity_id': 'SLPHTKkiJKhB5x2pRkXWzc', 'name': 'Harold Washington College, City College of Chicago', 'type': 'venue', 'formatted_address': '30 East Lake Street\nChicago, IL 60601\nUnited States of America'}]",,5836.0,,False,65,"Harold Washington College, City College of Chicago",-87.626848,41.886073,holiday,in-person,not_estimated,False
,academic,US,,,,9244799,2020-08-24 04:59:59+00:00,2020-07-23 21:39:42+00:00,gVejRPHW3iiMDgG3N6,"['academic', 'holiday']","[-87.658001, 41.87521]","[['6295630', '6255149', '6252001', '4896861', '4888671', '4887398']]",,1.0,locality,2020-05-09 05:00:00+00:00,active,America/Chicago,Summer Break,2020-09-03 22:20:13+00:00,,,"[{'entity_id': 'QJjfX3mJEReLU4USjyzyKc', 'name': 'University Of Illinois At Chicago', 'type': 'venue', 'formatted_address': '1200 West Harrison Street\nChicago, IL 60607\nUnited States of America'}]",,20195.0,,False,76,University Of Illinois At Chicago,-87.658001,41.87521,holiday,in-person,not_estimated,False
,academic,US,,,,9244799,2020-08-24 04:59:59+00:00,2020-07-23 22:11:48+00:00,zDK3j4KdDc6jjMGT4f,"['academic', 'holiday']","[-87.674688, 41.877876]","[['6295630', '6255149', '6252001', '4896861', '4888671', '4887398']]",,1.0,locality,2020-05-09 05:00:00+00:00,active,America/Chicago,Summer Break,2020-09-03 22:32:42+00:00,,,"[{'entity_id': 'kjWXNvMsCemNExApReDM83', 'name': 'Malcolm X College', 'type': 'venue', 'formatted_address': '1900 West Jackson Boulevard\nChicago, IL 60612\nUnited States of America'}]",,4461.0,,False,63,Malcolm X College,-87.674688,41.877876,holiday,in-person,not_estimated,False
,academic,US,,,,431999,2020-05-09 04:59:59+00:00,2020-07-23 22:11:04+00:00,4i9B5vUM62REpSzbgb,"['academic', 'exam']","[-87.627006, 41.834873]","[['6295630', '6255149', '6252001', '4896861', '4888671', '4906683'], ['6295630', '6255149', '6252001', '4896861', '4888671', '4887398']]",,1.0,locality,2020-05-04 05:00:00+00:00,active,America/Chicago,Spring Exams,2020-09-03 22:20:31+00:00,,,"[{'entity_id': 'qmgnxQEmGMxGuMKgJvjj4t', 'name': 'Illinois Institute of Technology', 'type': 'venue', 'formatted_address': '10 West 35th Street\nChicago, IL 60616\nUnited States of America'}]",,3143.0,,False,60,Illinois Institute of Technology,-87.627006,41.834873,exam,in-person,not_estimated,True
,academic,US,,,,431999,2020-05-09 04:59:59+00:00,2020-07-23 21:39:39+00:00,KQA5KQE8tQtjFA7S76,"['academic', 'exam']","[-87.658001, 41.87521]","[['6295630', '6255149', '6252001', '4896861', '4888671', '4887398']]",,1.0,locality,2020-05-04 05:00:00+00:00,active,America/Chicago,Spring Exams,2020-09-03 22:21:16+00:00,,,"[{'entity_id': 'QJjfX3mJEReLU4USjyzyKc', 'name': 'University Of Illinois At Chicago', 'type': 'venue', 'formatted_address': '1200 West Harrison Street\nChicago, IL 60607\nUnited States of America'}]",,20195.0,,False,76,University Of Illinois At Chicago,-87.658001,41.87521,exam,in-person,not_estimated,True
,academic,US,,,,5875199,2020-06-13 04:59:59+00:00,2020-07-23 21:40:06+00:00,a6FuBshrKATAwq4Hc9,"['academic', 'academic-session']","[-87.598296, 41.790797]","[['6295630', '6255149', '6252001', '4896861', '4888671', '4894404'], ['6295630', '6255149', '6252001', '4896861', '4888671', '4887398']]",,1.0,locality,2020-04-06 05:00:00+00:00,active,America/Chicago,Spring Session,2020-09-03 22:24:28+00:00,,,"[{'entity_id': 'dZujRpmDZFJRjswYBjzatj', 'name': 'University of Chicago', 'type': 'venue', 'formatted_address': 'Chicago, IL 60637\nUnited States of America'}]",,6801.0,,False,67,University of Chicago,-87.598296,41.790797,academic-session,in-person,not_estimated,True
,academic,US,,,,777599,2020-04-13 04:59:59+00:00,2020-07-23 22:08:06+00:00,BtixTXWFjLCAoSbtQ4,"['academic', 'holiday']","[-87.626848, 41.886073]","[['6295630', '6255149', '6252001', '4896861', '4888671', '4887398']]",,1.0,locality,2020-04-04 05:00:00+00:00,active,America/Chicago,Spring Break,2020-09-03 22:31:34+00:00,,,"[{'entity_id': 'SLPHTKkiJKhB5x2pRkXWzc', 'name': 'Harold Washington College, City College of Chicago', 'type': 'venue', 'formatted_address': '30 East Lake Street\nChicago, IL 60601\nUnited States of America'}]",,5836.0,,False,65,"Harold Washington College, City College of Chicago",-87.626848,41.886073,holiday,in-person,not_estimated,False
,academic,US,,,,777599,2020-04-13 04:59:59+00:00,2020-07-23 22:11:45+00:00,Sc9iMZAdGaZyVSjRV4,"['academic', 'holiday']","[-87.674688, 41.877876]","[['6295630', '6255149', '6252001', '4896861', '4888671', '4887398']]",,1.0,locality,2020-04-04 05:00:00+00:00,active,America/Chicago,Spring Break,2020-09-03 22:16:34+00:00,,,"[{'entity_id': 'kjWXNvMsCemNExApReDM83', 'name': 'Malcolm X College', 'type': 'venue', 'formatted_address': '1900 West Jackson Boulevard\nChicago, IL 60612\nUnited States of America'}]",,4461.0,,False,63,Malcolm X College,-87.674688,41.877876,holiday,in-person,not_estimated,False
,academic,US,,,,777599,2020-04-13 04:59:59+00:00,2020-07-23 22:12:05+00:00,txKBcFbQUEEPYhhNbV,"['academic', 'holiday']","[-87.723959, 41.756059]","[['6295630', '6255149', '6252001', '4896861', '4888671', '4902450'], ['6295630', '6255149', '6252001', '4896861', '4888671', '4887398']]",,1.0,locality,2020-04-04 05:00:00+00:00,active,America/Chicago,Spring Break,2020-09-03 22:27:38+00:00,,,"[{'entity_id': 'rSSm5AvsBgWMQhcJaK6MUj', 'name': 'Richard J. Daley College', 'type': 'venue', 'formatted_address': '7500 S. Pulaski Road\nChicago, IL 60652\nUnited States of America'}]",,4388.0,,False,63,Richard J. Daley College,-87.723959,41.756059,holiday,in-person,not_estimated,False
,academic,US,,,,5875199,2020-06-06 04:59:59+00:00,2020-07-23 21:34:22+00:00,uZAzcLJnNtAnjbDVbz,"['academic', 'academic-session']","[-87.656646, 41.924756]","[['6295630', '6255149', '6252001', '4896861', '4888671', '4889019'], ['6295630', '6255149', '6252001', '4896861', '4888671', '4887398']]",,1.0,locality,2020-03-30 05:00:00+00:00,active,America/Chicago,Spring Session,2020-09-03 22:18:01+00:00,,,"[{'entity_id': 'N8RpJ6bDrg4eLJBjc5gNPw', 'name': 'DePaul University', 'type': 'venue', 'formatted_address': 'Chicago, IL 60614\nUnited States of America'}]",,12766.0,,False,72,DePaul University,-87.656646,41.924756,academic-session,in-person,not_estimated,True
,academic,US,,,,777599,2020-04-06 04:59:59+00:00,2020-07-23 22:08:29+00:00,Q67tivEn5fxGpwcNc6,"['academic', 'holiday']","[-87.624444, 41.874226]","[['6295630', '6255149', '6252001', '4896861', '4888671', '4887398']]",,1.0,locality,2020-03-28 05:00:00+00:00,active,America/Chicago,Spring Break,2020-09-03 22:23:05+00:00,,,"[{'entity_id': 'cGTQDjm24PmvJL8nePCFcK', 'name': 'Columbia College Chicago', 'type': 'venue', 'formatted_address': '600 South Michigan Avenue\nChicago, IL 60605\nUnited States of America'}]",,6708.0,,False,67,Columbia College Chicago,-87.624444,41.874226,holiday,in-person,not_estimated,False
,academic,US,,,,777599,2020-03-30 04:59:59+00:00,2020-07-23 21:34:21+00:00,cknJKvybb6kkLAKskX,"['academic', 'holiday']","[-87.656646, 41.924756]","[['6295630', '6255149', '6252001', '4896861', '4888671', '4889019'], ['6295630', '6255149', '6252001', '4896861', '4888671', '4887398']]",,1.0,locality,2020-03-21 05:00:00+00:00,active,America/Chicago,Spring Break,2020-09-03 22:28:17+00:00,,,"[{'entity_id': 'N8RpJ6bDrg4eLJBjc5gNPw', 'name': 'DePaul University', 'type': 'venue', 'formatted_address': 'Chicago, IL 60614\nUnited States of America'}]",,12766.0,,False,72,DePaul University,-87.656646,41.924756,holiday,in-person,not_estimated,False
,academic,US,,,,1382399,2020-04-06 04:59:59+00:00,2020-07-23 21:40:05+00:00,euBHR2fX4TLixZojzr,"['academic', 'holiday']","[-87.598296, 41.790797]","[['6295630', '6255149', '6252001', '4896861', '4888671', '4894404'], ['6295630', '6255149', '6252001', '4896861', '4888671', '4887398']]",,1.0,locality,2020-03-21 05:00:00+00:00,active,America/Chicago,Spring Break,2020-09-03 22:20:44+00:00,,,"[{'entity_id': 'dZujRpmDZFJRjswYBjzatj', 'name': 'University of Chicago', 'type': 'venue', 'formatted_address': 'Chicago, IL 60637\nUnited States of America'}]",,6801.0,,False,67,University of Chicago,-87.598296,41.790797,holiday,in-person,not_estimated,False
,academic,US,,,,431999,2020-03-21 04:59:59+00:00,2020-07-23 21:34:21+00:00,rFnHsUN5N7wgho8iW6,"['academic', 'exam']","[-87.656646, 41.924756]","[['6295630', '6255149', '6252001', '4896861', '4888671', '4889019'], ['6295630', '6255149', '6252001', '4896861', '4888671', '4887398']]",,1.0,locality,2020-03-16 05:00:00+00:00,active,America/Chicago,Winter Exams,2020-09-03 22:30:12+00:00,,,"[{'entity_id': 'N8RpJ6bDrg4eLJBjc5gNPw', 'name': 'DePaul University', 'type': 'venue', 'formatted_address': 'Chicago, IL 60614\nUnited States of America'}]",,12766.0,,False,72,DePaul University,-87.656646,41.924756,exam,in-person,not_estimated,True
,academic,US,,,,1382399,2020-03-30 04:59:59+00:00,2020-07-23 21:39:38+00:00,2aVVykr9LPtsboHJtG,"['academic', 'holiday']","[-87.658001, 41.87521]","[['6295630', '6255149', '6252001', '4896861', '4888671', '4887398']]",,1.0,locality,2020-03-14 05:00:00+00:00,active,America/Chicago,Spring Break,2020-09-03 22:30:02+00:00,,,"[{'entity_id': 'QJjfX3mJEReLU4USjyzyKc', 'name': 'University Of Illinois At Chicago', 'type': 'venue', 'formatted_address': '1200 West Harrison Street\nChicago, IL 60607\nUnited States of America'}]",,20195.0,,False,76,University Of Illinois At Chicago,-87.658001,41.87521,holiday,in-person,not_estimated,False
,academic,US,,,,777599,2020-03-23 04:59:59+00:00,2020-07-23 22:11:03+00:00,L8inCZY78FdJCF6xgA,"['academic', 'holiday']","[-87.627006, 41.834873]","[['6295630', '6255149', '6252001', '4896861', '4888671', '4906683'], ['6295630', '6255149', '6252001', '4896861', '4888671', '4887398']]",,1.0,locality,2020-03-14 05:00:00+00:00,active,America/Chicago,Spring Break,2020-09-03 22:28:52+00:00,,,"[{'entity_id': 'qmgnxQEmGMxGuMKgJvjj4t', 'name': 'Illinois Institute of Technology', 'type': 'venue', 'formatted_address': '10 West 35th Street\nChicago, IL 60616\nUnited States of America'}]",,3143.0,,False,60,Illinois Institute of Technology,-87.627006,41.834873,holiday,in-person,not_estimated,False
,academic,US,,All classes being conducted remotely / suspended in response to COVID-19,,14342399,2020-08-24 04:59:59+00:00,2020-07-23 20:51:23+00:00,5P9a8otqiUK7MmfH7J,"['academic', 'holiday']","[-87.626848, 41.886073]","[['6295630', '6255149', '6252001', '4896861', '4888671', '4887398']]",,1.0,locality,2020-03-11 05:00:00+00:00,active,America/Chicago,COVID-19 Class Cancellation,2020-09-03 22:16:26+00:00,,,"[{'entity_id': 'SLPHTKkiJKhB5x2pRkXWzc', 'name': 'Harold Washington College, City College of Chicago', 'type': 'venue', 'formatted_address': '30 East Lake Street\nChicago, IL 60601\nUnited States of America'}]",,5836.0,,False,65,"Harold Washington College, City College of Chicago",-87.626848,41.886073,holiday,in-person,not_estimated,False
,academic,US,,All classes being conducted remotely / suspended in response to COVID-19,,14342399,2020-08-24 04:59:59+00:00,2020-07-23 20:51:32+00:00,MMGkqcHVGK7T5386Dc,"['academic', 'holiday']","[-87.674688, 41.877876]","[['6295630', '6255149', '6252001', '4896861', '4888671', '4887398']]",,1.0,locality,2020-03-11 05:00:00+00:00,active,America/Chicago,COVID-19 Class Cancellation,2020-09-03 22:17:39+00:00,,,"[{'entity_id': 'kjWXNvMsCemNExApReDM83', 'name': 'Malcolm X College', 'type': 'venue', 'formatted_address': '1900 West Jackson Boulevard\nChicago, IL 60612\nUnited States of America'}]",,4461.0,,False,63,Malcolm X College,-87.674688,41.877876,holiday,in-person,not_estimated,False
,academic,US,,All classes being conducted remotely / suspended in response to COVID-19,,8899199,2020-06-22 04:59:59+00:00,2020-07-23 20:51:13+00:00,NjGnDp2Y6TyMAzuSu5,"['academic', 'holiday']","[-87.598296, 41.790797]","[['6295630', '6255149', '6252001', '4896861', '4888671', '4894404'], ['6295630', '6255149', '6252001', '4896861', '4888671', '4887398']]",,1.0,locality,2020-03-11 05:00:00+00:00,active,America/Chicago,COVID-19 Class Cancellation,2020-09-03 22:19:26+00:00,,,"[{'entity_id': 'dZujRpmDZFJRjswYBjzatj', 'name': 'University of Chicago', 'type': 'venue', 'formatted_address': 'Chicago, IL 60637\nUnited States of America'}]",,6801.0,,False,67,University of Chicago,-87.598296,41.790797,holiday,in-person,not_estimated,False
,academic,US,,All classes being conducted remotely / suspended in response to COVID-19,,14342399,2020-08-24 04:59:59+00:00,2020-07-23 20:51:37+00:00,VFy3gt73ZvMgkpwTuP,"['academic', 'holiday']","[-87.723959, 41.756059]","[['6295630', '6255149', '6252001', '4896861', '4888671', '4902450'], ['6295630', '6255149', '6252001', '4896861', '4888671', '4887398']]",,1.0,locality,2020-03-11 05:00:00+00:00,active,America/Chicago,COVID-19 Class Cancellation,2020-09-03 22:28:11+00:00,,,"[{'entity_id': 'rSSm5AvsBgWMQhcJaK6MUj', 'name': 'Richard J. Daley College', 'type': 'venue', 'formatted_address': '7500 S. Pulaski Road\nChicago, IL 60652\nUnited States of America'}]",,4388.0,,False,63,Richard J. Daley College,-87.723959,41.756059,holiday,in-person,not_estimated,False
,academic,US,,All classes being conducted remotely / suspended in response to COVID-19,,14342399,2020-08-24 04:59:59+00:00,2020-07-23 20:51:29+00:00,VVga5RBfrYwVv73WtN,"['academic', 'holiday']","[-87.627006, 41.834873]","[['6295630', '6255149', '6252001', '4896861', '4888671', '4906683'], ['6295630', '6255149', '6252001', '4896861', '4888671', '4887398']]",,1.0,locality,2020-03-11 05:00:00+00:00,active,America/Chicago,COVID-19 Class Cancellation,2020-09-03 22:20:19+00:00,,,"[{'entity_id': 'qmgnxQEmGMxGuMKgJvjj4t', 'name': 'Illinois Institute of Technology', 'type': 'venue', 'formatted_address': '10 West 35th Street\nChicago, IL 60616\nUnited States of America'}]",,3143.0,,False,60,Illinois Institute of Technology,-87.627006,41.834873,holiday,in-person,not_estimated,False
,academic,US,,All classes being conducted remotely / suspended in response to COVID-19,,14342399,2020-08-24 04:59:59+00:00,2020-07-23 20:51:13+00:00,jPHp4KJ8CUuPmeYn6g,"['academic', 'holiday']","[-87.658001, 41.87521]","[['6295630', '6255149', '6252001', '4896861', '4888671', '4887398']]",,1.0,locality,2020-03-11 05:00:00+00:00,active,America/Chicago,COVID-19 Class Cancellation,2020-09-03 22:21:17+00:00,,,"[{'entity_id': 'QJjfX3mJEReLU4USjyzyKc', 'name': 'University Of Illinois At Chicago', 'type': 'venue', 'formatted_address': '1200 West Harrison Street\nChicago, IL 60607\nUnited States of America'}]",,20195.0,,False,76,University Of Illinois At Chicago,-87.658001,41.87521,holiday,in-person,not_estimated,False
,academic,US,,All classes being conducted remotely / suspended in response to COVID-19,,15638399,2020-09-08 04:59:59+00:00,2020-07-23 20:51:24+00:00,mnFcazUpb9S4S2i6SJ,"['academic', 'holiday']","[-87.624444, 41.874226]","[['6295630', '6255149', '6252001', '4896861', '4888671', '4887398']]",,1.0,locality,2020-03-11 05:00:00+00:00,active,America/Chicago,COVID-19 Class Cancellation,2020-09-03 22:18:11+00:00,,,"[{'entity_id': 'cGTQDjm24PmvJL8nePCFcK', 'name': 'Columbia College Chicago', 'type': 'venue', 'formatted_address': '600 South Michigan Avenue\nChicago, IL 60605\nUnited States of America'}]",,6708.0,,False,67,Columbia College Chicago,-87.624444,41.874226,holiday,in-person,not_estimated,False
,academic,US,,All classes being conducted remotely / suspended in response to COVID-19,,15724799,2020-09-09 04:59:59+00:00,2020-07-23 20:51:03+00:00,wubBMEB6pLg2XGMh7H,"['academic', 'holiday']","[-87.656646, 41.924756]","[['6295630', '6255149', '6252001', '4896861', '4888671', '4889019'], ['6295630', '6255149', '6252001', '4896861', '4888671', '4887398']]",,1.0,locality,2020-03-11 05:00:00+00:00,active,America/Chicago,COVID-19 Class Cancellation,2020-09-03 22:20:09+00:00,,,"[{'entity_id': 'N8RpJ6bDrg4eLJBjc5gNPw', 'name': 'DePaul University', 'type': 'venue', 'formatted_address': 'Chicago, IL 60614\nUnited States of America'}]",,12766.0,,False,72,DePaul University,-87.656646,41.924756,holiday,in-person,not_estimated,False
,academic,US,,,,9500399,2020-05-16 04:59:59+00:00,2020-07-23 22:08:28+00:00,qXZavUxFCqo5Kabasj,"['academic', 'academic-session']","[-87.624444, 41.874226]","[['6295630', '6255149', '6252001', '4896861', '4888671', '4887398']]",,1.0,locality,2020-01-27 06:00:00+00:00,active,America/Chicago,Spring Session,2020-09-03 22:21:09+00:00,,,"[{'entity_id': 'cGTQDjm24PmvJL8nePCFcK', 'name': 'Columbia College Chicago', 'type': 'venue', 'formatted_address': '600 South Michigan Avenue\nChicago, IL 60605\nUnited States of America'}]",,6708.0,,False,67,Columbia College Chicago,-87.624444,41.874226,academic-session,in-person,not_estimated,True
,academic,US,,,,518399,2020-01-27 05:59:59+00:00,2020-07-23 21:34:20+00:00,Mguo3gLS8yn3FvmEjj,"['academic', 'social']","[-87.656646, 41.924756]","[['6295630', '6255149', '6252001', '4896861', '4888671', '4889019'], ['6295630', '6255149', '6252001', '4896861', '4888671', '4887398']]",,1.0,locality,2020-01-21 06:00:00+00:00,active,America/Chicago,Homecoming,2020-07-23 21:34:40+00:00,,,"[{'entity_id': 'N8RpJ6bDrg4eLJBjc5gNPw', 'name': 'DePaul University', 'type': 'venue', 'formatted_address': 'Chicago, IL 60614\nUnited States of America'}]",,0.0,,False,0,DePaul University,-87.656646,41.924756,social,in-person,not_estimated,True
,academic,US,,,,10105199,2020-05-09 04:59:59+00:00,2020-07-23 22:11:44+00:00,RNZuDxm5vZBhfimEwN,"['academic', 'academic-session']","[-87.674688, 41.877876]","[['6295630', '6255149', '6252001', '4896861', '4888671', '4887398']]",,1.0,locality,2020-01-13 06:00:00+00:00,active,America/Chicago,Spring Session,2020-09-03 22:13:19+00:00,,,"[{'entity_id': 'kjWXNvMsCemNExApReDM83', 'name': 'Malcolm X College', 'type': 'venue', 'formatted_address': '1900 West Jackson Boulevard\nChicago, IL 60612\nUnited States of America'}]",,4461.0,,False,63,Malcolm X College,-87.674688,41.877876,academic-session,in-person,not_estimated,True
,academic,US,,,,9500399,2020-05-02 04:59:59+00:00,2020-07-23 21:39:38+00:00,Z5HXSe8FsCGpk2W82C,"['academic', 'academic-session']","[-87.658001, 41.87521]","[['6295630', '6255149', '6252001', '4896861', '4888671', '4887398']]",,1.0,locality,2020-01-13 06:00:00+00:00,active,America/Chicago,Spring Session,2020-09-03 22:19:39+00:00,,,"[{'entity_id': 'QJjfX3mJEReLU4USjyzyKc', 'name': 'University Of Illinois At Chicago', 'type': 'venue', 'formatted_address': '1200 West Harrison Street\nChicago, IL 60607\nUnited States of America'}]",,20195.0,,False,76,University Of Illinois At Chicago,-87.658001,41.87521,academic-session,in-person,not_estimated,True
,academic,US,,,,10105199,2020-05-09 04:59:59+00:00,2020-07-23 22:08:05+00:00,cAX7tCM7zHADZhcYAP,"['academic', 'academic-session']","[-87.626848, 41.886073]","[['6295630', '6255149', '6252001', '4896861', '4888671', '4887398']]",,1.0,locality,2020-01-13 06:00:00+00:00,active,America/Chicago,Spring Session,2020-09-03 22:24:17+00:00,,,"[{'entity_id': 'SLPHTKkiJKhB5x2pRkXWzc', 'name': 'Harold Washington College, City College of Chicago', 'type': 'venue', 'formatted_address': '30 East Lake Street\nChicago, IL 60601\nUnited States of America'}]",,5836.0,,False,65,"Harold Washington College, City College of Chicago",-87.626848,41.886073,academic-session,in-person,not_estimated,True
,academic,US,,,,9500399,2020-05-02 04:59:59+00:00,2020-07-23 22:11:02+00:00,jo4XxdmZKedpyLqr4a,"['academic', 'academic-session']","[-87.627006, 41.834873]","[['6295630', '6255149', '6252001', '4896861', '4888671', '4906683'], ['6295630', '6255149', '6252001', '4896861', '4888671', '4887398']]",,1.0,locality,2020-01-13 06:00:00+00:00,active,America/Chicago,Spring Session,2020-09-03 22:17:49+00:00,,,"[{'entity_id': 'qmgnxQEmGMxGuMKgJvjj4t', 'name': 'Illinois Institute of Technology', 'type': 'venue', 'formatted_address': '10 West 35th Street\nChicago, IL 60616\nUnited States of America'}]",,3143.0,,False,60,Illinois Institute of Technology,-87.627006,41.834873,academic-session,in-person,not_estimated,True
,academic,US,,,,10105199,2020-05-09 04:59:59+00:00,2020-07-23 22:12:04+00:00,kdxEX58VLzXiZdWJU7,"['academic', 'academic-session']","[-87.723959, 41.756059]","[['6295630', '6255149', '6252001', '4896861', '4888671', '4902450'], ['6295630', '6255149', '6252001', '4896861', '4888671', '4887398']]",,1.0,locality,2020-01-13 06:00:00+00:00,active,America/Chicago,Spring Session,2020-09-03 22:15:29+00:00,,,"[{'entity_id': 'rSSm5AvsBgWMQhcJaK6MUj', 'name': 'Richard J. Daley College', 'type': 'venue', 'formatted_address': '7500 S. Pulaski Road\nChicago, IL 60652\nUnited States of America'}]",,4388.0,,False,63,Richard J. Daley College,-87.723959,41.756059,academic-session,in-person,not_estimated,True
,academic,US,,,,1641599,2020-01-25 05:59:59+00:00,2020-07-23 22:08:27+00:00,AUopsLA76bzzJmgARS,"['academic', 'academic-session', 'estimated']","[-87.624444, 41.874226]","[['6295630', '6255149', '6252001', '4896861', '4888671', '4887398']]",,1.0,locality,2020-01-06 06:00:00+00:00,active,America/Chicago,Winter Session,2020-09-03 22:27:47+00:00,,,"[{'entity_id': 'cGTQDjm24PmvJL8nePCFcK', 'name': 'Columbia College Chicago', 'type': 'venue', 'formatted_address': '600 South Michigan Avenue\nChicago, IL 60605\nUnited States of America'}]",,2012.0,,False,56,Columbia College Chicago,-87.624444,41.874226,academic-session,in-person,estimated,True
,academic,US,,,,6476399,2020-03-21 04:59:59+00:00,2020-07-23 21:40:04+00:00,GYbpQ9aT3w3rvaoriS,"['academic', 'academic-session']","[-87.598296, 41.790797]","[['6295630', '6255149', '6252001', '4896861', '4888671', '4894404'], ['6295630', '6255149', '6252001', '4896861', '4888671', '4887398']]",,1.0,locality,2020-01-06 06:00:00+00:00,active,America/Chicago,Winter Session,2020-09-03 22:26:25+00:00,,,"[{'entity_id': 'dZujRpmDZFJRjswYBjzatj', 'name': 'University of Chicago', 'type': 'venue', 'formatted_address': 'Chicago, IL 60637\nUnited States of America'}]",,6801.0,,False,67,University of Chicago,-87.598296,41.790797,academic-session,in-person,not_estimated,True
,academic,US,,,,5871599,2020-03-14 04:59:59+00:00,2020-07-23 21:34:19+00:00,vyCuEgBux48GZonPzY,"['academic', 'academic-session']","[-87.656646, 41.924756]","[['6295630', '6255149', '6252001', '4896861', '4888671', '4889019'], ['6295630', '6255149', '6252001', '4896861', '4888671', '4887398']]",,1.0,locality,2020-01-06 06:00:00+00:00,active,America/Chicago,Winter Session,2020-09-03 22:26:47+00:00,,,"[{'entity_id': 'N8RpJ6bDrg4eLJBjc5gNPw', 'name': 'DePaul University', 'type': 'venue', 'formatted_address': 'Chicago, IL 60614\nUnited States of America'}]",,12766.0,,False,72,DePaul University,-87.656646,41.924756,academic-session,in-person,not_estimated,True
,academic,US,,,,86399,2019-12-16 05:59:59+00:00,2020-07-23 22:14:20+00:00,UzohaJSQUnpnKwktsp,"['academic', 'graduation']","[-87.656141, 41.874856]","[['6295630', '6255149', '6252001', '4896861', '4888671', '4887398']]",,1.0,locality,2019-12-15 06:00:00+00:00,active,America/Chicago,Northeastern Illinois University - Fall Graduation,2021-03-19 12:03:30+00:00,,,"[{'entity_id': 'r2kXnMREzPzTzQS8pHShMU', 'name': 'Credit Union 1 Arena', 'type': 'venue', 'formatted_address': '525 S Racine Ave\nChicago, IL 60607\nUnited States of America'}]",,9500.0,,False,70,Credit Union 1 Arena,-87.656141,41.874856,graduation,in-person,not_estimated,True
,academic,US,,,,0,2019-12-14 15:00:00+00:00,2020-07-23 21:39:36+00:00,hV9iKiPkHZgG7q9Nzj,"['academic', 'graduation']","[-87.656141, 41.874856]","[['6295630', '6255149', '6252001', '4896861', '4888671', '4887398']]",,1.0,locality,2019-12-14 15:00:00+00:00,active,America/Chicago,University of Illinois at Chicago - Fall Graduation,2020-09-03 22:11:23+00:00,,,"[{'entity_id': 'r2kXnMREzPzTzQS8pHShMU', 'name': 'Credit Union 1 Arena', 'type': 'venue', 'formatted_address': '525 S Racine Ave\nChicago, IL 60607\nUnited States of America'}]",,12000.0,,False,72,Credit Union 1 Arena,-87.656141,41.874856,graduation,in-person,not_estimated,True
,academic,US,,,,2591999,2020-01-13 05:59:59+00:00,2020-07-23 22:08:04+00:00,HfgGgqpBENCVmzUt2E,"['academic', 'holiday']","[-87.626848, 41.886073]","[['6295630', '6255149', '6252001', '4896861', '4888671', '4887398']]",,1.0,locality,2019-12-14 06:00:00+00:00,active,America/Chicago,Winter Break,2020-09-03 22:18:32+00:00,,,"[{'entity_id': 'SLPHTKkiJKhB5x2pRkXWzc', 'name': 'Harold Washington College, City College of Chicago', 'type': 'venue', 'formatted_address': '30 East Lake Street\nChicago, IL 60601\nUnited States of America'}]",,5836.0,,False,65,"Harold Washington College, City College of Chicago",-87.626848,41.886073,holiday,in-person,not_estimated,False
,academic,US,,,,1987199,2020-01-06 05:59:59+00:00,2020-07-23 21:40:03+00:00,QMXTo9m6khexSn7vyB,"['academic', 'holiday']","[-87.598296, 41.790797]","[['6295630', '6255149', '6252001', '4896861', '4888671', '4894404'], ['6295630', '6255149', '6252001', '4896861', '4888671', '4887398']]",,1.0,locality,2019-12-14 06:00:00+00:00,active,America/Chicago,Winter Break,2020-09-03 22:22:25+00:00,,,"[{'entity_id': 'dZujRpmDZFJRjswYBjzatj', 'name': 'University of Chicago', 'type': 'venue', 'formatted_address': 'Chicago, IL 60637\nUnited States of America'}]",,6801.0,,False,67,University of Chicago,-87.598296,41.790797,holiday,in-person,not_estimated,False
,academic,US,,,,2591999,2020-01-13 05:59:59+00:00,2020-07-23 21:39:37+00:00,ienBQGjnWxgiozJpEQ,"['academic', 'holiday']","[-87.658001, 41.87521]","[['6295630', '6255149', '6252001', '4896861', '4888671', '4887398']]",,1.0,locality,2019-12-14 06:00:00+00:00,active,America/Chicago,Winter Break,2020-09-03 22:20:27+00:00,,,"[{'entity_id': 'QJjfX3mJEReLU4USjyzyKc', 'name': 'University Of Illinois At Chicago', 'type': 'venue', 'formatted_address': '1200 West Harrison Street\nChicago, IL 60607\nUnited States of America'}]",,20195.0,,False,76,University Of Illinois At Chicago,-87.658001,41.87521,holiday,in-person,not_estimated,False
,academic,US,,,,3801599,2020-01-27 05:59:59+00:00,2020-07-23 22:08:26+00:00,k5YcscUz58vPp2AHyh,"['academic', 'holiday']","[-87.624444, 41.874226]","[['6295630', '6255149', '6252001', '4896861', '4888671', '4887398']]",,1.0,locality,2019-12-14 06:00:00+00:00,active,America/Chicago,Winter Break,2020-09-03 22:20:12+00:00,,,"[{'entity_id': 'cGTQDjm24PmvJL8nePCFcK', 'name': 'Columbia College Chicago', 'type': 'venue', 'formatted_address': '600 South Michigan Avenue\nChicago, IL 60605\nUnited States of America'}]",,6708.0,,False,67,Columbia College Chicago,-87.624444,41.874226,holiday,in-person,not_estimated,False
,academic,US,,,,2591999,2020-01-13 05:59:59+00:00,2020-07-23 22:12:03+00:00,w9DJdaMDTQSSKQhD9h,"['academic', 'holiday']","[-87.723959, 41.756059]","[['6295630', '6255149', '6252001', '4896861', '4888671', '4902450'], ['6295630', '6255149', '6252001', '4896861', '4888671', '4887398']]",,1.0,locality,2019-12-14 06:00:00+00:00,active,America/Chicago,Winter Break,2020-09-03 22:16:45+00:00,,,"[{'entity_id': 'rSSm5AvsBgWMQhcJaK6MUj', 'name': 'Richard J. Daley College', 'type': 'venue', 'formatted_address': '7500 S. Pulaski Road\nChicago, IL 60652\nUnited States of America'}]",,4388.0,,False,63,Richard J. Daley College,-87.723959,41.756059,holiday,in-person,not_estimated,False
,academic,US,,,,2591999,2020-01-13 05:59:59+00:00,2020-07-23 22:11:44+00:00,yMFYvwveRwjK8ZBsrd,"['academic', 'holiday']","[-87.674688, 41.877876]","[['6295630', '6255149', '6252001', '4896861', '4888671', '4887398']]",,1.0,locality,2019-12-14 06:00:00+00:00,active,America/Chicago,Winter Break,2020-09-03 22:22:50+00:00,,,"[{'entity_id': 'kjWXNvMsCemNExApReDM83', 'name': 'Malcolm X College', 'type': 'venue', 'formatted_address': '1900 West Jackson Boulevard\nChicago, IL 60612\nUnited States of America'}]",,4461.0,,False,63,Malcolm X College,-87.674688,41.877876,holiday,in-person,not_estimated,False
,academic,US,,,,431999,2019-12-14 05:59:59+00:00,2020-07-23 21:39:35+00:00,ygRReHZEtjpCcrQD5P,"['academic', 'exam']","[-87.658001, 41.87521]","[['6295630', '6255149', '6252001', '4896861', '4888671', '4887398']]",,1.0,locality,2019-12-09 06:00:00+00:00,active,America/Chicago,Fall Exams,2020-09-03 22:21:25+00:00,,,"[{'entity_id': 'QJjfX3mJEReLU4USjyzyKc', 'name': 'University Of Illinois At Chicago', 'type': 'venue', 'formatted_address': '1200 West Harrison Street\nChicago, IL 60607\nUnited States of America'}]",,20195.0,,False,76,University Of Illinois At Chicago,-87.658001,41.87521,exam,in-person,not_estimated,True
,academic,US,,,,3196799,2020-01-13 05:59:59+00:00,2020-07-23 22:11:02+00:00,mRPdKRVzRYAubYQx5R,"['academic', 'holiday']","[-87.627006, 41.834873]","[['6295630', '6255149', '6252001', '4896861', '4888671', '4906683'], ['6295630', '6255149', '6252001', '4896861', '4888671', '4887398']]",,1.0,locality,2019-12-07 06:00:00+00:00,active,America/Chicago,Winter Break,2020-09-03 22:20:20+00:00,,,"[{'entity_id': 'qmgnxQEmGMxGuMKgJvjj4t', 'name': 'Illinois Institute of Technology', 'type': 'venue', 'formatted_address': '10 West 35th Street\nChicago, IL 60616\nUnited States of America'}]",,3143.0,,False,60,Illinois Institute of Technology,-87.627006,41.834873,holiday,in-person,not_estimated,False
,academic,US,,,,431999,2019-12-07 05:59:59+00:00,2020-07-23 22:11:01+00:00,ZxvKq3XbJDEqLLCExx,"['academic', 'exam']","[-87.627006, 41.834873]","[['6295630', '6255149', '6252001', '4896861', '4888671', '4906683'], ['6295630', '6255149', '6252001', '4896861', '4888671', '4887398']]",,1.0,locality,2019-12-02 06:00:00+00:00,active,America/Chicago,Fall Exams,2020-09-03 22:21:51+00:00,,,"[{'entity_id': 'qmgnxQEmGMxGuMKgJvjj4t', 'name': 'Illinois Institute of Technology', 'type': 'venue', 'formatted_address': '10 West 35th Street\nChicago, IL 60616\nUnited States of America'}]",,3143.0,,False,60,Illinois Institute of Technology,-87.627006,41.834873,exam,in-person,not_estimated,True
,academic,US,,,,1641599,2019-12-21 05:59:59+00:00,2020-07-23 21:34:18+00:00,e7QgzGAg3Sp8kGwxyx,"['academic', 'academic-session']","[-87.656646, 41.924756]","[['6295630', '6255149', '6252001', '4896861', '4888671', '4889019'], ['6295630', '6255149', '6252001', '4896861', '4888671', '4887398']]",,1.0,locality,2019-12-02 06:00:00+00:00,active,America/Chicago,December Intersession,2020-09-03 22:15:07+00:00,,,"[{'entity_id': 'N8RpJ6bDrg4eLJBjc5gNPw', 'name': 'DePaul University', 'type': 'venue', 'formatted_address': 'Chicago, IL 60614\nUnited States of America'}]",,3829.0,,False,62,DePaul University,-87.656646,41.924756,academic-session,in-person,not_estimated,True
,academic,US,,,,345599,2019-12-02 05:59:59+00:00,2020-07-23 21:40:03+00:00,7Pi6hoq2JdWGrdkxMC,"['academic', 'holiday']","[-87.598296, 41.790797]","[['6295630', '6255149', '6252001', '4896861', '4888671', '4894404'], ['6295630', '6255149', '6252001', '4896861', '4888671', '4887398']]",,1.0,locality,2019-11-28 06:00:00+00:00,active,America/Chicago,Thanksgiving Break,2020-09-03 22:21:21+00:00,,,"[{'entity_id': 'dZujRpmDZFJRjswYBjzatj', 'name': 'University of Chicago', 'type': 'venue', 'formatted_address': 'Chicago, IL 60637\nUnited States of America'}]",,6801.0,,False,67,University of Chicago,-87.598296,41.790797,holiday,in-person,not_estimated,False
,academic,US,,,,345599,2019-12-02 05:59:59+00:00,2020-07-23 22:11:43+00:00,VMRB8t7B7Hs9MyntYu,"['academic', 'holiday']","[-87.674688, 41.877876]","[['6295630', '6255149', '6252001', '4896861', '4888671', '4887398']]",,1.0,locality,2019-11-28 06:00:00+00:00,active,America/Chicago,Thanksgiving Break,2020-09-03 22:18:53+00:00,,,"[{'entity_id': 'kjWXNvMsCemNExApReDM83', 'name': 'Malcolm X College', 'type': 'venue', 'formatted_address': '1900 West Jackson Boulevard\nChicago, IL 60612\nUnited States of America'}]",,4461.0,,False,63,Malcolm X College,-87.674688,41.877876,holiday,in-person,not_estimated,False
,academic,US,,,,345599,2019-12-02 05:59:59+00:00,2020-07-23 22:08:25+00:00,eBFNW78XffEPEn8wsC,"['academic', 'holiday']","[-87.624444, 41.874226]","[['6295630', '6255149', '6252001', '4896861', '4888671', '4887398']]",,1.0,locality,2019-11-28 06:00:00+00:00,active,America/Chicago,Thanksgiving Break,2020-09-03 22:20:47+00:00,,,"[{'entity_id': 'cGTQDjm24PmvJL8nePCFcK', 'name': 'Columbia College Chicago', 'type': 'venue', 'formatted_address': '600 South Michigan Avenue\nChicago, IL 60605\nUnited States of America'}]",,6708.0,,False,67,Columbia College Chicago,-87.624444,41.874226,holiday,in-person,not_estimated,False
,academic,US,,,,345599,2019-12-02 05:59:59+00:00,2020-07-23 21:39:34+00:00,jUfgSat5pUmPHBCA7Y,"['academic', 'holiday']","[-87.658001, 41.87521]","[['6295630', '6255149', '6252001', '4896861', '4888671', '4887398']]",,1.0,locality,2019-11-28 06:00:00+00:00,active,America/Chicago,Thanksgiving Break,2020-09-03 22:21:13+00:00,,,"[{'entity_id': 'QJjfX3mJEReLU4USjyzyKc', 'name': 'University Of Illinois At Chicago', 'type': 'venue', 'formatted_address': '1200 West Harrison Street\nChicago, IL 60607\nUnited States of America'}]",,20195.0,,False,76,University Of Illinois At Chicago,-87.658001,41.87521,holiday,in-person,not_estimated,False
,academic,US,,,,345599,2019-12-02 05:59:59+00:00,2020-07-23 22:12:03+00:00,vLPhnx7ciQ6rpamgSH,"['academic', 'holiday']","[-87.723959, 41.756059]","[['6295630', '6255149', '6252001', '4896861', '4888671', '4902450'], ['6295630', '6255149', '6252001', '4896861', '4888671', '4887398']]",,1.0,locality,2019-11-28 06:00:00+00:00,active,America/Chicago,Thanksgiving Break,2020-09-03 22:19:48+00:00,,,"[{'entity_id': 'rSSm5AvsBgWMQhcJaK6MUj', 'name': 'Richard J. Daley College', 'type': 'venue', 'formatted_address': '7500 S. Pulaski Road\nChicago, IL 60652\nUnited States of America'}]",,4388.0,,False,63,Richard J. Daley College,-87.723959,41.756059,holiday,in-person,not_estimated,False
,academic,US,,,,345599,2019-12-02 05:59:59+00:00,2020-07-23 22:08:03+00:00,zU5rMU4ABfoybBZCHw,"['academic', 'holiday']","[-87.626848, 41.886073]","[['6295630', '6255149', '6252001', '4896861', '4888671', '4887398']]",,1.0,locality,2019-11-28 06:00:00+00:00,active,America/Chicago,Thanksgiving Break,2020-09-03 22:30:06+00:00,,,"[{'entity_id': 'SLPHTKkiJKhB5x2pRkXWzc', 'name': 'Harold Washington College, City College of Chicago', 'type': 'venue', 'formatted_address': '30 East Lake Street\nChicago, IL 60601\nUnited States of America'}]",,5836.0,,False,65,"Harold Washington College, City College of Chicago",-87.626848,41.886073,holiday,in-person,not_estimated,False
,academic,US,,,,431999,2019-12-02 05:59:59+00:00,2020-07-23 22:11:00+00:00,baqYrdwj3wyXCjEJgM,"['academic', 'holiday']","[-87.627006, 41.834873]","[['6295630', '6255149', '6252001', '4896861', '4888671', '4906683'], ['6295630', '6255149', '6252001', '4896861', '4888671', '4887398']]",,1.0,locality,2019-11-27 06:00:00+00:00,active,America/Chicago,Thanksgiving Break,2020-09-03 22:30:11+00:00,,,"[{'entity_id': 'qmgnxQEmGMxGuMKgJvjj4t', 'name': 'Illinois Institute of Technology', 'type': 'venue', 'formatted_address': '10 West 35th Street\nChicago, IL 60616\nUnited States of America'}]",,3143.0,,False,60,Illinois Institute of Technology,-87.627006,41.834873,holiday,in-person,not_estimated,False
,academic,US,,,,3455999,2020-01-06 05:59:59+00:00,2020-07-23 21:34:18+00:00,kDGo9JLtEXeAN6uLrZ,"['academic', 'holiday']","[-87.656646, 41.924756]","[['6295630', '6255149', '6252001', '4896861', '4888671', '4889019'], ['6295630', '6255149', '6252001', '4896861', '4888671', '4887398']]",,1.0,locality,2019-11-27 06:00:00+00:00,active,America/Chicago,Winter Break,2020-09-03 22:29:55+00:00,,,"[{'entity_id': 'N8RpJ6bDrg4eLJBjc5gNPw', 'name': 'DePaul University', 'type': 'venue', 'formatted_address': 'Chicago, IL 60614\nUnited States of America'}]",,12766.0,,False,72,DePaul University,-87.656646,41.924756,holiday,in-person,not_estimated,False
,academic,US,,,,604799,2019-11-27 05:59:59+00:00,2020-07-23 21:34:17+00:00,FBHhEEwURQz3Zm8o9q,"['academic', 'exam']","[-87.656646, 41.924756]","[['6295630', '6255149', '6252001', '4896861', '4888671', '4889019'], ['6295630', '6255149', '6252001', '4896861', '4888671', '4887398']]",,1.0,locality,2019-11-20 06:00:00+00:00,active,America/Chicago,Fall Exams,2020-09-03 22:19:01+00:00,,,"[{'entity_id': 'N8RpJ6bDrg4eLJBjc5gNPw', 'name': 'DePaul University', 'type': 'venue', 'formatted_address': 'Chicago, IL 60614\nUnited States of America'}]",,12766.0,,False,72,DePaul University,-87.656646,41.924756,exam,in-person,not_estimated,True
,academic,US,,,,777599,2019-11-23 05:59:59+00:00,2020-07-23 21:39:33+00:00,kQrLXof5qechfL4BCm,"['academic', 'social']","[-87.658001, 41.87521]","[['6295630', '6255149', '6252001', '4896861', '4888671', '4887398']]",,1.0,locality,2019-11-14 06:00:00+00:00,active,America/Chicago,Homecoming,2020-07-24 02:26:45+00:00,,,"[{'entity_id': 'QJjfX3mJEReLU4USjyzyKc', 'name': 'University Of Illinois At Chicago', 'type': 'venue', 'formatted_address': '1200 West Harrison Street\nChicago, IL 60607\nUnited States of America'}]",,0.0,,False,0,University Of Illinois At Chicago,-87.658001,41.87521,social,in-person,not_estimated,True
,academic,US,,,,86399,2019-10-13 04:59:59+00:00,2020-07-23 21:40:02+00:00,7YzDcx8UHbbU7y74DZ,"['academic', 'social']","[-87.598296, 41.790797]","[['6295630', '6255149', '6252001', '4896861', '4888671', '4894404'], ['6295630', '6255149', '6252001', '4896861', '4888671', '4887398']]",,1.0,locality,2019-10-12 05:00:00+00:00,active,America/Chicago,Homecoming,2020-07-23 21:40:26+00:00,,,"[{'entity_id': 'dZujRpmDZFJRjswYBjzatj', 'name': 'University of Chicago', 'type': 'venue', 'formatted_address': 'Chicago, IL 60637\nUnited States of America'}]",,0.0,,False,0,University of Chicago,-87.598296,41.790797,social,in-person,not_estimated,True
,academic,US,,,,259199,2019-10-08 04:59:59+00:00,2020-07-23 22:10:59+00:00,8xWKVag3hg5QHA4wzh,"['academic', 'holiday']","[-87.627006, 41.834873]","[['6295630', '6255149', '6252001', '4896861', '4888671', '4906683'], ['6295630', '6255149', '6252001', '4896861', '4888671', '4887398']]",,1.0,locality,2019-10-05 05:00:00+00:00,active,America/Chicago,Fall Break,2020-09-03 22:11:55+00:00,,,"[{'entity_id': 'qmgnxQEmGMxGuMKgJvjj4t', 'name': 'Illinois Institute of Technology', 'type': 'venue', 'formatted_address': '10 West 35th Street\nChicago, IL 60616\nUnited States of America'}]",,3143.0,,False,60,Illinois Institute of Technology,-87.627006,41.834873,holiday,in-person,not_estimated,False
,academic,US,,,,6397199,2019-12-14 05:59:59+00:00,2020-07-23 21:40:01+00:00,pSJs6MABTUbgmVJtTH,"['academic', 'academic-session']","[-87.598296, 41.790797]","[['6295630', '6255149', '6252001', '4896861', '4888671', '4894404'], ['6295630', '6255149', '6252001', '4896861', '4888671', '4887398']]",,1.0,locality,2019-10-01 05:00:00+00:00,active,America/Chicago,Fall Session,2020-09-03 22:13:17+00:00,,,"[{'entity_id': 'dZujRpmDZFJRjswYBjzatj', 'name': 'University of Chicago', 'type': 'venue', 'formatted_address': 'Chicago, IL 60637\nUnited States of America'}]",,6801.0,,False,67,University of Chicago,-87.598296,41.790797,academic-session,in-person,not_estimated,True
,academic,US,,,,172799,2019-09-22 04:59:59+00:00,2020-07-23 22:10:59+00:00,WEoEtEdo2r6eguQ75Q,"['academic', 'social']","[-87.627006, 41.834873]","[['6295630', '6255149', '6252001', '4896861', '4888671', '4906683'], ['6295630', '6255149', '6252001', '4896861', '4888671', '4887398']]",,1.0,locality,2019-09-20 05:00:00+00:00,active,America/Chicago,Homecoming,2020-07-23 22:13:23+00:00,,,"[{'entity_id': 'qmgnxQEmGMxGuMKgJvjj4t', 'name': 'Illinois Institute of Technology', 'type': 'venue', 'formatted_address': '10 West 35th Street\nChicago, IL 60616\nUnited States of America'}]",,0.0,,False,0,Illinois Institute of Technology,-87.627006,41.834873,social,in-person,not_estimated,True
,academic,US,,,,6051599,2019-11-20 05:59:59+00:00,2020-07-23 21:34:16+00:00,gLeynV6BTuiwZL6t6y,"['academic', 'academic-session']","[-87.656646, 41.924756]","[['6295630', '6255149', '6252001', '4896861', '4888671', '4889019'], ['6295630', '6255149', '6252001', '4896861', '4888671', '4887398']]",,1.0,locality,2019-09-11 05:00:00+00:00,active,America/Chicago,Fall Session,2020-09-03 22:23:19+00:00,,,"[{'entity_id': 'N8RpJ6bDrg4eLJBjc5gNPw', 'name': 'DePaul University', 'type': 'venue', 'formatted_address': 'Chicago, IL 60614\nUnited States of America'}]",,12766.0,,False,72,DePaul University,-87.656646,41.924756,academic-session,in-person,not_estimated,True
,academic,US,,,,8816399,2019-12-14 05:59:59+00:00,2020-07-23 22:08:24+00:00,kc4vvPSdkpVHnQnmMi,"['academic', 'academic-session']","[-87.624444, 41.874226]","[['6295630', '6255149', '6252001', '4896861', '4888671', '4887398']]",,1.0,locality,2019-09-03 05:00:00+00:00,active,America/Chicago,Fall Session,2020-09-03 22:25:40+00:00,,,"[{'entity_id': 'cGTQDjm24PmvJL8nePCFcK', 'name': 'Columbia College Chicago', 'type': 'venue', 'formatted_address': '600 South Michigan Avenue\nChicago, IL 60605\nUnited States of America'}]",,6708.0,,False,67,Columbia College Chicago,-87.624444,41.874226,academic-session,in-person,not_estimated,True
,academic,US,,,,2678399,2019-10-01 04:59:59+00:00,2020-07-23 21:40:00+00:00,3wrXUa9PgdWyJhyeLo,"['academic', 'holiday']","[-87.598296, 41.790797]","[['6295630', '6255149', '6252001', '4896861', '4888671', '4894404'], ['6295630', '6255149', '6252001', '4896861', '4888671', '4887398']]",,1.0,locality,2019-08-31 05:00:00+00:00,active,America/Chicago,Fall Break,2020-09-03 22:30:40+00:00,,,"[{'entity_id': 'dZujRpmDZFJRjswYBjzatj', 'name': 'University of Chicago', 'type': 'venue', 'formatted_address': 'Chicago, IL 60637\nUnited States of America'}]",,6801.0,,False,67,University of Chicago,-87.598296,41.790797,holiday,in-person,not_estimated,False
,academic,US,,,,8902799,2019-12-07 05:59:59+00:00,2020-07-23 21:39:32+00:00,9Pwof5TtzmdLK4eGjL,"['academic', 'academic-session']","[-87.658001, 41.87521]","[['6295630', '6255149', '6252001', '4896861', '4888671', '4887398']]",,1.0,locality,2019-08-26 05:00:00+00:00,active,America/Chicago,Fall Session,2020-09-03 22:16:05+00:00,,,"[{'entity_id': 'QJjfX3mJEReLU4USjyzyKc', 'name': 'University Of Illinois At Chicago', 'type': 'venue', 'formatted_address': '1200 West Harrison Street\nChicago, IL 60607\nUnited States of America'}]",,20195.0,,False,76,University Of Illinois At Chicago,-87.658001,41.87521,academic-session,in-person,not_estimated,True
,academic,US,,,,9507599,2019-12-14 05:59:59+00:00,2020-07-23 22:08:03+00:00,khzBXHpQLPNaRatX6Q,"['academic', 'academic-session']","[-87.626848, 41.886073]","[['6295630', '6255149', '6252001', '4896861', '4888671', '4887398']]",,1.0,locality,2019-08-26 05:00:00+00:00,active,America/Chicago,Fall Session,2020-09-03 22:17:13+00:00,,,"[{'entity_id': 'SLPHTKkiJKhB5x2pRkXWzc', 'name': 'Harold Washington College, City College of Chicago', 'type': 'venue', 'formatted_address': '30 East Lake Street\nChicago, IL 60601\nUnited States of America'}]",,5836.0,,False,65,"Harold Washington College, City College of Chicago",-87.626848,41.886073,academic-session,in-person,not_estimated,True
,academic,US,,,,9507599,2019-12-14 05:59:59+00:00,2020-07-23 22:11:42+00:00,yv3bfPcB4ermaEevJF,"['academic', 'academic-session']","[-87.674688, 41.877876]","[['6295630', '6255149', '6252001', '4896861', '4888671', '4887398']]",,1.0,locality,2019-08-26 05:00:00+00:00,active,America/Chicago,Fall Session,2020-09-03 22:20:59+00:00,,,"[{'entity_id': 'kjWXNvMsCemNExApReDM83', 'name': 'Malcolm X College', 'type': 'venue', 'formatted_address': '1900 West Jackson Boulevard\nChicago, IL 60612\nUnited States of America'}]",,4461.0,,False,63,Malcolm X College,-87.674688,41.877876,academic-session,in-person,not_estimated,True
,academic,US,,,,9507599,2019-12-14 05:59:59+00:00,2020-07-23 22:12:02+00:00,yyXLbXYuavtHzFM54x,"['academic', 'academic-session']","[-87.723959, 41.756059]","[['6295630', '6255149', '6252001', '4896861', '4888671', '4902450'], ['6295630', '6255149', '6252001', '4896861', '4888671', '4887398']]",,1.0,locality,2019-08-26 05:00:00+00:00,active,America/Chicago,Fall Session,2020-09-03 22:13:38+00:00,,,"[{'entity_id': 'rSSm5AvsBgWMQhcJaK6MUj', 'name': 'Richard J. Daley College', 'type': 'venue', 'formatted_address': '7500 S. Pulaski Road\nChicago, IL 60652\nUnited States of America'}]",,4388.0,,False,63,Richard J. Daley College,-87.723959,41.756059,academic-session,in-person,not_estimated,True
,academic,US,,,,8902799,2019-11-30 05:59:59+00:00,2020-07-23 22:10:58+00:00,tT6QFA6HeTzNvpXM6Q,"['academic', 'academic-session']","[-87.627006, 41.834873]","[['6295630', '6255149', '6252001', '4896861', '4888671', '4906683'], ['6295630', '6255149', '6252001', '4896861', '4888671', '4887398']]",,1.0,locality,2019-08-19 05:00:00+00:00,active,America/Chicago,Fall Session,2020-09-03 22:22:15+00:00,,,"[{'entity_id': 'qmgnxQEmGMxGuMKgJvjj4t', 'name': 'Illinois Institute of Technology', 'type': 'venue', 'formatted_address': '10 West 35th Street\nChicago, IL 60616\nUnited States of America'}]",,3143.0,,False,60,Illinois Institute of Technology,-87.627006,41.834873,academic-session,in-person,not_estimated,True
,academic,US,,,,5875199,2019-08-31 04:59:59+00:00,2020-07-23 21:39:59+00:00,nweLxbpEDynRw3Thf2,"['academic', 'academic-session']","[-87.598296, 41.790797]","[['6295630', '6255149', '6252001', '4896861', '4888671', '4894404'], ['6295630', '6255149', '6252001', '4896861', '4888671', '4887398']]",,1.0,locality,2019-06-24 05:00:00+00:00,active,America/Chicago,Summer Session,2020-09-03 22:10:53+00:00,,,"[{'entity_id': 'dZujRpmDZFJRjswYBjzatj', 'name': 'University of Chicago', 'type': 'venue', 'formatted_address': 'Chicago, IL 60637\nUnited States of America'}]",,6801.0,,False,67,University of Chicago,-87.598296,41.790797,academic-session,in-person,not_estimated,True
,academic,US,,,,6047999,2019-08-26 04:59:59+00:00,2020-07-23 21:34:15+00:00,cGgmuZ2BVM9Q7eDtQo,"['academic', 'academic-session']","[-87.656646, 41.924756]","[['6295630', '6255149', '6252001', '4896861', '4888671', '4889019'], ['6295630', '6255149', '6252001', '4896861', '4888671', '4887398']]",,1.0,locality,2019-06-17 05:00:00+00:00,active,America/Chicago,Summer Session,2020-09-03 22:13:01+00:00,,,"[{'entity_id': 'N8RpJ6bDrg4eLJBjc5gNPw', 'name': 'DePaul University', 'type': 'venue', 'formatted_address': 'Chicago, IL 60614\nUnited States of America'}]",,12766.0,,False,72,DePaul University,-87.656646,41.924756,academic-session,in-person,not_estimated,True
,academic,US,,,,7603199,2019-09-11 04:59:59+00:00,2020-07-23 21:34:15+00:00,Mz4GwhHatKZW2c7LEQ,"['academic', 'holiday']","[-87.656646, 41.924756]","[['6295630', '6255149', '6252001', '4896861', '4888671', '4889019'], ['6295630', '6255149', '6252001', '4896861', '4888671', '4887398']]",,1.0,locality,2019-06-15 05:00:00+00:00,active,America/Chicago,Summer Break,2020-09-03 22:20:27+00:00,,,"[{'entity_id': 'N8RpJ6bDrg4eLJBjc5gNPw', 'name': 'DePaul University', 'type': 'venue', 'formatted_address': 'Chicago, IL 60614\nUnited States of America'}]",,12766.0,,False,72,DePaul University,-87.656646,41.924756,holiday,in-person,not_estimated,False
,academic,US,,,,777599,2019-06-24 04:59:59+00:00,2020-07-23 21:39:58+00:00,T5gFv6ZMDwipmvwjiG,"['academic', 'holiday']","[-87.598296, 41.790797]","[['6295630', '6255149', '6252001', '4896861', '4888671', '4894404'], ['6295630', '6255149', '6252001', '4896861', '4888671', '4887398']]",,1.0,locality,2019-06-15 05:00:00+00:00,active,America/Chicago,Summer Break,2020-09-03 22:16:08+00:00,,,"[{'entity_id': 'dZujRpmDZFJRjswYBjzatj', 'name': 'University of Chicago', 'type': 'venue', 'formatted_address': 'Chicago, IL 60637\nUnited States of America'}]",,6801.0,,False,67,University of Chicago,-87.598296,41.790797,holiday,in-person,not_estimated,False
,academic,US,,,,172799,2019-06-17 04:59:59+00:00,2020-07-23 21:34:14+00:00,WM3QNzPqoLV6D254Vr,"['academic', 'graduation']","[-87.621772, 41.853136]","[['6295630', '6255149', '6252001', '4896861', '4888671', '4906683'], ['6295630', '6255149', '6252001', '4896861', '4888671', '4887398']]",,1.0,locality,2019-06-15 05:00:00+00:00,active,America/Chicago,DePaul University - Spring Graduation,2020-09-03 22:15:36+00:00,,,"[{'entity_id': 'pxJbsfW5VS6Mbays2U6wym', 'name': 'Wintrust Arena', 'type': 'venue', 'formatted_address': '200 East Cermak Road\nChicago, IL 60616\nUnited States of America'}]",,30000.0,,False,80,Wintrust Arena,-87.621772,41.853136,graduation,in-person,not_estimated,True
,academic,US,,,,86399,2019-06-16 04:59:59+00:00,2020-07-23 21:39:58+00:00,Zusw69BCk3Da9gfJ2W,"['academic', 'graduation']","[-87.598296, 41.790797]","[['6295630', '6255149', '6252001', '4896861', '4888671', '4894404'], ['6295630', '6255149', '6252001', '4896861', '4888671', '4887398']]",,1.0,locality,2019-06-15 05:00:00+00:00,active,America/Chicago,University of Chicago - Spring Graduation,2021-03-19 10:48:00+00:00,,,"[{'entity_id': 'dZujRpmDZFJRjswYBjzatj', 'name': 'University of Chicago', 'type': 'venue', 'formatted_address': 'Chicago, IL 60637\nUnited States of America'}]",,14353.0,,False,73,University of Chicago,-87.598296,41.790797,graduation,in-person,not_estimated,True
,academic,US,,,,431999,2019-06-15 04:59:59+00:00,2020-07-23 21:34:13+00:00,zy9wZdWk5t8yQAVBTE,"['academic', 'exam']","[-87.656646, 41.924756]","[['6295630', '6255149', '6252001', '4896861', '4888671', '4889019'], ['6295630', '6255149', '6252001', '4896861', '4888671', '4887398']]",,1.0,locality,2019-06-10 05:00:00+00:00,active,America/Chicago,Spring Exams,2020-09-03 22:15:05+00:00,,,"[{'entity_id': 'N8RpJ6bDrg4eLJBjc5gNPw', 'name': 'DePaul University', 'type': 'venue', 'formatted_address': 'Chicago, IL 60614\nUnited States of America'}]",,12766.0,,False,72,DePaul University,-87.656646,41.924756,exam,in-person,not_estimated,True
,academic,US,,,,4579199,2019-07-28 04:59:59+00:00,2020-07-23 22:08:01+00:00,Do6SWEjMDMMR79CbHo,"['academic', 'academic-session']","[-87.626848, 41.886073]","[['6295630', '6255149', '6252001', '4896861', '4888671', '4887398']]",,1.0,locality,2019-06-05 05:00:00+00:00,active,America/Chicago,Summer Session,2020-09-03 22:23:17+00:00,,,"[{'entity_id': 'SLPHTKkiJKhB5x2pRkXWzc', 'name': 'Harold Washington College, City College of Chicago', 'type': 'venue', 'formatted_address': '30 East Lake Street\nChicago, IL 60601\nUnited States of America'}]",,5836.0,,False,65,"Harold Washington College, City College of Chicago",-87.626848,41.886073,academic-session,in-person,not_estimated,True
,academic,US,,,,4579199,2019-07-28 04:59:59+00:00,2020-07-23 22:12:00+00:00,cYJQ5P2gyeSKKP3EvU,"['academic', 'academic-session']","[-87.723959, 41.756059]","[['6295630', '6255149', '6252001', '4896861', '4888671', '4902450'], ['6295630', '6255149', '6252001', '4896861', '4888671', '4887398']]",,1.0,locality,2019-06-05 05:00:00+00:00,active,America/Chicago,Summer Session,2020-09-03 22:18:16+00:00,,,"[{'entity_id': 'rSSm5AvsBgWMQhcJaK6MUj', 'name': 'Richard J. Daley College', 'type': 'venue', 'formatted_address': '7500 S. Pulaski Road\nChicago, IL 60652\nUnited States of America'}]",,4388.0,,False,63,Richard J. Daley College,-87.723959,41.756059,academic-session,in-person,not_estimated,True
,academic,US,,,,4579199,2019-07-28 04:59:59+00:00,2020-07-23 22:11:41+00:00,iyf5Zcuza7eDLRdVNv,"['academic', 'academic-session']","[-87.674688, 41.877876]","[['6295630', '6255149', '6252001', '4896861', '4888671', '4887398']]",,1.0,locality,2019-06-05 05:00:00+00:00,active,America/Chicago,Summer Session,2020-09-03 22:19:57+00:00,,,"[{'entity_id': 'kjWXNvMsCemNExApReDM83', 'name': 'Malcolm X College', 'type': 'venue', 'formatted_address': '1900 West Jackson Boulevard\nChicago, IL 60612\nUnited States of America'}]",,4461.0,,False,63,Malcolm X College,-87.674688,41.877876,academic-session,in-person,not_estimated,True
,academic,US,,,,7171199,2019-08-11 04:59:59+00:00,2020-07-23 22:08:23+00:00,KM2KYSMe5SXsjpZVho,"['academic', 'academic-session']","[-87.624444, 41.874226]","[['6295630', '6255149', '6252001', '4896861', '4888671', '4887398']]",,1.0,locality,2019-05-20 05:00:00+00:00,active,America/Chicago,Summer Session,2020-09-03 22:13:36+00:00,,,"[{'entity_id': 'cGTQDjm24PmvJL8nePCFcK', 'name': 'Columbia College Chicago', 'type': 'venue', 'formatted_address': '600 South Michigan Avenue\nChicago, IL 60605\nUnited States of America'}]",,2012.0,,False,56,Columbia College Chicago,-87.624444,41.874226,academic-session,in-person,not_estimated,True
,academic,US,,,,7084799,2019-08-10 04:59:59+00:00,2020-07-23 21:39:30+00:00,KYvQgUuZQEk3C9qpKU,"['academic', 'academic-session']","[-87.658001, 41.87521]","[['6295630', '6255149', '6252001', '4896861', '4888671', '4887398']]",,1.0,locality,2019-05-20 05:00:00+00:00,active,America/Chicago,Summer Session,2020-09-03 22:23:23+00:00,,,"[{'entity_id': 'QJjfX3mJEReLU4USjyzyKc', 'name': 'University Of Illinois At Chicago', 'type': 'venue', 'formatted_address': '1200 West Harrison Street\nChicago, IL 60607\nUnited States of America'}]",,6058.0,,False,66,University Of Illinois At Chicago,-87.658001,41.87521,academic-session,in-person,not_estimated,True
,academic,US,,,,7171199,2019-08-11 04:59:59+00:00,2020-07-23 22:10:56+00:00,icyYtR6o43rFmrZxdn,"['academic', 'academic-session']","[-87.627006, 41.834873]","[['6295630', '6255149', '6252001', '4896861', '4888671', '4906683'], ['6295630', '6255149', '6252001', '4896861', '4888671', '4887398']]",,1.0,locality,2019-05-20 05:00:00+00:00,active,America/Chicago,Summer Session,2020-09-03 22:24:49+00:00,,,"[{'entity_id': 'qmgnxQEmGMxGuMKgJvjj4t', 'name': 'Illinois Institute of Technology', 'type': 'venue', 'formatted_address': '10 West 35th Street\nChicago, IL 60616\nUnited States of America'}]",,942.0,,False,49,Illinois Institute of Technology,-87.627006,41.834873,academic-session,in-person,not_estimated,True
,academic,US,,,,0,2019-05-18 15:00:00+00:00,2020-07-23 22:10:55+00:00,WevaaSAXhSouqJW3SZ,"['academic', 'graduation']","[-87.627006, 41.834873]","[['6295630', '6255149', '6252001', '4896861', '4888671', '4906683'], ['6295630', '6255149', '6252001', '4896861', '4888671', '4887398']]",,1.0,locality,2019-05-18 15:00:00+00:00,active,America/Chicago,Illinois Institute of Technology - Spring Graduation,2021-03-19 10:03:31+00:00,,,"[{'entity_id': 'qmgnxQEmGMxGuMKgJvjj4t', 'name': 'Illinois Institute of Technology', 'type': 'venue', 'formatted_address': '10 West 35th Street\nChicago, IL 60616\nUnited States of America'}]",,2500.0,,False,58,Illinois Institute of Technology,-87.627006,41.834873,graduation,in-person,not_estimated,True
,academic,US,,,,9244799,2019-08-26 04:59:59+00:00,2020-07-23 22:12:01+00:00,83sPioGFyjNVnAcbSg,"['academic', 'holiday']","[-87.723959, 41.756059]","[['6295630', '6255149', '6252001', '4896861', '4888671', '4902450'], ['6295630', '6255149', '6252001', '4896861', '4888671', '4887398']]",,1.0,locality,2019-05-11 05:00:00+00:00,active,America/Chicago,Summer Break,2020-09-03 22:20:19+00:00,,,"[{'entity_id': 'rSSm5AvsBgWMQhcJaK6MUj', 'name': 'Richard J. Daley College', 'type': 'venue', 'formatted_address': '7500 S. Pulaski Road\nChicago, IL 60652\nUnited States of America'}]",,4388.0,,False,63,Richard J. Daley College,-87.723959,41.756059,holiday,in-person,not_estimated,False
,academic,US,,,,172799,2019-05-13 04:59:59+00:00,2020-07-23 22:08:22+00:00,9oCGavRhDqTYX8GDcw,"['academic', 'graduation']","[-87.625113, 41.875824]","[['6295630', '6255149', '6252001', '4896861', '4888671', '4887398']]",,1.0,locality,2019-05-11 05:00:00+00:00,active,America/Chicago,Columbia College Chicago - Spring Graduation,2021-03-19 14:56:23+00:00,,,"[{'entity_id': 'ZWjCGvqwmQzeS39FCZPcQC', 'name': 'Auditorium Theatre', 'type': 'venue', 'formatted_address': '50 East Ida B. Wells Drive\nChicago, IL 60605\nUnited States of America'}]",,10800.0,,False,71,Auditorium Theatre,-87.625113,41.875824,graduation,in-person,not_estimated,True
,academic,US,,,,9244799,2019-08-26 04:59:59+00:00,2020-07-23 22:11:41+00:00,GRb684UUsKbaCm4xWM,"['academic', 'holiday']","[-87.674688, 41.877876]","[['6295630', '6255149', '6252001', '4896861', '4888671', '4887398']]",,1.0,locality,2019-05-11 05:00:00+00:00,active,America/Chicago,Summer Break,2020-09-03 22:17:23+00:00,,,"[{'entity_id': 'kjWXNvMsCemNExApReDM83', 'name': 'Malcolm X College', 'type': 'venue', 'formatted_address': '1900 West Jackson Boulevard\nChicago, IL 60612\nUnited States of America'}]",,4461.0,,False,63,Malcolm X College,-87.674688,41.877876,holiday,in-person,not_estimated,False
,academic,US,,,,9244799,2019-08-26 04:59:59+00:00,2020-07-23 21:39:31+00:00,MXWWsmJejEaNA5jES7,"['academic', 'holiday']","[-87.658001, 41.87521]","[['6295630', '6255149', '6252001', '4896861', '4888671', '4887398']]",,1.0,locality,2019-05-11 05:00:00+00:00,active,America/Chicago,Summer Break,2020-09-03 22:25:54+00:00,,,"[{'entity_id': 'QJjfX3mJEReLU4USjyzyKc', 'name': 'University Of Illinois At Chicago', 'type': 'venue', 'formatted_address': '1200 West Harrison Street\nChicago, IL 60607\nUnited States of America'}]",,20195.0,,False,76,University Of Illinois At Chicago,-87.658001,41.87521,holiday,in-person,not_estimated,False
,academic,US,,,,8639999,2019-08-19 04:59:59+00:00,2020-07-23 22:10:57+00:00,R9yZBUEaTZz3WGdVbA,"['academic', 'holiday']","[-87.627006, 41.834873]","[['6295630', '6255149', '6252001', '4896861', '4888671', '4906683'], ['6295630', '6255149', '6252001', '4896861', '4888671', '4887398']]",,1.0,locality,2019-05-11 05:00:00+00:00,active,America/Chicago,Summer Break,2020-09-03 22:19:57+00:00,,,"[{'entity_id': 'qmgnxQEmGMxGuMKgJvjj4t', 'name': 'Illinois Institute of Technology', 'type': 'venue', 'formatted_address': '10 West 35th Street\nChicago, IL 60616\nUnited States of America'}]",,3143.0,,False,60,Illinois Institute of Technology,-87.627006,41.834873,holiday,in-person,not_estimated,False
,academic,US,,,,9935999,2019-09-03 04:59:59+00:00,2020-07-23 22:08:23+00:00,cN3ep2hebuY6rhhDSc,"['academic', 'holiday']","[-87.624444, 41.874226]","[['6295630', '6255149', '6252001', '4896861', '4888671', '4887398']]",,1.0,locality,2019-05-11 05:00:00+00:00,active,America/Chicago,Summer Break,2020-09-03 22:23:28+00:00,,,"[{'entity_id': 'cGTQDjm24PmvJL8nePCFcK', 'name': 'Columbia College Chicago', 'type': 'venue', 'formatted_address': '600 South Michigan Avenue\nChicago, IL 60605\nUnited States of America'}]",,6708.0,,False,67,Columbia College Chicago,-87.624444,41.874226,holiday,in-person,not_estimated,False
,academic,US,,,,9244799,2019-08-26 04:59:59+00:00,2020-07-23 22:08:02+00:00,vFxsmYj9Mm387pLmhy,"['academic', 'holiday']","[-87.626848, 41.886073]","[['6295630', '6255149', '6252001', '4896861', '4888671', '4887398']]",,1.0,locality,2019-05-11 05:00:00+00:00,active,America/Chicago,Summer Break,2020-09-03 22:14:09+00:00,,,"[{'entity_id': 'SLPHTKkiJKhB5x2pRkXWzc', 'name': 'Harold Washington College, City College of Chicago', 'type': 'venue', 'formatted_address': '30 East Lake Street\nChicago, IL 60601\nUnited States of America'}]",,5836.0,,False,65,"Harold Washington College, City College of Chicago",-87.626848,41.886073,holiday,in-person,not_estimated,False
,academic,US,,,,518399,2019-05-14 04:59:59+00:00,2020-07-23 21:39:29+00:00,vn4gNMMEzfsaKfVQ7N,"['academic', 'graduation']","[-87.656141, 41.874856]","[['6295630', '6255149', '6252001', '4896861', '4888671', '4887398']]",,1.0,locality,2019-05-08 05:00:00+00:00,active,America/Chicago,University of Illinois at Chicago - Spring Graduation,2020-09-03 22:27:03+00:00,,,"[{'entity_id': 'r2kXnMREzPzTzQS8pHShMU', 'name': 'Credit Union 1 Arena', 'type': 'venue', 'formatted_address': '525 S Racine Ave\nChicago, IL 60607\nUnited States of America'}]",,30000.0,,False,80,Credit Union 1 Arena,-87.656141,41.874856,graduation,in-person,not_estimated,True
,academic,US,,,,86399,2019-05-07 04:59:59+00:00,2020-07-23 22:14:13+00:00,XQr3JiWHKrweu3w3hi,"['academic', 'graduation']","[-87.656141, 41.874856]","[['6295630', '6255149', '6252001', '4896861', '4888671', '4887398']]",,1.0,locality,2019-05-06 05:00:00+00:00,active,America/Chicago,Northeastern Illinois University - Spring Graduation,2021-03-19 12:34:59+00:00,,,"[{'entity_id': 'r2kXnMREzPzTzQS8pHShMU', 'name': 'Credit Union 1 Arena', 'type': 'venue', 'formatted_address': '525 S Racine Ave\nChicago, IL 60607\nUnited States of America'}]",,9500.0,,False,70,Credit Union 1 Arena,-87.656141,41.874856,graduation,in-person,not_estimated,True
,academic,US,,,,431999,2019-05-11 04:59:59+00:00,2020-07-23 22:10:55+00:00,mF8S25KDrfEpvhTBh7,"['academic', 'exam']","[-87.627006, 41.834873]","[['6295630', '6255149', '6252001', '4896861', '4888671', '4906683'], ['6295630', '6255149', '6252001', '4896861', '4888671', '4887398']]",,1.0,locality,2019-05-06 05:00:00+00:00,active,America/Chicago,Spring Exams,2020-09-03 22:13:37+00:00,,,"[{'entity_id': 'qmgnxQEmGMxGuMKgJvjj4t', 'name': 'Illinois Institute of Technology', 'type': 'venue', 'formatted_address': '10 West 35th Street\nChicago, IL 60616\nUnited States of America'}]",,3143.0,,False,60,Illinois Institute of Technology,-87.627006,41.834873,exam,in-person,not_estimated,True
,academic,US,,,,431999,2019-05-11 04:59:59+00:00,2020-07-23 21:39:28+00:00,zhMGjqGs5uKPAowrSD,"['academic', 'exam']","[-87.658001, 41.87521]","[['6295630', '6255149', '6252001', '4896861', '4888671', '4887398']]",,1.0,locality,2019-05-06 05:00:00+00:00,active,America/Chicago,Spring Exams,2020-09-03 22:19:17+00:00,,,"[{'entity_id': 'QJjfX3mJEReLU4USjyzyKc', 'name': 'University Of Illinois At Chicago', 'type': 'venue', 'formatted_address': '1200 West Harrison Street\nChicago, IL 60607\nUnited States of America'}]",,20195.0,,False,76,University Of Illinois At Chicago,-87.658001,41.87521,exam,in-person,not_estimated,True
,academic,US,,,,86399,2019-05-05 04:59:59+00:00,2020-07-23 22:11:21+00:00,EQWajS6QSX5EHwo7zE,"['academic', 'graduation']","[-87.621772, 41.853136]","[['6295630', '6255149', '6252001', '4896861', '4888671', '4906683'], ['6295630', '6255149', '6252001', '4896861', '4888671', '4887398']]",,1.0,locality,2019-05-04 05:00:00+00:00,active,America/Chicago,City Colleges of Chicago-Harry S Truman College - Spring Graduation,2020-09-03 22:25:00+00:00,,,"[{'entity_id': 'pxJbsfW5VS6Mbays2U6wym', 'name': 'Wintrust Arena', 'type': 'venue', 'formatted_address': '200 East Cermak Road\nChicago, IL 60616\nUnited States of America'}]",,24000.0,,False,78,Wintrust Arena,-87.621772,41.853136,graduation,in-person,not_estimated,True
,academic,US,,,,86399,2019-05-05 04:59:59+00:00,2020-07-23 22:11:40+00:00,HFxtdpirnhejoarjin,"['academic', 'graduation']","[-87.621772, 41.853136]","[['6295630', '6255149', '6252001', '4896861', '4888671', '4906683'], ['6295630', '6255149', '6252001', '4896861', '4888671', '4887398']]",,1.0,locality,2019-05-04 05:00:00+00:00,active,America/Chicago,City Colleges of Chicago-Malcolm X College - Spring Graduation,2020-09-03 22:21:50+00:00,,,"[{'entity_id': 'pxJbsfW5VS6Mbays2U6wym', 'name': 'Wintrust Arena', 'type': 'venue', 'formatted_address': '200 East Cermak Road\nChicago, IL 60616\nUnited States of America'}]",,24000.0,,False,78,Wintrust Arena,-87.621772,41.853136,graduation,in-person,not_estimated,True
,academic,US,,,,86399,2019-05-05 04:59:59+00:00,2020-07-23 22:11:59+00:00,MdonHzAnEAF6J4iBiW,"['academic', 'graduation']","[-87.621772, 41.853136]","[['6295630', '6255149', '6252001', '4896861', '4888671', '4906683'], ['6295630', '6255149', '6252001', '4896861', '4888671', '4887398']]",,1.0,locality,2019-05-04 05:00:00+00:00,active,America/Chicago,City Colleges of Chicago-Richard J Daley College - Spring Graduation,2020-09-03 22:21:53+00:00,,,"[{'entity_id': 'pxJbsfW5VS6Mbays2U6wym', 'name': 'Wintrust Arena', 'type': 'venue', 'formatted_address': '200 East Cermak Road\nChicago, IL 60616\nUnited States of America'}]",,24000.0,,False,78,Wintrust Arena,-87.621772,41.853136,graduation,in-person,not_estimated,True
,academic,US,,,,86399,2019-05-05 04:59:59+00:00,2020-07-23 22:08:00+00:00,YXh6FTC9jWu2nrecNN,"['academic', 'graduation']","[-87.621772, 41.853136]","[['6295630', '6255149', '6252001', '4896861', '4888671', '4906683'], ['6295630', '6255149', '6252001', '4896861', '4888671', '4887398']]",,1.0,locality,2019-05-04 05:00:00+00:00,active,America/Chicago,City Colleges of Chicago-Harold Washington College - Spring Graduation,2020-09-03 22:23:14+00:00,,,"[{'entity_id': 'pxJbsfW5VS6Mbays2U6wym', 'name': 'Wintrust Arena', 'type': 'venue', 'formatted_address': '200 East Cermak Road\nChicago, IL 60616\nUnited States of America'}]",,24000.0,,False,78,Wintrust Arena,-87.621772,41.853136,graduation,in-person,not_estimated,True
,academic,US,,,,86399,2019-05-05 04:59:59+00:00,2020-07-23 21:32:59+00:00,goGdSYnsVzZGWy9XzN,"['academic', 'graduation']","[-87.621772, 41.853136]","[['6295630', '6255149', '6252001', '4896861', '4888671', '4906683'], ['6295630', '6255149', '6252001', '4896861', '4888671', '4887398']]",,1.0,locality,2019-05-04 05:00:00+00:00,active,America/Chicago,City Colleges of Chicago-Wilbur Wright College - Spring Graduation,2020-09-03 22:27:15+00:00,,,"[{'entity_id': 'pxJbsfW5VS6Mbays2U6wym', 'name': 'Wintrust Arena', 'type': 'venue', 'formatted_address': '200 East Cermak Road\nChicago, IL 60616\nUnited States of America'}]",,24000.0,,False,78,Wintrust Arena,-87.621772,41.853136,graduation,in-person,not_estimated,True
,academic,US,,,,777599,2019-04-22 04:59:59+00:00,2020-07-23 22:11:59+00:00,W2W4Bi3KjmKSpsvQA7,"['academic', 'holiday']","[-87.723959, 41.756059]","[['6295630', '6255149', '6252001', '4896861', '4888671', '4902450'], ['6295630', '6255149', '6252001', '4896861', '4888671', '4887398']]",,1.0,locality,2019-04-13 05:00:00+00:00,active,America/Chicago,Spring Break,2020-09-03 22:28:50+00:00,,,"[{'entity_id': 'rSSm5AvsBgWMQhcJaK6MUj', 'name': 'Richard J. Daley College', 'type': 'venue', 'formatted_address': '7500 S. Pulaski Road\nChicago, IL 60652\nUnited States of America'}]",,4388.0,,False,63,Richard J. Daley College,-87.723959,41.756059,holiday,in-person,not_estimated,False
,academic,US,,,,777599,2019-04-22 04:59:59+00:00,2020-07-23 22:11:39+00:00,XSG5H42dtgYptUr23B,"['academic', 'holiday']","[-87.674688, 41.877876]","[['6295630', '6255149', '6252001', '4896861', '4888671', '4887398']]",,1.0,locality,2019-04-13 05:00:00+00:00,active,America/Chicago,Spring Break,2020-09-03 22:31:20+00:00,,,"[{'entity_id': 'kjWXNvMsCemNExApReDM83', 'name': 'Malcolm X College', 'type': 'venue', 'formatted_address': '1900 West Jackson Boulevard\nChicago, IL 60612\nUnited States of America'}]",,4461.0,,False,63,Malcolm X College,-87.674688,41.877876,holiday,in-person,not_estimated,False
,academic,US,,,,777599,2019-04-22 04:59:59+00:00,2020-07-23 22:07:59+00:00,YYPjzSvD4czEXBen5R,"['academic', 'holiday']","[-87.626848, 41.886073]","[['6295630', '6255149', '6252001', '4896861', '4888671', '4887398']]",,1.0,locality,2019-04-13 05:00:00+00:00,active,America/Chicago,Spring Break,2020-09-03 22:14:07+00:00,,,"[{'entity_id': 'SLPHTKkiJKhB5x2pRkXWzc', 'name': 'Harold Washington College, City College of Chicago', 'type': 'venue', 'formatted_address': '30 East Lake Street\nChicago, IL 60601\nUnited States of America'}]",,5836.0,,False,65,"Harold Washington College, City College of Chicago",-87.626848,41.886073,holiday,in-person,not_estimated,False
,academic,US,,,,6479999,2019-06-15 04:59:59+00:00,2020-07-23 21:39:57+00:00,3uP5C8NfL9ZMaPvg52,"['academic', 'academic-session']","[-87.598296, 41.790797]","[['6295630', '6255149', '6252001', '4896861', '4888671', '4894404'], ['6295630', '6255149', '6252001', '4896861', '4888671', '4887398']]",,1.0,locality,2019-04-01 05:00:00+00:00,active,America/Chicago,Spring Session,2020-09-03 22:14:01+00:00,,,"[{'entity_id': 'dZujRpmDZFJRjswYBjzatj', 'name': 'University of Chicago', 'type': 'venue', 'formatted_address': 'Chicago, IL 60637\nUnited States of America'}]",,6801.0,,False,67,University of Chicago,-87.598296,41.790797,academic-session,in-person,not_estimated,True
,academic,US,,,,5875199,2019-06-08 04:59:59+00:00,2020-07-23 21:34:12+00:00,SHP3pfgF8o9kyyUorE,"['academic', 'academic-session']","[-87.656646, 41.924756]","[['6295630', '6255149', '6252001', '4896861', '4888671', '4889019'], ['6295630', '6255149', '6252001', '4896861', '4888671', '4887398']]",,1.0,locality,2019-04-01 05:00:00+00:00,active,America/Chicago,Spring Session,2020-09-03 22:24:08+00:00,,,"[{'entity_id': 'N8RpJ6bDrg4eLJBjc5gNPw', 'name': 'DePaul University', 'type': 'venue', 'formatted_address': 'Chicago, IL 60614\nUnited States of America'}]",,12766.0,,False,72,DePaul University,-87.656646,41.924756,academic-session,in-person,not_estimated,True
,academic,US,,,,777599,2019-04-01 04:59:59+00:00,2020-07-23 21:39:56+00:00,2ZiVR25qDPj2UuEynT,"['academic', 'holiday']","[-87.598296, 41.790797]","[['6295630', '6255149', '6252001', '4896861', '4888671', '4894404'], ['6295630', '6255149', '6252001', '4896861', '4888671', '4887398']]",,1.0,locality,2019-03-23 05:00:00+00:00,active,America/Chicago,Spring Break,2020-09-03 22:31:27+00:00,,,"[{'entity_id': 'dZujRpmDZFJRjswYBjzatj', 'name': 'University of Chicago', 'type': 'venue', 'formatted_address': 'Chicago, IL 60637\nUnited States of America'}]",,6801.0,,False,67,University of Chicago,-87.598296,41.790797,holiday,in-person,not_estimated,False
,academic,US,,,,777599,2019-04-01 04:59:59+00:00,2020-07-23 22:08:21+00:00,btZGFFchtf8rfi2945,"['academic', 'holiday']","[-87.624444, 41.874226]","[['6295630', '6255149', '6252001', '4896861', '4888671', '4887398']]",,1.0,locality,2019-03-23 05:00:00+00:00,active,America/Chicago,Spring Break,2020-09-03 22:12:56+00:00,,,"[{'entity_id': 'cGTQDjm24PmvJL8nePCFcK', 'name': 'Columbia College Chicago', 'type': 'venue', 'formatted_address': '600 South Michigan Avenue\nChicago, IL 60605\nUnited States of America'}]",,6708.0,,False,67,Columbia College Chicago,-87.624444,41.874226,holiday,in-person,not_estimated,False
,academic,US,,,,777599,2019-04-01 04:59:59+00:00,2020-07-23 21:34:12+00:00,nBAMrBKCQ6xsVMFL5n,"['academic', 'holiday']","[-87.656646, 41.924756]","[['6295630', '6255149', '6252001', '4896861', '4888671', '4889019'], ['6295630', '6255149', '6252001', '4896861', '4888671', '4887398']]",,1.0,locality,2019-03-23 05:00:00+00:00,active,America/Chicago,Spring Break,2020-09-03 22:16:19+00:00,,,"[{'entity_id': 'N8RpJ6bDrg4eLJBjc5gNPw', 'name': 'DePaul University', 'type': 'venue', 'formatted_address': 'Chicago, IL 60614\nUnited States of America'}]",,12766.0,,False,72,DePaul University,-87.656646,41.924756,holiday,in-person,not_estimated,False
,academic,US,,,,777599,2019-04-01 04:59:59+00:00,2020-07-23 21:39:27+00:00,tHcKBWYkjXefpLNxV8,"['academic', 'holiday']","[-87.658001, 41.87521]","[['6295630', '6255149', '6252001', '4896861', '4888671', '4887398']]",,1.0,locality,2019-03-23 05:00:00+00:00,active,America/Chicago,Spring Break,2020-09-03 22:12:54+00:00,,,"[{'entity_id': 'QJjfX3mJEReLU4USjyzyKc', 'name': 'University Of Illinois At Chicago', 'type': 'venue', 'formatted_address': '1200 West Harrison Street\nChicago, IL 60607\nUnited States of America'}]",,20195.0,,False,76,University Of Illinois At Chicago,-87.658001,41.87521,holiday,in-person,not_estimated,False
,academic,US,,,,431999,2019-03-23 04:59:59+00:00,2020-07-23 21:34:11+00:00,EwpUDzJdzjLE5nideQ,"['academic', 'exam']","[-87.656646, 41.924756]","[['6295630', '6255149', '6252001', '4896861', '4888671', '4889019'], ['6295630', '6255149', '6252001', '4896861', '4888671', '4887398']]",,1.0,locality,2019-03-18 05:00:00+00:00,active,America/Chicago,Winter Exams,2020-09-03 22:22:03+00:00,,,"[{'entity_id': 'N8RpJ6bDrg4eLJBjc5gNPw', 'name': 'DePaul University', 'type': 'venue', 'formatted_address': 'Chicago, IL 60614\nUnited States of America'}]",,12766.0,,False,72,DePaul University,-87.656646,41.924756,exam,in-person,not_estimated,True
,academic,US,,,,777599,2019-03-25 04:59:59+00:00,2020-07-23 22:10:54+00:00,ndRuecTdtbpqr5PWQ3,"['academic', 'holiday']","[-87.627006, 41.834873]","[['6295630', '6255149', '6252001', '4896861', '4888671', '4906683'], ['6295630', '6255149', '6252001', '4896861', '4888671', '4887398']]",,1.0,locality,2019-03-16 05:00:00+00:00,active,America/Chicago,Spring Break,2020-09-03 22:13:17+00:00,,,"[{'entity_id': 'qmgnxQEmGMxGuMKgJvjj4t', 'name': 'Illinois Institute of Technology', 'type': 'venue', 'formatted_address': '10 West 35th Street\nChicago, IL 60616\nUnited States of America'}]",,3143.0,,False,60,Illinois Institute of Technology,-87.627006,41.834873,holiday,in-person,not_estimated,False
,academic,US,,,,691199,2019-02-04 05:59:59+00:00,2020-07-23 21:34:10+00:00,y3Q4W2eCycZrSFXvah,"['academic', 'social']","[-87.656646, 41.924756]","[['6295630', '6255149', '6252001', '4896861', '4888671', '4889019'], ['6295630', '6255149', '6252001', '4896861', '4888671', '4887398']]",,1.0,locality,2019-01-27 06:00:00+00:00,active,America/Chicago,Homecoming,2020-07-23 21:34:52+00:00,,,"[{'entity_id': 'N8RpJ6bDrg4eLJBjc5gNPw', 'name': 'DePaul University', 'type': 'venue', 'formatted_address': 'Chicago, IL 60614\nUnited States of America'}]",,0.0,,False,0,DePaul University,-87.656646,41.924756,social,in-person,not_estimated,True
,academic,US,,,,9413999,2019-05-11 04:59:59+00:00,2020-07-23 22:08:20+00:00,SsfW92yHbn9mxk4yKs,"['academic', 'academic-session']","[-87.624444, 41.874226]","[['6295630', '6255149', '6252001', '4896861', '4888671', '4887398']]",,1.0,locality,2019-01-22 06:00:00+00:00,active,America/Chicago,Spring Session,2020-09-03 22:12:49+00:00,,,"[{'entity_id': 'cGTQDjm24PmvJL8nePCFcK', 'name': 'Columbia College Chicago', 'type': 'venue', 'formatted_address': '600 South Michigan Avenue\nChicago, IL 60605\nUnited States of America'}]",,6708.0,,False,67,Columbia College Chicago,-87.624444,41.874226,academic-session,in-person,not_estimated,True
,academic,US,,,,10105199,2019-05-11 04:59:59+00:00,2020-07-23 22:07:59+00:00,8dFmoGYW65tQQXavDD,"['academic', 'academic-session']","[-87.626848, 41.886073]","[['6295630', '6255149', '6252001', '4896861', '4888671', '4887398']]",,1.0,locality,2019-01-14 06:00:00+00:00,active,America/Chicago,Spring Session,2020-09-03 22:14:11+00:00,,,"[{'entity_id': 'SLPHTKkiJKhB5x2pRkXWzc', 'name': 'Harold Washington College, City College of Chicago', 'type': 'venue', 'formatted_address': '30 East Lake Street\nChicago, IL 60601\nUnited States of America'}]",,5836.0,,False,65,"Harold Washington College, City College of Chicago",-87.626848,41.886073,academic-session,in-person,not_estimated,True
,academic,US,,,,9500399,2019-05-04 04:59:59+00:00,2020-07-23 22:10:53+00:00,iRJphf7ZZkJEEqMG2v,"['academic', 'academic-session']","[-87.627006, 41.834873]","[['6295630', '6255149', '6252001', '4896861', '4888671', '4906683'], ['6295630', '6255149', '6252001', '4896861', '4888671', '4887398']]",,1.0,locality,2019-01-14 06:00:00+00:00,active,America/Chicago,Spring Session,2020-09-03 22:21:02+00:00,,,"[{'entity_id': 'qmgnxQEmGMxGuMKgJvjj4t', 'name': 'Illinois Institute of Technology', 'type': 'venue', 'formatted_address': '10 West 35th Street\nChicago, IL 60616\nUnited States of America'}]",,3143.0,,False,60,Illinois Institute of Technology,-87.627006,41.834873,academic-session,in-person,not_estimated,True
,academic,US,,,,10105199,2019-05-11 04:59:59+00:00,2020-07-23 22:11:38+00:00,kf8DdFhnGb3vgc7Asf,"['academic', 'academic-session']","[-87.674688, 41.877876]","[['6295630', '6255149', '6252001', '4896861', '4888671', '4887398']]",,1.0,locality,2019-01-14 06:00:00+00:00,active,America/Chicago,Spring Session,2020-09-03 22:13:05+00:00,,,"[{'entity_id': 'kjWXNvMsCemNExApReDM83', 'name': 'Malcolm X College', 'type': 'venue', 'formatted_address': '1900 West Jackson Boulevard\nChicago, IL 60612\nUnited States of America'}]",,4461.0,,False,63,Malcolm X College,-87.674688,41.877876,academic-session,in-person,not_estimated,True
,academic,US,,,,10105199,2019-05-11 04:59:59+00:00,2020-07-23 22:11:58+00:00,yLZDPMoPurEbyZKJEK,"['academic', 'academic-session']","[-87.723959, 41.756059]","[['6295630', '6255149', '6252001', '4896861', '4888671', '4902450'], ['6295630', '6255149', '6252001', '4896861', '4888671', '4887398']]",,1.0,locality,2019-01-14 06:00:00+00:00,active,America/Chicago,Spring Session,2020-09-03 22:30:11+00:00,,,"[{'entity_id': 'rSSm5AvsBgWMQhcJaK6MUj', 'name': 'Richard J. Daley College', 'type': 'venue', 'formatted_address': '7500 S. Pulaski Road\nChicago, IL 60652\nUnited States of America'}]",,4388.0,,False,63,Richard J. Daley College,-87.723959,41.756059,academic-session,in-person,not_estimated,True
,academic,US,,,,9500399,2019-05-04 04:59:59+00:00,2020-07-23 21:39:26+00:00,zTToy7uhBzN474tGcQ,"['academic', 'academic-session']","[-87.658001, 41.87521]","[['6295630', '6255149', '6252001', '4896861', '4888671', '4887398']]",,1.0,locality,2019-01-14 06:00:00+00:00,active,America/Chicago,Spring Session,2020-09-03 22:23:35+00:00,,,"[{'entity_id': 'QJjfX3mJEReLU4USjyzyKc', 'name': 'University Of Illinois At Chicago', 'type': 'venue', 'formatted_address': '1200 West Harrison Street\nChicago, IL 60607\nUnited States of America'}]",,20195.0,,False,76,University Of Illinois At Chicago,-87.658001,41.87521,academic-session,in-person,not_estimated,True
,academic,US,,,,5871599,2019-03-16 04:59:59+00:00,2020-07-23 21:34:09+00:00,BosQmYEns69ieFAq5s,"['academic', 'academic-session']","[-87.656646, 41.924756]","[['6295630', '6255149', '6252001', '4896861', '4888671', '4889019'], ['6295630', '6255149', '6252001', '4896861', '4888671', '4887398']]",,1.0,locality,2019-01-07 06:00:00+00:00,active,America/Chicago,Winter Session,2020-09-03 22:27:48+00:00,,,"[{'entity_id': 'N8RpJ6bDrg4eLJBjc5gNPw', 'name': 'DePaul University', 'type': 'venue', 'formatted_address': 'Chicago, IL 60614\nUnited States of America'}]",,12766.0,,False,72,DePaul University,-87.656646,41.924756,academic-session,in-person,not_estimated,True
,academic,US,,,,6476399,2019-03-23 04:59:59+00:00,2020-07-23 21:39:55+00:00,su8syEGYTFJwQ8qSeq,"['academic', 'academic-session']","[-87.598296, 41.790797]","[['6295630', '6255149', '6252001', '4896861', '4888671', '4894404'], ['6295630', '6255149', '6252001', '4896861', '4888671', '4887398']]",,1.0,locality,2019-01-07 06:00:00+00:00,active,America/Chicago,Winter Session,2020-09-03 22:26:47+00:00,,,"[{'entity_id': 'dZujRpmDZFJRjswYBjzatj', 'name': 'University of Chicago', 'type': 'venue', 'formatted_address': 'Chicago, IL 60637\nUnited States of America'}]",,6801.0,,False,67,University of Chicago,-87.598296,41.790797,academic-session,in-person,not_estimated,True
,academic,US,,,,1468799,2019-01-19 05:59:59+00:00,2020-07-23 22:08:19+00:00,vfMhDJAVMTYyvyTuiS,"['academic', 'academic-session', 'estimated']","[-87.624444, 41.874226]","[['6295630', '6255149', '6252001', '4896861', '4888671', '4887398']]",,1.0,locality,2019-01-02 06:00:00+00:00,active,America/Chicago,Winter Session,2020-09-03 22:19:52+00:00,,,"[{'entity_id': 'cGTQDjm24PmvJL8nePCFcK', 'name': 'Columbia College Chicago', 'type': 'venue', 'formatted_address': '600 South Michigan Avenue\nChicago, IL 60605\nUnited States of America'}]",,2012.0,,False,56,Columbia College Chicago,-87.624444,41.874226,academic-session,in-person,estimated,True
,academic,US,,,,3283199,2019-01-22 05:59:59+00:00,2020-07-23 22:08:17+00:00,44JwGPspdvz2dwKAWm,"['academic', 'holiday']","[-87.624444, 41.874226]","[['6295630', '6255149', '6252001', '4896861', '4888671', '4887398']]",,1.0,locality,2018-12-15 06:00:00+00:00,active,America/Chicago,Winter Break,2020-09-03 22:20:52+00:00,,,"[{'entity_id': 'cGTQDjm24PmvJL8nePCFcK', 'name': 'Columbia College Chicago', 'type': 'venue', 'formatted_address': '600 South Michigan Avenue\nChicago, IL 60605\nUnited States of America'}]",,6568.0,,False,66,Columbia College Chicago,-87.624444,41.874226,holiday,in-person,not_estimated,False
,academic,US,,,,2591999,2019-01-14 05:59:59+00:00,2020-07-23 22:11:38+00:00,AoKkHy6caGrkWvZmna,"['academic', 'holiday']","[-87.674688, 41.877876]","[['6295630', '6255149', '6252001', '4896861', '4888671', '4887398']]",,1.0,locality,2018-12-15 06:00:00+00:00,active,America/Chicago,Winter Break,2020-09-03 22:22:03+00:00,,,"[{'entity_id': 'kjWXNvMsCemNExApReDM83', 'name': 'Malcolm X College', 'type': 'venue', 'formatted_address': '1900 West Jackson Boulevard\nChicago, IL 60612\nUnited States of America'}]",,4461.0,,False,63,Malcolm X College,-87.674688,41.877876,holiday,in-person,not_estimated,False
,academic,US,,,,2591999,2019-01-14 05:59:59+00:00,2020-07-23 22:07:58+00:00,UU4dcJBJiYnjZQicdc,"['academic', 'holiday']","[-87.626848, 41.886073]","[['6295630', '6255149', '6252001', '4896861', '4888671', '4887398']]",,1.0,locality,2018-12-15 06:00:00+00:00,active,America/Chicago,Winter Break,2020-09-03 22:16:25+00:00,,,"[{'entity_id': 'SLPHTKkiJKhB5x2pRkXWzc', 'name': 'Harold Washington College, City College of Chicago', 'type': 'venue', 'formatted_address': '30 East Lake Street\nChicago, IL 60601\nUnited States of America'}]",,5836.0,,False,65,"Harold Washington College, City College of Chicago",-87.626848,41.886073,holiday,in-person,not_estimated,False
,academic,US,,,,1987199,2019-01-07 05:59:59+00:00,2020-07-23 21:39:54+00:00,Zvm2MzH3rhhkZv8kvz,"['academic', 'holiday']","[-87.598296, 41.790797]","[['6295630', '6255149', '6252001', '4896861', '4888671', '4894404'], ['6295630', '6255149', '6252001', '4896861', '4888671', '4887398']]",,1.0,locality,2018-12-15 06:00:00+00:00,active,America/Chicago,Winter Break,2020-09-03 22:15:15+00:00,,,"[{'entity_id': 'dZujRpmDZFJRjswYBjzatj', 'name': 'University of Chicago', 'type': 'venue', 'formatted_address': 'Chicago, IL 60637\nUnited States of America'}]",,6599.0,,False,66,University of Chicago,-87.598296,41.790797,holiday,in-person,not_estimated,False
,academic,US,,,,2591999,2019-01-14 05:59:59+00:00,2020-07-23 21:39:25+00:00,mwjrPGBSigngzhyjRu,"['academic', 'holiday']","[-87.658001, 41.87521]","[['6295630', '6255149', '6252001', '4896861', '4888671', '4887398']]",,1.0,locality,2018-12-15 06:00:00+00:00,active,America/Chicago,Winter Break,2020-09-03 22:17:55+00:00,,,"[{'entity_id': 'QJjfX3mJEReLU4USjyzyKc', 'name': 'University Of Illinois At Chicago', 'type': 'venue', 'formatted_address': '1200 West Harrison Street\nChicago, IL 60607\nUnited States of America'}]",,19254.0,,False,76,University Of Illinois At Chicago,-87.658001,41.87521,holiday,in-person,not_estimated,False
,academic,US,,,,2591999,2019-01-14 05:59:59+00:00,2020-07-23 22:11:57+00:00,poGqkxsUcKQWnYomhZ,"['academic', 'holiday']","[-87.723959, 41.756059]","[['6295630', '6255149', '6252001', '4896861', '4888671', '4902450'], ['6295630', '6255149', '6252001', '4896861', '4888671', '4887398']]",,1.0,locality,2018-12-15 06:00:00+00:00,active,America/Chicago,Winter Break,2020-09-03 22:29:21+00:00,,,"[{'entity_id': 'rSSm5AvsBgWMQhcJaK6MUj', 'name': 'Richard J. Daley College', 'type': 'venue', 'formatted_address': '7500 S. Pulaski Road\nChicago, IL 60652\nUnited States of America'}]",,4388.0,,False,63,Richard J. Daley College,-87.723959,41.756059,holiday,in-person,not_estimated,False
,academic,US,,,,3196799,2019-01-14 05:59:59+00:00,2020-07-23 22:10:52+00:00,5CZ76MHPJZAK2mbriA,"['academic', 'holiday']","[-87.627006, 41.834873]","[['6295630', '6255149', '6252001', '4896861', '4888671', '4906683'], ['6295630', '6255149', '6252001', '4896861', '4888671', '4887398']]",,1.0,locality,2018-12-08 06:00:00+00:00,active,America/Chicago,Winter Break,2020-09-03 22:21:13+00:00,,,"[{'entity_id': 'qmgnxQEmGMxGuMKgJvjj4t', 'name': 'Illinois Institute of Technology', 'type': 'venue', 'formatted_address': '10 West 35th Street\nChicago, IL 60616\nUnited States of America'}]",,3025.0,,False,60,Illinois Institute of Technology,-87.627006,41.834873,holiday,in-person,not_estimated,False
,academic,US,,,,4060799,2019-01-07 05:59:59+00:00,2020-07-23 21:34:08+00:00,H7meLFGqyV26KX3UBq,"['academic', 'holiday']","[-87.656646, 41.924756]","[['6295630', '6255149', '6252001', '4896861', '4888671', '4889019'], ['6295630', '6255149', '6252001', '4896861', '4888671', '4887398']]",,1.0,locality,2018-11-21 06:00:00+00:00,active,America/Chicago,Winter Break,2020-09-03 22:27:30+00:00,,,"[{'entity_id': 'N8RpJ6bDrg4eLJBjc5gNPw', 'name': 'DePaul University', 'type': 'venue', 'formatted_address': 'Chicago, IL 60614\nUnited States of America'}]",,12766.0,,False,72,DePaul University,-87.656646,41.924756,holiday,in-person,not_estimated,False
