id,title,description,start,end,timezone,duration,category,labels,country,rank,local_rank,aviation_rank,phq_attendance,entities,location,place_hierarchies,scope,relevance,state,first_seen,updated,deleted_reason,duplicate_of_id,entity_name,longitude,latitude,sub_category,session_type,estimated,on_campus
HkWJLZQRKrT6gVvB9B,University of Chicago - Spring Graduation,,2021-06-12 05:00:00+00:00,2021-06-13 04:59:59+00:00,America/Chicago,86399,academic,"['academic', 'graduation']",US,73,,,14353.0,"[{'entity_id': 'dZujRpmDZFJRjswYBjzatj', 'name': 'University of Chicago', 'type': 'venue', 'formatted_address': 'Chicago, IL 60637\nUnited States of America'}]","[-87.598296, 41.790797]","[['6295630', '6255149', '6252001', '4896861', '4888671', '4894404'], ['6295630', '6255149', '6252001', '4896861', '4888671', '4887398']]",locality,1.0,active,2020-07-23 21:40:15+00:00,2021-03-19 14:29:24+00:00,,,University of Chicago,-87.598296,41.790797,graduation,in-person,not_estimated,True
wzY7wniZYGFrirG4uH,DePaul University - Spring Graduation,,2021-06-12 05:00:00+00:00,2021-06-14 04:59:59+00:00,America/Chicago,172799,academic,"['academic', 'graduation']",US,80,,,30000.0,"[{'entity_id': 'pxJbsfW5VS6Mbays2U6wym', 'name': 'Wintrust Arena', 'type': 'venue', 'formatted_address': '200 East Cermak Road\nChicago, IL 60616\nUnited States of America'}]","[-87.621772, 41.853136]","[['6295630', '6255149', '6252001', '4896861', '4888671', '4906683'], ['6295630', '6255149', '6252001', '4896861', '4888671', '4887398']]",locality,1.0,active,2020-07-23 21:34:33+00:00,2020-09-03 22:10:28+00:00,,,Wintrust Arena,-87.621772,41.853136,graduation,in-person,not_estimated,True
xyVs9eGz6GuDf3t8S6,Summer Break,,2021-06-12 05:00:00+00:00,2021-06-21 04:59:59+00:00,America/Chicago,777599,academic,"['academic', 'holiday']",US,67,,,6801.0,"[{'entity_id': 'dZujRpmDZFJRjswYBjzatj', 'name': 'University of Chicago', 'type': 'venue', 'formatted_address': 'Chicago, IL 60637\nUnited States of America'}]","[-87.598296, 41.790797]","[['6295630', '6255149', '6252001', '4896861', '4888671', '4894404'], ['6295630', '6255149', '6252001', '4896861', '4888671', '4887398']]",locality,1.0,active,2020-07-23 21:40:16+00:00,2020-09-03 22:23:23+00:00,,,University of Chicago,-87.598296,41.790797,holiday,in-person,not_estimated,False
qArLqGHnki3zcyiks8,Summer Session,,2021-06-02 05:00:00+00:00,2021-07-25 04:59:59+00:00,America/Chicago,4579199,academic,"['academic', 'academic-session', 'estimated']",US,65,,,5836.0,"[{'entity_id': 'SLPHTKkiJKhB5x2pRkXWzc', 'name': 'Harold Washington College, City College of Chicago', 'type': 'venue', 'formatted_address': '30 East Lake Street\nChicago, IL 60601\nUnited States of America'}]","[-87.626848, 41.886073]","[['6295630', '6255149', '6252001', '4896861', '4888671', '4887398']]",locality,1.0,active,2020-07-23 22:08:14+00:00,2020-09-03 22:28:17+00:00,,,"Harold Washington College, City College of Chicago",-87.626848,41.886073,academic-session,in-person,estimated,True
LCAgk4VdSpFpEPa7nm,Summer Session,,2021-06-01 05:00:00+00:00,2021-08-22 04:59:59+00:00,America/Chicago,7084799,academic,"['academic', 'academic-session', 'online-session']",US,36,,,210.0,"[{'entity_id': 'cGTQDjm24PmvJL8nePCFcK', 'name': 'Columbia College Chicago', 'type': 'venue', 'formatted_address': '600 South Michigan Avenue\nChicago, IL 60605\nUnited States of America'}]","[-87.624444, 41.874226]","[['6295630', '6255149', '6252001', '4896861', '4888671', '4887398']]",locality,1.0,active,2020-07-23 22:08:37+00:00,2021-03-01 22:27:53+00:00,,,Columbia College Chicago,-87.624444,41.874226,academic-session,online-session,not_estimated,True
AfgFGaFtWCuNVRuaP7,Summer Session,,2021-05-24 05:00:00+00:00,2021-08-15 04:59:59+00:00,America/Chicago,7171199,academic,"['academic', 'academic-session', 'hybrid-session']",US,42,,,377.0,"[{'entity_id': 'qmgnxQEmGMxGuMKgJvjj4t', 'name': 'Illinois Institute of Technology', 'type': 'venue', 'formatted_address': '10 West 35th Street\nChicago, IL 60616\nUnited States of America'}]","[-87.627006, 41.834873]","[['6295630', '6255149', '6252001', '4896861', '4888671', '4906683'], ['6295630', '6255149', '6252001', '4896861', '4888671', '4887398']]",locality,1.0,active,2020-07-23 22:11:15+00:00,2021-03-01 21:57:03+00:00,,,Illinois Institute of Technology,-87.627006,41.834873,academic-session,hybrid-session,not_estimated,True
8jkohaHeHm3JkjR7Sj,Summer Session,,2021-05-17 05:00:00+00:00,2021-08-07 04:59:59+00:00,America/Chicago,7084799,academic,"['academic', 'academic-session', 'online-session']",US,46,,,605.0,"[{'entity_id': 'QJjfX3mJEReLU4USjyzyKc', 'name': 'University Of Illinois At Chicago', 'type': 'venue', 'formatted_address': '1200 West Harrison Street\nChicago, IL 60607\nUnited States of America'}]","[-87.658001, 41.87521]","[['6295630', '6255149', '6252001', '4896861', '4888671', '4887398']]",locality,1.0,active,2020-07-23 21:39:50+00:00,2021-01-26 04:15:25+00:00,,,University Of Illinois At Chicago,-87.658001,41.87521,academic-session,online-session,not_estimated,True
xSmowGHuwfP2HYY9FG,Illinois Institute of Technology - Spring Graduation,,2021-05-15 15:00:00+00:00,2021-05-15 15:00:00+00:00,America/Chicago,0,academic,"['academic', 'graduation']",US,58,,,2500.0,"[{'entity_id': 'qmgnxQEmGMxGuMKgJvjj4t', 'name': 'Illinois Institute of Technology', 'type': 'venue', 'formatted_address': '10 West 35th Street\nChicago, IL 60616\nUnited States of America'}]","[-87.627006, 41.834873]","[['6295630', '6255149', '6252001', '4896861', '4888671', '4906683'], ['6295630', '6255149', '6252001', '4896861', '4888671', '4887398']]",locality,1.0,active,2020-07-23 22:11:14+00:00,2021-03-19 10:34:10+00:00,,,Illinois Institute of Technology,-87.627006,41.834873,graduation,in-person,not_estimated,True
k79s26Np8D5pU9ViW4,Summer Break,,2021-05-15 05:00:00+00:00,2021-08-30 04:59:59+00:00,America/Chicago,9244799,academic,"['academic', 'estimated', 'holiday']",US,65,,,5836.0,"[{'entity_id': 'SLPHTKkiJKhB5x2pRkXWzc', 'name': 'Harold Washington College, City College of Chicago', 'type': 'venue', 'formatted_address': '30 East Lake Street\nChicago, IL 60601\nUnited States of America'}]","[-87.626848, 41.886073]","[['6295630', '6255149', '6252001', '4896861', '4888671', '4887398']]",locality,1.0,active,2020-07-23 22:08:16+00:00,2020-09-03 22:13:34+00:00,,,"Harold Washington College, City College of Chicago",-87.626848,41.886073,holiday,in-person,estimated,False
ottuDjzsyAkAY5Z6Wb,Columbia College Chicago - Spring Graduation,,2021-05-15 05:00:00+00:00,2021-05-17 04:59:59+00:00,America/Chicago,172799,academic,"['academic', 'graduation']",US,71,,,11400.0,"[{'entity_id': 'ZWjCGvqwmQzeS39FCZPcQC', 'name': 'Auditorium Theatre', 'type': 'venue', 'formatted_address': '50 East Ida B. Wells Drive\nChicago, IL 60605\nUnited States of America'}]","[-87.625113, 41.875824]","[['6295630', '6255149', '6252001', '4896861', '4888671', '4887398']]",locality,1.0,active,2020-07-23 22:08:36+00:00,2020-09-03 22:13:56+00:00,,,Auditorium Theatre,-87.625113,41.875824,graduation,in-person,not_estimated,True
yXdkKew7ze3QjBoAeN,Summer Break,,2021-05-15 05:00:00+00:00,2021-09-07 04:59:59+00:00,America/Chicago,9935999,academic,"['academic', 'estimated', 'holiday']",US,67,,,6708.0,"[{'entity_id': 'cGTQDjm24PmvJL8nePCFcK', 'name': 'Columbia College Chicago', 'type': 'venue', 'formatted_address': '600 South Michigan Avenue\nChicago, IL 60605\nUnited States of America'}]","[-87.624444, 41.874226]","[['6295630', '6255149', '6252001', '4896861', '4888671', '4887398']]",locality,1.0,active,2020-07-23 22:08:38+00:00,2020-09-03 22:17:58+00:00,,,Columbia College Chicago,-87.624444,41.874226,holiday,in-person,estimated,False
aGefSEebnUyhtzYAci,Spring Exams,,2021-05-10 05:00:00+00:00,2021-05-15 04:59:59+00:00,America/Chicago,431999,academic,"['academic', 'exam', 'hybrid-session']",US,52,,,1257.0,"[{'entity_id': 'qmgnxQEmGMxGuMKgJvjj4t', 'name': 'Illinois Institute of Technology', 'type': 'venue', 'formatted_address': '10 West 35th Street\nChicago, IL 60616\nUnited States of America'}]","[-87.627006, 41.834873]","[['6295630', '6255149', '6252001', '4896861', '4888671', '4906683'], ['6295630', '6255149', '6252001', '4896861', '4888671', '4887398']]",locality,1.0,active,2020-07-23 22:11:13+00:00,2021-01-26 04:28:27+00:00,,,Illinois Institute of Technology,-87.627006,41.834873,exam,hybrid-session,not_estimated,True
GEiF6E7mMHrqhR6Amn,Summer Break,,2021-05-08 05:00:00+00:00,2021-08-23 04:59:59+00:00,America/Chicago,9244799,academic,"['academic', 'holiday']",US,76,,,20195.0,"[{'entity_id': 'QJjfX3mJEReLU4USjyzyKc', 'name': 'University Of Illinois At Chicago', 'type': 'venue', 'formatted_address': '1200 West Harrison Street\nChicago, IL 60607\nUnited States of America'}]","[-87.658001, 41.87521]","[['6295630', '6255149', '6252001', '4896861', '4888671', '4887398']]",locality,1.0,active,2020-07-23 21:39:51+00:00,2020-09-03 22:30:40+00:00,,,University Of Illinois At Chicago,-87.658001,41.87521,holiday,in-person,not_estimated,False
zkCUwDqwgLmU9bAPA5,Summer Break,,2021-05-08 05:00:00+00:00,2021-08-23 04:59:59+00:00,America/Chicago,9244799,academic,"['academic', 'holiday']",US,60,,,3143.0,"[{'entity_id': 'qmgnxQEmGMxGuMKgJvjj4t', 'name': 'Illinois Institute of Technology', 'type': 'venue', 'formatted_address': '10 West 35th Street\nChicago, IL 60616\nUnited States of America'}]","[-87.627006, 41.834873]","[['6295630', '6255149', '6252001', '4896861', '4888671', '4906683'], ['6295630', '6255149', '6252001', '4896861', '4888671', '4887398']]",locality,1.0,active,2020-07-23 22:11:16+00:00,2020-09-03 22:13:42+00:00,,,Illinois Institute of Technology,-87.627006,41.834873,holiday,in-person,not_estimated,False
zgo5c9UvJvmTpaET5p,University of Illinois at Chicago - Spring Graduation,,2021-05-05 05:00:00+00:00,2021-05-11 04:59:59+00:00,America/Chicago,518399,academic,"['academic', 'estimated', 'graduation']",US,80,,,30000.0,"[{'entity_id': 'r2kXnMREzPzTzQS8pHShMU', 'name': 'Credit Union 1 Arena', 'type': 'venue', 'formatted_address': '525 S Racine Ave\nChicago, IL 60607\nUnited States of America'}]","[-87.656141, 41.874856]","[['6295630', '6255149', '6252001', '4896861', '4888671', '4887398']]",locality,1.0,active,2020-07-23 21:39:50+00:00,2020-09-03 22:20:02+00:00,,,Credit Union 1 Arena,-87.656141,41.874856,graduation,in-person,estimated,True
8QaXZMNjYct9NpAiAN,Northeastern Illinois University - Spring Graduation,,2021-05-03 21:00:00+00:00,2021-05-03 21:00:00+00:00,America/Chicago,0,academic,"['academic', 'graduation']",US,70,,,9500.0,"[{'entity_id': 'r2kXnMREzPzTzQS8pHShMU', 'name': 'Credit Union 1 Arena', 'type': 'venue', 'formatted_address': '525 S Racine Ave\nChicago, IL 60607\nUnited States of America'}]","[-87.656141, 41.874856]","[['6295630', '6255149', '6252001', '4896861', '4888671', '4887398']]",locality,1.0,active,2020-07-23 22:14:33+00:00,2021-03-19 10:56:23+00:00,,,Credit Union 1 Arena,-87.656141,41.874856,graduation,in-person,not_estimated,True
JgtRyoQ2UQ9ZVkzpPH,Spring Exams,,2021-05-03 05:00:00+00:00,2021-05-08 04:59:59+00:00,America/Chicago,431999,academic,"['academic', 'exam', 'online-session']",US,56,,,2020.0,"[{'entity_id': 'QJjfX3mJEReLU4USjyzyKc', 'name': 'University Of Illinois At Chicago', 'type': 'venue', 'formatted_address': '1200 West Harrison Street\nChicago, IL 60607\nUnited States of America'}]","[-87.658001, 41.87521]","[['6295630', '6255149', '6252001', '4896861', '4888671', '4887398']]",locality,1.0,active,2020-07-23 21:39:49+00:00,2021-01-26 04:12:46+00:00,,,University Of Illinois At Chicago,-87.658001,41.87521,exam,online-session,not_estimated,True
EiLMZ23enjyWDQsnpj,City Colleges of Chicago-Harold Washington College - Spring Graduation,,2021-05-01 05:00:00+00:00,2021-05-02 04:59:59+00:00,America/Chicago,86399,academic,"['academic', 'estimated', 'graduation']",US,78,,,24000.0,"[{'entity_id': 'pxJbsfW5VS6Mbays2U6wym', 'name': 'Wintrust Arena', 'type': 'venue', 'formatted_address': '200 East Cermak Road\nChicago, IL 60616\nUnited States of America'}]","[-87.621772, 41.853136]","[['6295630', '6255149', '6252001', '4896861', '4888671', '4906683'], ['6295630', '6255149', '6252001', '4896861', '4888671', '4887398']]",locality,1.0,active,2020-07-23 22:08:14+00:00,2020-09-03 22:27:22+00:00,,,Wintrust Arena,-87.621772,41.853136,graduation,in-person,estimated,True
PbkXoCfUY4R2bSPwng,City Colleges of Chicago-Harry S Truman College - Spring Graduation,,2021-05-01 05:00:00+00:00,2021-05-02 04:59:59+00:00,America/Chicago,86399,academic,"['academic', 'estimated', 'graduation']",US,78,,,24000.0,"[{'entity_id': 'pxJbsfW5VS6Mbays2U6wym', 'name': 'Wintrust Arena', 'type': 'venue', 'formatted_address': '200 East Cermak Road\nChicago, IL 60616\nUnited States of America'}]","[-87.621772, 41.853136]","[['6295630', '6255149', '6252001', '4896861', '4888671', '4906683'], ['6295630', '6255149', '6252001', '4896861', '4888671', '4887398']]",locality,1.0,active,2020-07-23 22:11:34+00:00,2020-09-03 22:30:07+00:00,,,Wintrust Arena,-87.621772,41.853136,graduation,in-person,estimated,True
kfUdbepHCM7BScqoWd,City Colleges of Chicago-Malcolm X College - Spring Graduation,,2021-05-01 05:00:00+00:00,2021-05-02 04:59:59+00:00,America/Chicago,86399,academic,"['academic', 'estimated', 'graduation']",US,78,,,24000.0,"[{'entity_id': 'pxJbsfW5VS6Mbays2U6wym', 'name': 'Wintrust Arena', 'type': 'venue', 'formatted_address': '200 East Cermak Road\nChicago, IL 60616\nUnited States of America'}]","[-87.621772, 41.853136]","[['6295630', '6255149', '6252001', '4896861', '4888671', '4906683'], ['6295630', '6255149', '6252001', '4896861', '4888671', '4887398']]",locality,1.0,active,2020-07-23 22:11:53+00:00,2020-09-03 22:20:37+00:00,,,Wintrust Arena,-87.621772,41.853136,graduation,in-person,estimated,True
tCEjJE6uUvschQHy72,City Colleges of Chicago-Richard J Daley College - Spring Graduation,,2021-05-01 05:00:00+00:00,2021-05-02 04:59:59+00:00,America/Chicago,86399,academic,"['academic', 'estimated', 'graduation']",US,78,,,24000.0,"[{'entity_id': 'pxJbsfW5VS6Mbays2U6wym', 'name': 'Wintrust Arena', 'type': 'venue', 'formatted_address': '200 East Cermak Road\nChicago, IL 60616\nUnited States of America'}]","[-87.621772, 41.853136]","[['6295630', '6255149', '6252001', '4896861', '4888671', '4906683'], ['6295630', '6255149', '6252001', '4896861', '4888671', '4887398']]",locality,1.0,active,2020-07-23 22:12:12+00:00,2020-09-03 22:29:48+00:00,,,Wintrust Arena,-87.621772,41.853136,graduation,in-person,estimated,True
tQFA9hChHCEdmnVxkv,City Colleges of Chicago-Wilbur Wright College - Spring Graduation,,2021-05-01 05:00:00+00:00,2021-05-02 04:59:59+00:00,America/Chicago,86399,academic,"['academic', 'estimated', 'graduation']",US,78,,,24000.0,"[{'entity_id': 'pxJbsfW5VS6Mbays2U6wym', 'name': 'Wintrust Arena', 'type': 'venue', 'formatted_address': '200 East Cermak Road\nChicago, IL 60616\nUnited States of America'}]","[-87.621772, 41.853136]","[['6295630', '6255149', '6252001', '4896861', '4888671', '4906683'], ['6295630', '6255149', '6252001', '4896861', '4888671', '4887398']]",locality,1.0,active,2020-07-23 21:33:13+00:00,2020-09-03 22:11:03+00:00,,,Wintrust Arena,-87.621772,41.853136,graduation,in-person,estimated,True
QZjyYseyRgeTaMXVkt,Spring Session,,2021-03-29 05:00:00+00:00,2021-06-12 04:59:59+00:00,America/Chicago,6479999,academic,"['academic', 'academic-session', 'hybrid-session']",US,59,,,2720.0,"[{'entity_id': 'dZujRpmDZFJRjswYBjzatj', 'name': 'University of Chicago', 'type': 'venue', 'formatted_address': 'Chicago, IL 60637\nUnited States of America'}]","[-87.598296, 41.790797]","[['6295630', '6255149', '6252001', '4896861', '4888671', '4894404'], ['6295630', '6255149', '6252001', '4896861', '4888671', '4887398']]",locality,1.0,active,2020-07-23 21:40:15+00:00,2021-01-26 04:30:10+00:00,,,University of Chicago,-87.598296,41.790797,academic-session,hybrid-session,not_estimated,True
AkwgXbDqWg2sypj9ET,Spring Break,,2021-03-27 05:00:00+00:00,2021-04-05 04:59:59+00:00,America/Chicago,777599,academic,"['academic', 'holiday']",US,65,,,5836.0,"[{'entity_id': 'SLPHTKkiJKhB5x2pRkXWzc', 'name': 'Harold Washington College, City College of Chicago', 'type': 'venue', 'formatted_address': '30 East Lake Street\nChicago, IL 60601\nUnited States of America'}]","[-87.626848, 41.886073]","[['6295630', '6255149', '6252001', '4896861', '4888671', '4887398']]",locality,1.0,active,2020-07-23 22:08:13+00:00,2020-09-03 22:31:21+00:00,,,"Harold Washington College, City College of Chicago",-87.626848,41.886073,holiday,in-person,not_estimated,False
2GH2XjUz9rXsGAr3rq,Spring Break,,2021-03-20 05:00:00+00:00,2021-03-29 04:59:59+00:00,America/Chicago,777599,academic,"['academic', 'holiday']",US,67,,,6801.0,"[{'entity_id': 'dZujRpmDZFJRjswYBjzatj', 'name': 'University of Chicago', 'type': 'venue', 'formatted_address': 'Chicago, IL 60637\nUnited States of America'}]","[-87.598296, 41.790797]","[['6295630', '6255149', '6252001', '4896861', '4888671', '4894404'], ['6295630', '6255149', '6252001', '4896861', '4888671', '4887398']]",locality,1.0,active,2020-07-23 21:40:14+00:00,2020-09-03 22:26:08+00:00,,,University of Chicago,-87.598296,41.790797,holiday,in-person,not_estimated,False
aAj3cP6jehPRQFtD4g,Spring Break,,2021-03-20 05:00:00+00:00,2021-03-29 04:59:59+00:00,America/Chicago,777599,academic,"['academic', 'holiday']",US,76,,,20195.0,"[{'entity_id': 'QJjfX3mJEReLU4USjyzyKc', 'name': 'University Of Illinois At Chicago', 'type': 'venue', 'formatted_address': '1200 West Harrison Street\nChicago, IL 60607\nUnited States of America'}]","[-87.658001, 41.87521]","[['6295630', '6255149', '6252001', '4896861', '4888671', '4887398']]",locality,1.0,active,2020-07-23 21:39:48+00:00,2020-09-03 22:23:56+00:00,,,University Of Illinois At Chicago,-87.658001,41.87521,holiday,in-person,not_estimated,False
dVCyYvohujDqjKBi6d,Spring Session,,2021-01-25 06:00:00+00:00,2021-05-15 04:59:59+00:00,America/Chicago,9500399,academic,"['academic', 'academic-session', 'online-session']",US,47,,,702.0,"[{'entity_id': 'cGTQDjm24PmvJL8nePCFcK', 'name': 'Columbia College Chicago', 'type': 'venue', 'formatted_address': '600 South Michigan Avenue\nChicago, IL 60605\nUnited States of America'}]","[-87.624444, 41.874226]","[['6295630', '6255149', '6252001', '4896861', '4888671', '4887398']]",locality,1.0,active,2020-07-23 22:08:35+00:00,2021-01-26 04:28:00+00:00,,,Columbia College Chicago,-87.624444,41.874226,academic-session,online-session,not_estimated,True
E3wLw52WkuBKoBhAcj,Spring Session,,2021-01-19 06:00:00+00:00,2021-05-08 04:59:59+00:00,America/Chicago,9413999,academic,"['academic', 'academic-session', 'hybrid-session']",US,52,,,1257.0,"[{'entity_id': 'qmgnxQEmGMxGuMKgJvjj4t', 'name': 'Illinois Institute of Technology', 'type': 'venue', 'formatted_address': '10 West 35th Street\nChicago, IL 60616\nUnited States of America'}]","[-87.627006, 41.834873]","[['6295630', '6255149', '6252001', '4896861', '4888671', '4906683'], ['6295630', '6255149', '6252001', '4896861', '4888671', '4887398']]",locality,1.0,active,2020-07-23 22:11:12+00:00,2021-01-26 04:28:28+00:00,,,Illinois Institute of Technology,-87.627006,41.834873,academic-session,hybrid-session,not_estimated,True
vGh7rHkV3EYayhKoQQ,Spring Session,,2021-01-19 06:00:00+00:00,2021-05-15 04:59:59+00:00,America/Chicago,10018799,academic,"['academic', 'academic-session', 'online-session']",US,46,,,605.0,"[{'entity_id': 'SLPHTKkiJKhB5x2pRkXWzc', 'name': 'Harold Washington College, City College of Chicago', 'type': 'venue', 'formatted_address': '30 East Lake Street\nChicago, IL 60601\nUnited States of America'}]","[-87.626848, 41.886073]","[['6295630', '6255149', '6252001', '4896861', '4888671', '4887398']]",locality,1.0,active,2020-07-23 22:08:12+00:00,2021-01-26 04:28:12+00:00,,,"Harold Washington College, City College of Chicago",-87.626848,41.886073,academic-session,online-session,not_estimated,True
p54kyGWAQXwBTyH8Xe,Spring Session,,2021-01-11 06:00:00+00:00,2021-05-01 04:59:59+00:00,America/Chicago,9500399,academic,"['academic', 'academic-session', 'online-session']",US,56,,,2020.0,"[{'entity_id': 'QJjfX3mJEReLU4USjyzyKc', 'name': 'University Of Illinois At Chicago', 'type': 'venue', 'formatted_address': '1200 West Harrison Street\nChicago, IL 60607\nUnited States of America'}]","[-87.658001, 41.87521]","[['6295630', '6255149', '6252001', '4896861', '4888671', '4887398']]",locality,1.0,active,2020-07-23 21:39:47+00:00,2021-01-26 04:15:02+00:00,,,University Of Illinois At Chicago,-87.658001,41.87521,academic-session,online-session,not_estimated,True
SUyEUCRbFJAkvGDtJf,Winter Session,,2021-01-04 06:00:00+00:00,2021-01-25 05:59:59+00:00,America/Chicago,1814399,academic,"['academic', 'academic-session', 'estimated', 'online-session']",US,36,,,210.0,"[{'entity_id': 'cGTQDjm24PmvJL8nePCFcK', 'name': 'Columbia College Chicago', 'type': 'venue', 'formatted_address': '600 South Michigan Avenue\nChicago, IL 60605\nUnited States of America'}]","[-87.624444, 41.874226]","[['6295630', '6255149', '6252001', '4896861', '4888671', '4887398']]",locality,1.0,active,2020-07-23 22:08:34+00:00,2021-03-01 21:09:05+00:00,,,Columbia College Chicago,-87.624444,41.874226,academic-session,online-session,estimated,True
mZDdS7aXUUKiJiWxad,Winter Session,,2021-01-04 06:00:00+00:00,2021-03-20 04:59:59+00:00,America/Chicago,6476399,academic,"['academic', 'academic-session', 'hybrid-session']",US,59,,,2720.0,"[{'entity_id': 'dZujRpmDZFJRjswYBjzatj', 'name': 'University of Chicago', 'type': 'venue', 'formatted_address': 'Chicago, IL 60637\nUnited States of America'}]","[-87.598296, 41.790797]","[['6295630', '6255149', '6252001', '4896861', '4888671', '4894404'], ['6295630', '6255149', '6252001', '4896861', '4888671', '4887398']]",locality,1.0,active,2020-07-23 21:40:13+00:00,2020-10-21 02:12:28+00:00,,,University of Chicago,-87.598296,41.790797,academic-session,hybrid-session,not_estimated,True
LJ28T4J8VxYkdEge3c,Winter Break,,2020-12-19 06:00:00+00:00,2021-01-25 05:59:59+00:00,America/Chicago,3196799,academic,"['academic', 'holiday']",US,67,,,6708.0,"[{'entity_id': 'cGTQDjm24PmvJL8nePCFcK', 'name': 'Columbia College Chicago', 'type': 'venue', 'formatted_address': '600 South Michigan Avenue\nChicago, IL 60605\nUnited States of America'}]","[-87.624444, 41.874226]","[['6295630', '6255149', '6252001', '4896861', '4888671', '4887398']]",locality,1.0,active,2020-07-23 22:08:33+00:00,2020-09-03 22:20:36+00:00,,,Columbia College Chicago,-87.624444,41.874226,holiday,in-person,not_estimated,False
QwYBmMusARpdN66RaG,Winter Break,,2020-12-12 06:00:00+00:00,2021-01-04 05:59:59+00:00,America/Chicago,1987199,academic,"['academic', 'holiday']",US,67,,,6801.0,"[{'entity_id': 'dZujRpmDZFJRjswYBjzatj', 'name': 'University of Chicago', 'type': 'venue', 'formatted_address': 'Chicago, IL 60637\nUnited States of America'}]","[-87.598296, 41.790797]","[['6295630', '6255149', '6252001', '4896861', '4888671', '4894404'], ['6295630', '6255149', '6252001', '4896861', '4888671', '4887398']]",locality,1.0,active,2020-07-23 21:40:12+00:00,2020-09-03 22:29:02+00:00,,,University of Chicago,-87.598296,41.790797,holiday,in-person,not_estimated,False
SvwzkNPdqPiKiUPbNi,Winter Break,,2020-12-12 06:00:00+00:00,2021-01-11 05:59:59+00:00,America/Chicago,2591999,academic,"['academic', 'holiday']",US,60,,,3143.0,"[{'entity_id': 'qmgnxQEmGMxGuMKgJvjj4t', 'name': 'Illinois Institute of Technology', 'type': 'venue', 'formatted_address': '10 West 35th Street\nChicago, IL 60616\nUnited States of America'}]","[-87.627006, 41.834873]","[['6295630', '6255149', '6252001', '4896861', '4888671', '4906683'], ['6295630', '6255149', '6252001', '4896861', '4888671', '4887398']]",locality,1.0,active,2020-07-23 22:11:11+00:00,2020-09-03 22:25:59+00:00,,,Illinois Institute of Technology,-87.627006,41.834873,holiday,in-person,not_estimated,False
cnHcoPrtg33FWUXbwW,Winter Break,,2020-12-12 06:00:00+00:00,2021-01-11 05:59:59+00:00,America/Chicago,2591999,academic,"['academic', 'holiday']",US,76,,,20195.0,"[{'entity_id': 'QJjfX3mJEReLU4USjyzyKc', 'name': 'University Of Illinois At Chicago', 'type': 'venue', 'formatted_address': '1200 West Harrison Street\nChicago, IL 60607\nUnited States of America'}]","[-87.658001, 41.87521]","[['6295630', '6255149', '6252001', '4896861', '4888671', '4887398']]",locality,1.0,active,2020-07-23 21:39:46+00:00,2020-09-03 22:15:10+00:00,,,University Of Illinois At Chicago,-87.658001,41.87521,holiday,in-person,not_estimated,False
gJrkf9r546vgBKRwM4,Winter Break,,2020-12-12 06:00:00+00:00,2021-01-19 05:59:59+00:00,America/Chicago,3283199,academic,"['academic', 'holiday']",US,65,,,5836.0,"[{'entity_id': 'SLPHTKkiJKhB5x2pRkXWzc', 'name': 'Harold Washington College, City College of Chicago', 'type': 'venue', 'formatted_address': '30 East Lake Street\nChicago, IL 60601\nUnited States of America'}]","[-87.626848, 41.886073]","[['6295630', '6255149', '6252001', '4896861', '4888671', '4887398']]",locality,1.0,active,2020-07-23 22:08:11+00:00,2020-09-03 22:13:47+00:00,,,"Harold Washington College, City College of Chicago",-87.626848,41.886073,holiday,in-person,not_estimated,False
DGSzxjAB2Lm7G8KfgY,Fall Exams,,2020-12-07 06:00:00+00:00,2020-12-12 05:59:59+00:00,America/Chicago,431999,academic,"['academic', 'exam', 'online-session']",US,56,,,2020.0,"[{'entity_id': 'QJjfX3mJEReLU4USjyzyKc', 'name': 'University Of Illinois At Chicago', 'type': 'venue', 'formatted_address': '1200 West Harrison Street\nChicago, IL 60607\nUnited States of America'}]","[-87.658001, 41.87521]","[['6295630', '6255149', '6252001', '4896861', '4888671', '4887398']]",locality,1.0,active,2020-07-23 21:39:45+00:00,2020-10-21 01:56:35+00:00,,,University Of Illinois At Chicago,-87.658001,41.87521,exam,online-session,not_estimated,True
DkrNdYQJ2itajnEo4d,Fall Exams,,2020-12-07 06:00:00+00:00,2020-12-12 05:59:59+00:00,America/Chicago,431999,academic,"['academic', 'exam', 'hybrid-session']",US,52,,,1257.0,"[{'entity_id': 'qmgnxQEmGMxGuMKgJvjj4t', 'name': 'Illinois Institute of Technology', 'type': 'venue', 'formatted_address': '10 West 35th Street\nChicago, IL 60616\nUnited States of America'}]","[-87.627006, 41.834873]","[['6295630', '6255149', '6252001', '4896861', '4888671', '4906683'], ['6295630', '6255149', '6252001', '4896861', '4888671', '4887398']]",locality,1.0,active,2020-07-23 22:11:11+00:00,2020-10-21 02:05:01+00:00,,,Illinois Institute of Technology,-87.627006,41.834873,exam,hybrid-session,not_estimated,True
68WLUy6G4DhuFegPJQ,Thanksgiving Break,,2020-11-26 06:00:00+00:00,2020-11-30 05:59:59+00:00,America/Chicago,345599,academic,"['academic', 'holiday']",US,65,,,5836.0,"[{'entity_id': 'SLPHTKkiJKhB5x2pRkXWzc', 'name': 'Harold Washington College, City College of Chicago', 'type': 'venue', 'formatted_address': '30 East Lake Street\nChicago, IL 60601\nUnited States of America'}]","[-87.626848, 41.886073]","[['6295630', '6255149', '6252001', '4896861', '4888671', '4887398']]",locality,1.0,active,2020-07-23 22:08:10+00:00,2020-09-03 22:18:09+00:00,,,"Harold Washington College, City College of Chicago",-87.626848,41.886073,holiday,in-person,not_estimated,False
hUTyGyqyhoufanf2J4,Thanksgiving Break,,2020-11-26 06:00:00+00:00,2020-11-30 05:59:59+00:00,America/Chicago,345599,academic,"['academic', 'holiday']",US,76,,,20195.0,"[{'entity_id': 'QJjfX3mJEReLU4USjyzyKc', 'name': 'University Of Illinois At Chicago', 'type': 'venue', 'formatted_address': '1200 West Harrison Street\nChicago, IL 60607\nUnited States of America'}]","[-87.658001, 41.87521]","[['6295630', '6255149', '6252001', '4896861', '4888671', '4887398']]",locality,1.0,active,2020-07-23 21:39:44+00:00,2020-09-03 22:21:53+00:00,,,University Of Illinois At Chicago,-87.658001,41.87521,holiday,in-person,not_estimated,False
7qXbxYw543TscSnNwV,Thanksgiving Break,,2020-11-25 06:00:00+00:00,2020-11-30 05:59:59+00:00,America/Chicago,431999,academic,"['academic', 'holiday']",US,67,,,6708.0,"[{'entity_id': 'cGTQDjm24PmvJL8nePCFcK', 'name': 'Columbia College Chicago', 'type': 'venue', 'formatted_address': '600 South Michigan Avenue\nChicago, IL 60605\nUnited States of America'}]","[-87.624444, 41.874226]","[['6295630', '6255149', '6252001', '4896861', '4888671', '4887398']]",locality,1.0,active,2020-07-23 22:08:33+00:00,2020-09-03 22:32:58+00:00,,,Columbia College Chicago,-87.624444,41.874226,holiday,in-person,not_estimated,False
AUdTvPsE7UMxqET8rt,Thanksgiving Break,,2020-11-25 06:00:00+00:00,2020-11-30 05:59:59+00:00,America/Chicago,431999,academic,"['academic', 'holiday']",US,60,,,3143.0,"[{'entity_id': 'qmgnxQEmGMxGuMKgJvjj4t', 'name': 'Illinois Institute of Technology', 'type': 'venue', 'formatted_address': '10 West 35th Street\nChicago, IL 60616\nUnited States of America'}]","[-87.627006, 41.834873]","[['6295630', '6255149', '6252001', '4896861', '4888671', '4906683'], ['6295630', '6255149', '6252001', '4896861', '4888671', '4887398']]",locality,1.0,active,2020-07-23 22:11:10+00:00,2020-09-03 22:15:31+00:00,,,Illinois Institute of Technology,-87.627006,41.834873,holiday,in-person,not_estimated,False
zxNVNgNgeCeq2seQGX,Thanksgiving Break,,2020-11-21 06:00:00+00:00,2020-11-30 05:59:59+00:00,America/Chicago,777599,academic,"['academic', 'holiday']",US,67,,,6801.0,"[{'entity_id': 'dZujRpmDZFJRjswYBjzatj', 'name': 'University of Chicago', 'type': 'venue', 'formatted_address': 'Chicago, IL 60637\nUnited States of America'}]","[-87.598296, 41.790797]","[['6295630', '6255149', '6252001', '4896861', '4888671', '4894404'], ['6295630', '6255149', '6252001', '4896861', '4888671', '4887398']]",locality,1.0,active,2020-07-23 21:40:11+00:00,2020-09-03 22:18:14+00:00,,,University of Chicago,-87.598296,41.790797,holiday,in-person,not_estimated,False
pXckNoMKsmvmHyh3DX,Fall Break,,2020-10-10 05:00:00+00:00,2020-10-13 04:59:59+00:00,America/Chicago,259199,academic,"['academic', 'holiday']",US,60,,,3143.0,"[{'entity_id': 'qmgnxQEmGMxGuMKgJvjj4t', 'name': 'Illinois Institute of Technology', 'type': 'venue', 'formatted_address': '10 West 35th Street\nChicago, IL 60616\nUnited States of America'}]","[-87.627006, 41.834873]","[['6295630', '6255149', '6252001', '4896861', '4888671', '4906683'], ['6295630', '6255149', '6252001', '4896861', '4888671', '4887398']]",locality,1.0,active,2020-07-23 22:11:08+00:00,2020-09-03 22:17:05+00:00,,,Illinois Institute of Technology,-87.627006,41.834873,holiday,in-person,not_estimated,False
fQ3pVS7q59VM7A6j7M,Fall Session,,2020-09-29 05:00:00+00:00,2020-12-12 05:59:59+00:00,America/Chicago,6397199,academic,"['academic', 'academic-session', 'hybrid-session']",US,59,,,2720.0,"[{'entity_id': 'dZujRpmDZFJRjswYBjzatj', 'name': 'University of Chicago', 'type': 'venue', 'formatted_address': 'Chicago, IL 60637\nUnited States of America'}]","[-87.598296, 41.790797]","[['6295630', '6255149', '6252001', '4896861', '4888671', '4894404'], ['6295630', '6255149', '6252001', '4896861', '4888671', '4887398']]",locality,1.0,active,2020-07-23 21:40:10+00:00,2020-10-21 02:11:08+00:00,,,University of Chicago,-87.598296,41.790797,academic-session,hybrid-session,not_estimated,True
P58RUCPJ8R5B3YBoAE,Homecoming,,2020-09-25 05:00:00+00:00,2020-09-27 04:59:59+00:00,America/Chicago,172799,academic,"['academic', 'social']",US,0,,,0.0,"[{'entity_id': 'qmgnxQEmGMxGuMKgJvjj4t', 'name': 'Illinois Institute of Technology', 'type': 'venue', 'formatted_address': '10 West 35th Street\nChicago, IL 60616\nUnited States of America'}]","[-87.627006, 41.834873]","[['6295630', '6255149', '6252001', '4896861', '4888671', '4906683'], ['6295630', '6255149', '6252001', '4896861', '4888671', '4887398']]",locality,1.0,active,2020-07-23 22:11:09+00:00,2020-07-23 22:13:23+00:00,,,Illinois Institute of Technology,-87.627006,41.834873,social,in-person,not_estimated,True
tbcnjiUrhHuHFvNfQg,Fall Session,,2020-09-08 05:00:00+00:00,2020-12-19 05:59:59+00:00,America/Chicago,8816399,academic,"['academic', 'academic-session', 'online-session']",US,47,,,702.0,"[{'entity_id': 'cGTQDjm24PmvJL8nePCFcK', 'name': 'Columbia College Chicago', 'type': 'venue', 'formatted_address': '600 South Michigan Avenue\nChicago, IL 60605\nUnited States of America'}]","[-87.624444, 41.874226]","[['6295630', '6255149', '6252001', '4896861', '4888671', '4887398']]",locality,1.0,active,2020-07-23 22:08:32+00:00,2020-10-21 01:55:12+00:00,,,Columbia College Chicago,-87.624444,41.874226,academic-session,online-session,not_estimated,True
gUSzRQgxhgWDosHsUJ,Fall Break,,2020-08-29 05:00:00+00:00,2020-09-29 04:59:59+00:00,America/Chicago,2678399,academic,"['academic', 'holiday']",US,67,,,6801.0,"[{'entity_id': 'dZujRpmDZFJRjswYBjzatj', 'name': 'University of Chicago', 'type': 'venue', 'formatted_address': 'Chicago, IL 60637\nUnited States of America'}]","[-87.598296, 41.790797]","[['6295630', '6255149', '6252001', '4896861', '4888671', '4894404'], ['6295630', '6255149', '6252001', '4896861', '4888671', '4887398']]",locality,1.0,active,2020-07-23 21:40:09+00:00,2020-09-03 22:16:08+00:00,,,University of Chicago,-87.598296,41.790797,holiday,in-person,not_estimated,False
SS3BpXQZ6kyB6xStut,Fall Session,,2020-08-24 05:00:00+00:00,2020-12-05 05:59:59+00:00,America/Chicago,8902799,academic,"['academic', 'academic-session', 'online-session']",US,56,,,2020.0,"[{'entity_id': 'QJjfX3mJEReLU4USjyzyKc', 'name': 'University Of Illinois At Chicago', 'type': 'venue', 'formatted_address': '1200 West Harrison Street\nChicago, IL 60607\nUnited States of America'}]","[-87.658001, 41.87521]","[['6295630', '6255149', '6252001', '4896861', '4888671', '4887398']]",locality,1.0,active,2020-07-23 21:39:43+00:00,2020-10-21 01:56:34+00:00,,,University Of Illinois At Chicago,-87.658001,41.87521,academic-session,online-session,not_estimated,True
rkPa8BrBT5xu429BCA,Fall Session,,2020-08-24 05:00:00+00:00,2020-12-05 05:59:59+00:00,America/Chicago,8902799,academic,"['academic', 'academic-session', 'hybrid-session']",US,52,,,1257.0,"[{'entity_id': 'qmgnxQEmGMxGuMKgJvjj4t', 'name': 'Illinois Institute of Technology', 'type': 'venue', 'formatted_address': '10 West 35th Street\nChicago, IL 60616\nUnited States of America'}]","[-87.627006, 41.834873]","[['6295630', '6255149', '6252001', '4896861', '4888671', '4906683'], ['6295630', '6255149', '6252001', '4896861', '4888671', '4887398']]",locality,1.0,active,2020-07-23 22:11:07+00:00,2020-10-21 02:12:04+00:00,,,Illinois Institute of Technology,-87.627006,41.834873,academic-session,hybrid-session,not_estimated,True
wVHxwjdEkCpUB2Pzpa,Fall Session,,2020-08-24 05:00:00+00:00,2020-12-12 05:59:59+00:00,America/Chicago,9507599,academic,"['academic', 'academic-session', 'online-session']",US,46,,,605.0,"[{'entity_id': 'SLPHTKkiJKhB5x2pRkXWzc', 'name': 'Harold Washington College, City College of Chicago', 'type': 'venue', 'formatted_address': '30 East Lake Street\nChicago, IL 60601\nUnited States of America'}]","[-87.626848, 41.886073]","[['6295630', '6255149', '6252001', '4896861', '4888671', '4887398']]",locality,1.0,active,2020-07-23 22:08:10+00:00,2020-10-21 01:59:47+00:00,,,"Harold Washington College, City College of Chicago",-87.626848,41.886073,academic-session,online-session,not_estimated,True
Qs7mp3QVxhUxMJPVgu,Summer Session,,2020-06-22 05:00:00+00:00,2020-08-29 04:59:59+00:00,America/Chicago,5875199,academic,"['academic', 'academic-session']",US,67,,,6801.0,"[{'entity_id': 'dZujRpmDZFJRjswYBjzatj', 'name': 'University of Chicago', 'type': 'venue', 'formatted_address': 'Chicago, IL 60637\nUnited States of America'}]","[-87.598296, 41.790797]","[['6295630', '6255149', '6252001', '4896861', '4888671', '4894404'], ['6295630', '6255149', '6252001', '4896861', '4888671', '4887398']]",locality,1.0,active,2020-07-23 21:40:08+00:00,2020-09-03 22:13:19+00:00,,,University of Chicago,-87.598296,41.790797,academic-session,in-person,not_estimated,True
ypXPMjLQCS8aHs4gtN,Summer Break,,2020-06-13 05:00:00+00:00,2020-06-22 04:59:59+00:00,America/Chicago,777599,academic,"['academic', 'holiday']",US,67,,,6801.0,"[{'entity_id': 'dZujRpmDZFJRjswYBjzatj', 'name': 'University of Chicago', 'type': 'venue', 'formatted_address': 'Chicago, IL 60637\nUnited States of America'}]","[-87.598296, 41.790797]","[['6295630', '6255149', '6252001', '4896861', '4888671', '4894404'], ['6295630', '6255149', '6252001', '4896861', '4888671', '4887398']]",locality,1.0,active,2020-07-23 21:40:07+00:00,2020-09-03 22:28:44+00:00,,,University of Chicago,-87.598296,41.790797,holiday,in-person,not_estimated,False
mHo2rDJJbHvHmr4mUT,Summer Session,,2020-06-03 05:00:00+00:00,2020-07-26 04:59:59+00:00,America/Chicago,4579199,academic,"['academic', 'academic-session']",US,65,,,5836.0,"[{'entity_id': 'SLPHTKkiJKhB5x2pRkXWzc', 'name': 'Harold Washington College, City College of Chicago', 'type': 'venue', 'formatted_address': '30 East Lake Street\nChicago, IL 60601\nUnited States of America'}]","[-87.626848, 41.886073]","[['6295630', '6255149', '6252001', '4896861', '4888671', '4887398']]",locality,1.0,active,2020-07-23 22:08:08+00:00,2020-09-03 22:26:53+00:00,,,"Harold Washington College, City College of Chicago",-87.626848,41.886073,academic-session,in-person,not_estimated,True
CLZo7RX3CpUh5KEY34,Summer Session,,2020-06-01 05:00:00+00:00,2020-08-23 04:59:59+00:00,America/Chicago,7171199,academic,"['academic', 'academic-session']",US,56,,,2012.0,"[{'entity_id': 'cGTQDjm24PmvJL8nePCFcK', 'name': 'Columbia College Chicago', 'type': 'venue', 'formatted_address': '600 South Michigan Avenue\nChicago, IL 60605\nUnited States of America'}]","[-87.624444, 41.874226]","[['6295630', '6255149', '6252001', '4896861', '4888671', '4887398']]",locality,1.0,active,2020-07-23 22:08:30+00:00,2020-09-03 22:32:21+00:00,,,Columbia College Chicago,-87.624444,41.874226,academic-session,in-person,not_estimated,True
HM2vocAxj72fK73xxf,Summer Session,,2020-05-18 05:00:00+00:00,2020-08-09 04:59:59+00:00,America/Chicago,7171199,academic,"['academic', 'academic-session']",US,49,,,942.0,"[{'entity_id': 'qmgnxQEmGMxGuMKgJvjj4t', 'name': 'Illinois Institute of Technology', 'type': 'venue', 'formatted_address': '10 West 35th Street\nChicago, IL 60616\nUnited States of America'}]","[-87.627006, 41.834873]","[['6295630', '6255149', '6252001', '4896861', '4888671', '4906683'], ['6295630', '6255149', '6252001', '4896861', '4888671', '4887398']]",locality,1.0,active,2020-07-23 22:11:06+00:00,2020-09-03 22:31:28+00:00,,,Illinois Institute of Technology,-87.627006,41.834873,academic-session,in-person,not_estimated,True
ZuJMqVSntjhbwdRQvP,Summer Session,,2020-05-18 05:00:00+00:00,2020-08-08 04:59:59+00:00,America/Chicago,7084799,academic,"['academic', 'academic-session']",US,66,,,6058.0,"[{'entity_id': 'QJjfX3mJEReLU4USjyzyKc', 'name': 'University Of Illinois At Chicago', 'type': 'venue', 'formatted_address': '1200 West Harrison Street\nChicago, IL 60607\nUnited States of America'}]","[-87.658001, 41.87521]","[['6295630', '6255149', '6252001', '4896861', '4888671', '4887398']]",locality,1.0,active,2020-07-23 21:39:42+00:00,2020-09-03 22:16:01+00:00,,,University Of Illinois At Chicago,-87.658001,41.87521,academic-session,in-person,not_estimated,True
Ys3ZXfgykuSnmpj8qH,Summer Break,,2020-05-16 05:00:00+00:00,2020-09-08 04:59:59+00:00,America/Chicago,9935999,academic,"['academic', 'holiday']",US,67,,,6708.0,"[{'entity_id': 'cGTQDjm24PmvJL8nePCFcK', 'name': 'Columbia College Chicago', 'type': 'venue', 'formatted_address': '600 South Michigan Avenue\nChicago, IL 60605\nUnited States of America'}]","[-87.624444, 41.874226]","[['6295630', '6255149', '6252001', '4896861', '4888671', '4887398']]",locality,1.0,active,2020-07-23 22:08:31+00:00,2020-09-03 22:16:07+00:00,,,Columbia College Chicago,-87.624444,41.874226,holiday,in-person,not_estimated,False
P5JppCS2TjNZCBtAmb,Summer Break,,2020-05-09 05:00:00+00:00,2020-08-24 04:59:59+00:00,America/Chicago,9244799,academic,"['academic', 'holiday']",US,60,,,3143.0,"[{'entity_id': 'qmgnxQEmGMxGuMKgJvjj4t', 'name': 'Illinois Institute of Technology', 'type': 'venue', 'formatted_address': '10 West 35th Street\nChicago, IL 60616\nUnited States of America'}]","[-87.627006, 41.834873]","[['6295630', '6255149', '6252001', '4896861', '4888671', '4906683'], ['6295630', '6255149', '6252001', '4896861', '4888671', '4887398']]",locality,1.0,active,2020-07-23 22:11:06+00:00,2020-09-03 22:18:35+00:00,,,Illinois Institute of Technology,-87.627006,41.834873,holiday,in-person,not_estimated,False
bWrbPd3z7AvAK7Gu3D,Summer Break,,2020-05-09 05:00:00+00:00,2020-08-24 04:59:59+00:00,America/Chicago,9244799,academic,"['academic', 'holiday']",US,65,,,5836.0,"[{'entity_id': 'SLPHTKkiJKhB5x2pRkXWzc', 'name': 'Harold Washington College, City College of Chicago', 'type': 'venue', 'formatted_address': '30 East Lake Street\nChicago, IL 60601\nUnited States of America'}]","[-87.626848, 41.886073]","[['6295630', '6255149', '6252001', '4896861', '4888671', '4887398']]",locality,1.0,active,2020-07-23 22:08:09+00:00,2020-09-03 22:15:29+00:00,,,"Harold Washington College, City College of Chicago",-87.626848,41.886073,holiday,in-person,not_estimated,False
gVejRPHW3iiMDgG3N6,Summer Break,,2020-05-09 05:00:00+00:00,2020-08-24 04:59:59+00:00,America/Chicago,9244799,academic,"['academic', 'holiday']",US,76,,,20195.0,"[{'entity_id': 'QJjfX3mJEReLU4USjyzyKc', 'name': 'University Of Illinois At Chicago', 'type': 'venue', 'formatted_address': '1200 West Harrison Street\nChicago, IL 60607\nUnited States of America'}]","[-87.658001, 41.87521]","[['6295630', '6255149', '6252001', '4896861', '4888671', '4887398']]",locality,1.0,active,2020-07-23 21:39:42+00:00,2020-09-03 22:20:13+00:00,,,University Of Illinois At Chicago,-87.658001,41.87521,holiday,in-person,not_estimated,False
4i9B5vUM62REpSzbgb,Spring Exams,,2020-05-04 05:00:00+00:00,2020-05-09 04:59:59+00:00,America/Chicago,431999,academic,"['academic', 'exam']",US,60,,,3143.0,"[{'entity_id': 'qmgnxQEmGMxGuMKgJvjj4t', 'name': 'Illinois Institute of Technology', 'type': 'venue', 'formatted_address': '10 West 35th Street\nChicago, IL 60616\nUnited States of America'}]","[-87.627006, 41.834873]","[['6295630', '6255149', '6252001', '4896861', '4888671', '4906683'], ['6295630', '6255149', '6252001', '4896861', '4888671', '4887398']]",locality,1.0,active,2020-07-23 22:11:04+00:00,2020-09-03 22:20:31+00:00,,,Illinois Institute of Technology,-87.627006,41.834873,exam,in-person,not_estimated,True
KQA5KQE8tQtjFA7S76,Spring Exams,,2020-05-04 05:00:00+00:00,2020-05-09 04:59:59+00:00,America/Chicago,431999,academic,"['academic', 'exam']",US,76,,,20195.0,"[{'entity_id': 'QJjfX3mJEReLU4USjyzyKc', 'name': 'University Of Illinois At Chicago', 'type': 'venue', 'formatted_address': '1200 West Harrison Street\nChicago, IL 60607\nUnited States of America'}]","[-87.658001, 41.87521]","[['6295630', '6255149', '6252001', '4896861', '4888671', '4887398']]",locality,1.0,active,2020-07-23 21:39:39+00:00,2020-09-03 22:21:16+00:00,,,University Of Illinois At Chicago,-87.658001,41.87521,exam,in-person,not_estimated,True
a6FuBshrKATAwq4Hc9,Spring Session,,2020-04-06 05:00:00+00:00,2020-06-13 04:59:59+00:00,America/Chicago,5875199,academic,"['academic', 'academic-session']",US,67,,,6801.0,"[{'entity_id': 'dZujRpmDZFJRjswYBjzatj', 'name': 'University of Chicago', 'type': 'venue', 'formatted_address': 'Chicago, IL 60637\nUnited States of America'}]","[-87.598296, 41.790797]","[['6295630', '6255149', '6252001', '4896861', '4888671', '4894404'], ['6295630', '6255149', '6252001', '4896861', '4888671', '4887398']]",locality,1.0,active,2020-07-23 21:40:06+00:00,2020-09-03 22:24:28+00:00,,,University of Chicago,-87.598296,41.790797,academic-session,in-person,not_estimated,True
BtixTXWFjLCAoSbtQ4,Spring Break,,2020-04-04 05:00:00+00:00,2020-04-13 04:59:59+00:00,America/Chicago,777599,academic,"['academic', 'holiday']",US,65,,,5836.0,"[{'entity_id': 'SLPHTKkiJKhB5x2pRkXWzc', 'name': 'Harold Washington College, City College of Chicago', 'type': 'venue', 'formatted_address': '30 East Lake Street\nChicago, IL 60601\nUnited States of America'}]","[-87.626848, 41.886073]","[['6295630', '6255149', '6252001', '4896861', '4888671', '4887398']]",locality,1.0,active,2020-07-23 22:08:06+00:00,2020-09-03 22:31:34+00:00,,,"Harold Washington College, City College of Chicago",-87.626848,41.886073,holiday,in-person,not_estimated,False
Q67tivEn5fxGpwcNc6,Spring Break,,2020-03-28 05:00:00+00:00,2020-04-06 04:59:59+00:00,America/Chicago,777599,academic,"['academic', 'holiday']",US,67,,,6708.0,"[{'entity_id': 'cGTQDjm24PmvJL8nePCFcK', 'name': 'Columbia College Chicago', 'type': 'venue', 'formatted_address': '600 South Michigan Avenue\nChicago, IL 60605\nUnited States of America'}]","[-87.624444, 41.874226]","[['6295630', '6255149', '6252001', '4896861', '4888671', '4887398']]",locality,1.0,active,2020-07-23 22:08:29+00:00,2020-09-03 22:23:05+00:00,,,Columbia College Chicago,-87.624444,41.874226,holiday,in-person,not_estimated,False
euBHR2fX4TLixZojzr,Spring Break,,2020-03-21 05:00:00+00:00,2020-04-06 04:59:59+00:00,America/Chicago,1382399,academic,"['academic', 'holiday']",US,67,,,6801.0,"[{'entity_id': 'dZujRpmDZFJRjswYBjzatj', 'name': 'University of Chicago', 'type': 'venue', 'formatted_address': 'Chicago, IL 60637\nUnited States of America'}]","[-87.598296, 41.790797]","[['6295630', '6255149', '6252001', '4896861', '4888671', '4894404'], ['6295630', '6255149', '6252001', '4896861', '4888671', '4887398']]",locality,1.0,active,2020-07-23 21:40:05+00:00,2020-09-03 22:20:44+00:00,,,University of Chicago,-87.598296,41.790797,holiday,in-person,not_estimated,False
2aVVykr9LPtsboHJtG,Spring Break,,2020-03-14 05:00:00+00:00,2020-03-30 04:59:59+00:00,America/Chicago,1382399,academic,"['academic', 'holiday']",US,76,,,20195.0,"[{'entity_id': 'QJjfX3mJEReLU4USjyzyKc', 'name': 'University Of Illinois At Chicago', 'type': 'venue', 'formatted_address': '1200 West Harrison Street\nChicago, IL 60607\nUnited States of America'}]","[-87.658001, 41.87521]","[['6295630', '6255149', '6252001', '4896861', '4888671', '4887398']]",locality,1.0,active,2020-07-23 21:39:38+00:00,2020-09-03 22:30:02+00:00,,,University Of Illinois At Chicago,-87.658001,41.87521,holiday,in-person,not_estimated,False
L8inCZY78FdJCF6xgA,Spring Break,,2020-03-14 05:00:00+00:00,2020-03-23 04:59:59+00:00,America/Chicago,777599,academic,"['academic', 'holiday']",US,60,,,3143.0,"[{'entity_id': 'qmgnxQEmGMxGuMKgJvjj4t', 'name': 'Illinois Institute of Technology', 'type': 'venue', 'formatted_address': '10 West 35th Street\nChicago, IL 60616\nUnited States of America'}]","[-87.627006, 41.834873]","[['6295630', '6255149', '6252001', '4896861', '4888671', '4906683'], ['6295630', '6255149', '6252001', '4896861', '4888671', '4887398']]",locality,1.0,active,2020-07-23 22:11:03+00:00,2020-09-03 22:28:52+00:00,,,Illinois Institute of Technology,-87.627006,41.834873,holiday,in-person,not_estimated,False
5P9a8otqiUK7MmfH7J,COVID-19 Class Cancellation,All classes being conducted remotely / suspended in response to COVID-19,2020-03-11 05:00:00+00:00,2020-08-24 04:59:59+00:00,America/Chicago,14342399,academic,"['academic', 'holiday']",US,65,,,5836.0,"[{'entity_id': 'SLPHTKkiJKhB5x2pRkXWzc', 'name': 'Harold Washington College, City College of Chicago', 'type': 'venue', 'formatted_address': '30 East Lake Street\nChicago, IL 60601\nUnited States of America'}]","[-87.626848, 41.886073]","[['6295630', '6255149', '6252001', '4896861', '4888671', '4887398']]",locality,1.0,active,2020-07-23 20:51:23+00:00,2020-09-03 22:16:26+00:00,,,"Harold Washington College, City College of Chicago",-87.626848,41.886073,holiday,in-person,not_estimated,False
NjGnDp2Y6TyMAzuSu5,COVID-19 Class Cancellation,All classes being conducted remotely / suspended in response to COVID-19,2020-03-11 05:00:00+00:00,2020-06-22 04:59:59+00:00,America/Chicago,8899199,academic,"['academic', 'holiday']",US,67,,,6801.0,"[{'entity_id': 'dZujRpmDZFJRjswYBjzatj', 'name': 'University of Chicago', 'type': 'venue', 'formatted_address': 'Chicago, IL 60637\nUnited States of America'}]","[-87.598296, 41.790797]","[['6295630', '6255149', '6252001', '4896861', '4888671', '4894404'], ['6295630', '6255149', '6252001', '4896861', '4888671', '4887398']]",locality,1.0,active,2020-07-23 20:51:13+00:00,2020-09-03 22:19:26+00:00,,,University of Chicago,-87.598296,41.790797,holiday,in-person,not_estimated,False
VVga5RBfrYwVv73WtN,COVID-19 Class Cancellation,All classes being conducted remotely / suspended in response to COVID-19,2020-03-11 05:00:00+00:00,2020-08-24 04:59:59+00:00,America/Chicago,14342399,academic,"['academic', 'holiday']",US,60,,,3143.0,"[{'entity_id': 'qmgnxQEmGMxGuMKgJvjj4t', 'name': 'Illinois Institute of Technology', 'type': 'venue', 'formatted_address': '10 West 35th Street\nChicago, IL 60616\nUnited States of America'}]","[-87.627006, 41.834873]","[['6295630', '6255149', '6252001', '4896861', '4888671', '4906683'], ['6295630', '6255149', '6252001', '4896861', '4888671', '4887398']]",locality,1.0,active,2020-07-23 20:51:29+00:00,2020-09-03 22:20:19+00:00,,,Illinois Institute of Technology,-87.627006,41.834873,holiday,in-person,not_estimated,False
jPHp4KJ8CUuPmeYn6g,COVID-19 Class Cancellation,All classes being conducted remotely / suspended in response to COVID-19,2020-03-11 05:00:00+00:00,2020-08-24 04:59:59+00:00,America/Chicago,14342399,academic,"['academic', 'holiday']",US,76,,,20195.0,"[{'entity_id': 'QJjfX3mJEReLU4USjyzyKc', 'name': 'University Of Illinois At Chicago', 'type': 'venue', 'formatted_address': '1200 West Harrison Street\nChicago, IL 60607\nUnited States of America'}]","[-87.658001, 41.87521]","[['6295630', '6255149', '6252001', '4896861', '4888671', '4887398']]",locality,1.0,active,2020-07-23 20:51:13+00:00,2020-09-03 22:21:17+00:00,,,University Of Illinois At Chicago,-87.658001,41.87521,holiday,in-person,not_estimated,False
mnFcazUpb9S4S2i6SJ,COVID-19 Class Cancellation,All classes being conducted remotely / suspended in response to COVID-19,2020-03-11 05:00:00+00:00,2020-09-08 04:59:59+00:00,America/Chicago,15638399,academic,"['academic', 'holiday']",US,67,,,6708.0,"[{'entity_id': 'cGTQDjm24PmvJL8nePCFcK', 'name': 'Columbia College Chicago', 'type': 'venue', 'formatted_address': '600 South Michigan Avenue\nChicago, IL 60605\nUnited States of America'}]","[-87.624444, 41.874226]","[['6295630', '6255149', '6252001', '4896861', '4888671', '4887398']]",locality,1.0,active,2020-07-23 20:51:24+00:00,2020-09-03 22:18:11+00:00,,,Columbia College Chicago,-87.624444,41.874226,holiday,in-person,not_estimated,False
qXZavUxFCqo5Kabasj,Spring Session,,2020-01-27 06:00:00+00:00,2020-05-16 04:59:59+00:00,America/Chicago,9500399,academic,"['academic', 'academic-session']",US,67,,,6708.0,"[{'entity_id': 'cGTQDjm24PmvJL8nePCFcK', 'name': 'Columbia College Chicago', 'type': 'venue', 'formatted_address': '600 South Michigan Avenue\nChicago, IL 60605\nUnited States of America'}]","[-87.624444, 41.874226]","[['6295630', '6255149', '6252001', '4896861', '4888671', '4887398']]",locality,1.0,active,2020-07-23 22:08:28+00:00,2020-09-03 22:21:09+00:00,,,Columbia College Chicago,-87.624444,41.874226,academic-session,in-person,not_estimated,True
Z5HXSe8FsCGpk2W82C,Spring Session,,2020-01-13 06:00:00+00:00,2020-05-02 04:59:59+00:00,America/Chicago,9500399,academic,"['academic', 'academic-session']",US,76,,,20195.0,"[{'entity_id': 'QJjfX3mJEReLU4USjyzyKc', 'name': 'University Of Illinois At Chicago', 'type': 'venue', 'formatted_address': '1200 West Harrison Street\nChicago, IL 60607\nUnited States of America'}]","[-87.658001, 41.87521]","[['6295630', '6255149', '6252001', '4896861', '4888671', '4887398']]",locality,1.0,active,2020-07-23 21:39:38+00:00,2020-09-03 22:19:39+00:00,,,University Of Illinois At Chicago,-87.658001,41.87521,academic-session,in-person,not_estimated,True
cAX7tCM7zHADZhcYAP,Spring Session,,2020-01-13 06:00:00+00:00,2020-05-09 04:59:59+00:00,America/Chicago,10105199,academic,"['academic', 'academic-session']",US,65,,,5836.0,"[{'entity_id': 'SLPHTKkiJKhB5x2pRkXWzc', 'name': 'Harold Washington College, City College of Chicago', 'type': 'venue', 'formatted_address': '30 East Lake Street\nChicago, IL 60601\nUnited States of America'}]","[-87.626848, 41.886073]","[['6295630', '6255149', '6252001', '4896861', '4888671', '4887398']]",locality,1.0,active,2020-07-23 22:08:05+00:00,2020-09-03 22:24:17+00:00,,,"Harold Washington College, City College of Chicago",-87.626848,41.886073,academic-session,in-person,not_estimated,True
jo4XxdmZKedpyLqr4a,Spring Session,,2020-01-13 06:00:00+00:00,2020-05-02 04:59:59+00:00,America/Chicago,9500399,academic,"['academic', 'academic-session']",US,60,,,3143.0,"[{'entity_id': 'qmgnxQEmGMxGuMKgJvjj4t', 'name': 'Illinois Institute of Technology', 'type': 'venue', 'formatted_address': '10 West 35th Street\nChicago, IL 60616\nUnited States of America'}]","[-87.627006, 41.834873]","[['6295630', '6255149', '6252001', '4896861', '4888671', '4906683'], ['6295630', '6255149', '6252001', '4896861', '4888671', '4887398']]",locality,1.0,active,2020-07-23 22:11:02+00:00,2020-09-03 22:17:49+00:00,,,Illinois Institute of Technology,-87.627006,41.834873,academic-session,in-person,not_estimated,True
AUopsLA76bzzJmgARS,Winter Session,,2020-01-06 06:00:00+00:00,2020-01-25 05:59:59+00:00,America/Chicago,1641599,academic,"['academic', 'academic-session', 'estimated']",US,56,,,2012.0,"[{'entity_id': 'cGTQDjm24PmvJL8nePCFcK', 'name': 'Columbia College Chicago', 'type': 'venue', 'formatted_address': '600 South Michigan Avenue\nChicago, IL 60605\nUnited States of America'}]","[-87.624444, 41.874226]","[['6295630', '6255149', '6252001', '4896861', '4888671', '4887398']]",locality,1.0,active,2020-07-23 22:08:27+00:00,2020-09-03 22:27:47+00:00,,,Columbia College Chicago,-87.624444,41.874226,academic-session,in-person,estimated,True
GYbpQ9aT3w3rvaoriS,Winter Session,,2020-01-06 06:00:00+00:00,2020-03-21 04:59:59+00:00,America/Chicago,6476399,academic,"['academic', 'academic-session']",US,67,,,6801.0,"[{'entity_id': 'dZujRpmDZFJRjswYBjzatj', 'name': 'University of Chicago', 'type': 'venue', 'formatted_address': 'Chicago, IL 60637\nUnited States of America'}]","[-87.598296, 41.790797]","[['6295630', '6255149', '6252001', '4896861', '4888671', '4894404'], ['6295630', '6255149', '6252001', '4896861', '4888671', '4887398']]",locality,1.0,active,2020-07-23 21:40:04+00:00,2020-09-03 22:26:25+00:00,,,University of Chicago,-87.598296,41.790797,academic-session,in-person,not_estimated,True
UzohaJSQUnpnKwktsp,Northeastern Illinois University - Fall Graduation,,2019-12-15 06:00:00+00:00,2019-12-16 05:59:59+00:00,America/Chicago,86399,academic,"['academic', 'graduation']",US,70,,,9500.0,"[{'entity_id': 'r2kXnMREzPzTzQS8pHShMU', 'name': 'Credit Union 1 Arena', 'type': 'venue', 'formatted_address': '525 S Racine Ave\nChicago, IL 60607\nUnited States of America'}]","[-87.656141, 41.874856]","[['6295630', '6255149', '6252001', '4896861', '4888671', '4887398']]",locality,1.0,active,2020-07-23 22:14:20+00:00,2021-03-19 12:03:30+00:00,,,Credit Union 1 Arena,-87.656141,41.874856,graduation,in-person,not_estimated,True
hV9iKiPkHZgG7q9Nzj,University of Illinois at Chicago - Fall Graduation,,2019-12-14 15:00:00+00:00,2019-12-14 15:00:00+00:00,America/Chicago,0,academic,"['academic', 'graduation']",US,72,,,12000.0,"[{'entity_id': 'r2kXnMREzPzTzQS8pHShMU', 'name': 'Credit Union 1 Arena', 'type': 'venue', 'formatted_address': '525 S Racine Ave\nChicago, IL 60607\nUnited States of America'}]","[-87.656141, 41.874856]","[['6295630', '6255149', '6252001', '4896861', '4888671', '4887398']]",locality,1.0,active,2020-07-23 21:39:36+00:00,2020-09-03 22:11:23+00:00,,,Credit Union 1 Arena,-87.656141,41.874856,graduation,in-person,not_estimated,True
HfgGgqpBENCVmzUt2E,Winter Break,,2019-12-14 06:00:00+00:00,2020-01-13 05:59:59+00:00,America/Chicago,2591999,academic,"['academic', 'holiday']",US,65,,,5836.0,"[{'entity_id': 'SLPHTKkiJKhB5x2pRkXWzc', 'name': 'Harold Washington College, City College of Chicago', 'type': 'venue', 'formatted_address': '30 East Lake Street\nChicago, IL 60601\nUnited States of America'}]","[-87.626848, 41.886073]","[['6295630', '6255149', '6252001', '4896861', '4888671', '4887398']]",locality,1.0,active,2020-07-23 22:08:04+00:00,2020-09-03 22:18:32+00:00,,,"Harold Washington College, City College of Chicago",-87.626848,41.886073,holiday,in-person,not_estimated,False
QMXTo9m6khexSn7vyB,Winter Break,,2019-12-14 06:00:00+00:00,2020-01-06 05:59:59+00:00,America/Chicago,1987199,academic,"['academic', 'holiday']",US,67,,,6801.0,"[{'entity_id': 'dZujRpmDZFJRjswYBjzatj', 'name': 'University of Chicago', 'type': 'venue', 'formatted_address': 'Chicago, IL 60637\nUnited States of America'}]","[-87.598296, 41.790797]","[['6295630', '6255149', '6252001', '4896861', '4888671', '4894404'], ['6295630', '6255149', '6252001', '4896861', '4888671', '4887398']]",locality,1.0,active,2020-07-23 21:40:03+00:00,2020-09-03 22:22:25+00:00,,,University of Chicago,-87.598296,41.790797,holiday,in-person,not_estimated,False
ienBQGjnWxgiozJpEQ,Winter Break,,2019-12-14 06:00:00+00:00,2020-01-13 05:59:59+00:00,America/Chicago,2591999,academic,"['academic', 'holiday']",US,76,,,20195.0,"[{'entity_id': 'QJjfX3mJEReLU4USjyzyKc', 'name': 'University Of Illinois At Chicago', 'type': 'venue', 'formatted_address': '1200 West Harrison Street\nChicago, IL 60607\nUnited States of America'}]","[-87.658001, 41.87521]","[['6295630', '6255149', '6252001', '4896861', '4888671', '4887398']]",locality,1.0,active,2020-07-23 21:39:37+00:00,2020-09-03 22:20:27+00:00,,,University Of Illinois At Chicago,-87.658001,41.87521,holiday,in-person,not_estimated,False
k5YcscUz58vPp2AHyh,Winter Break,,2019-12-14 06:00:00+00:00,2020-01-27 05:59:59+00:00,America/Chicago,3801599,academic,"['academic', 'holiday']",US,67,,,6708.0,"[{'entity_id': 'cGTQDjm24PmvJL8nePCFcK', 'name': 'Columbia College Chicago', 'type': 'venue', 'formatted_address': '600 South Michigan Avenue\nChicago, IL 60605\nUnited States of America'}]","[-87.624444, 41.874226]","[['6295630', '6255149', '6252001', '4896861', '4888671', '4887398']]",locality,1.0,active,2020-07-23 22:08:26+00:00,2020-09-03 22:20:12+00:00,,,Columbia College Chicago,-87.624444,41.874226,holiday,in-person,not_estimated,False
ygRReHZEtjpCcrQD5P,Fall Exams,,2019-12-09 06:00:00+00:00,2019-12-14 05:59:59+00:00,America/Chicago,431999,academic,"['academic', 'exam']",US,76,,,20195.0,"[{'entity_id': 'QJjfX3mJEReLU4USjyzyKc', 'name': 'University Of Illinois At Chicago', 'type': 'venue', 'formatted_address': '1200 West Harrison Street\nChicago, IL 60607\nUnited States of America'}]","[-87.658001, 41.87521]","[['6295630', '6255149', '6252001', '4896861', '4888671', '4887398']]",locality,1.0,active,2020-07-23 21:39:35+00:00,2020-09-03 22:21:25+00:00,,,University Of Illinois At Chicago,-87.658001,41.87521,exam,in-person,not_estimated,True
mRPdKRVzRYAubYQx5R,Winter Break,,2019-12-07 06:00:00+00:00,2020-01-13 05:59:59+00:00,America/Chicago,3196799,academic,"['academic', 'holiday']",US,60,,,3143.0,"[{'entity_id': 'qmgnxQEmGMxGuMKgJvjj4t', 'name': 'Illinois Institute of Technology', 'type': 'venue', 'formatted_address': '10 West 35th Street\nChicago, IL 60616\nUnited States of America'}]","[-87.627006, 41.834873]","[['6295630', '6255149', '6252001', '4896861', '4888671', '4906683'], ['6295630', '6255149', '6252001', '4896861', '4888671', '4887398']]",locality,1.0,active,2020-07-23 22:11:02+00:00,2020-09-03 22:20:20+00:00,,,Illinois Institute of Technology,-87.627006,41.834873,holiday,in-person,not_estimated,False
ZxvKq3XbJDEqLLCExx,Fall Exams,,2019-12-02 06:00:00+00:00,2019-12-07 05:59:59+00:00,America/Chicago,431999,academic,"['academic', 'exam']",US,60,,,3143.0,"[{'entity_id': 'qmgnxQEmGMxGuMKgJvjj4t', 'name': 'Illinois Institute of Technology', 'type': 'venue', 'formatted_address': '10 West 35th Street\nChicago, IL 60616\nUnited States of America'}]","[-87.627006, 41.834873]","[['6295630', '6255149', '6252001', '4896861', '4888671', '4906683'], ['6295630', '6255149', '6252001', '4896861', '4888671', '4887398']]",locality,1.0,active,2020-07-23 22:11:01+00:00,2020-09-03 22:21:51+00:00,,,Illinois Institute of Technology,-87.627006,41.834873,exam,in-person,not_estimated,True
7Pi6hoq2JdWGrdkxMC,Thanksgiving Break,,2019-11-28 06:00:00+00:00,2019-12-02 05:59:59+00:00,America/Chicago,345599,academic,"['academic', 'holiday']",US,67,,,6801.0,"[{'entity_id': 'dZujRpmDZFJRjswYBjzatj', 'name': 'University of Chicago', 'type': 'venue', 'formatted_address': 'Chicago, IL 60637\nUnited States of America'}]","[-87.598296, 41.790797]","[['6295630', '6255149', '6252001', '4896861', '4888671', '4894404'], ['6295630', '6255149', '6252001', '4896861', '4888671', '4887398']]",locality,1.0,active,2020-07-23 21:40:03+00:00,2020-09-03 22:21:21+00:00,,,University of Chicago,-87.598296,41.790797,holiday,in-person,not_estimated,False
eBFNW78XffEPEn8wsC,Thanksgiving Break,,2019-11-28 06:00:00+00:00,2019-12-02 05:59:59+00:00,America/Chicago,345599,academic,"['academic', 'holiday']",US,67,,,6708.0,"[{'entity_id': 'cGTQDjm24PmvJL8nePCFcK', 'name': 'Columbia College Chicago', 'type': 'venue', 'formatted_address': '600 South Michigan Avenue\nChicago, IL 60605\nUnited States of America'}]","[-87.624444, 41.874226]","[['6295630', '6255149', '6252001', '4896861', '4888671', '4887398']]",locality,1.0,active,2020-07-23 22:08:25+00:00,2020-09-03 22:20:47+00:00,,,Columbia College Chicago,-87.624444,41.874226,holiday,in-person,not_estimated,False
jUfgSat5pUmPHBCA7Y,Thanksgiving Break,,2019-11-28 06:00:00+00:00,2019-12-02 05:59:59+00:00,America/Chicago,345599,academic,"['academic', 'holiday']",US,76,,,20195.0,"[{'entity_id': 'QJjfX3mJEReLU4USjyzyKc', 'name': 'University Of Illinois At Chicago', 'type': 'venue', 'formatted_address': '1200 West Harrison Street\nChicago, IL 60607\nUnited States of America'}]","[-87.658001, 41.87521]","[['6295630', '6255149', '6252001', '4896861', '4888671', '4887398']]",locality,1.0,active,2020-07-23 21:39:34+00:00,2020-09-03 22:21:13+00:00,,,University Of Illinois At Chicago,-87.658001,41.87521,holiday,in-person,not_estimated,False
zU5rMU4ABfoybBZCHw,Thanksgiving Break,,2019-11-28 06:00:00+00:00,2019-12-02 05:59:59+00:00,America/Chicago,345599,academic,"['academic', 'holiday']",US,65,,,5836.0,"[{'entity_id': 'SLPHTKkiJKhB5x2pRkXWzc', 'name': 'Harold Washington College, City College of Chicago', 'type': 'venue', 'formatted_address': '30 East Lake Street\nChicago, IL 60601\nUnited States of America'}]","[-87.626848, 41.886073]","[['6295630', '6255149', '6252001', '4896861', '4888671', '4887398']]",locality,1.0,active,2020-07-23 22:08:03+00:00,2020-09-03 22:30:06+00:00,,,"Harold Washington College, City College of Chicago",-87.626848,41.886073,holiday,in-person,not_estimated,False
baqYrdwj3wyXCjEJgM,Thanksgiving Break,,2019-11-27 06:00:00+00:00,2019-12-02 05:59:59+00:00,America/Chicago,431999,academic,"['academic', 'holiday']",US,60,,,3143.0,"[{'entity_id': 'qmgnxQEmGMxGuMKgJvjj4t', 'name': 'Illinois Institute of Technology', 'type': 'venue', 'formatted_address': '10 West 35th Street\nChicago, IL 60616\nUnited States of America'}]","[-87.627006, 41.834873]","[['6295630', '6255149', '6252001', '4896861', '4888671', '4906683'], ['6295630', '6255149', '6252001', '4896861', '4888671', '4887398']]",locality,1.0,active,2020-07-23 22:11:00+00:00,2020-09-03 22:30:11+00:00,,,Illinois Institute of Technology,-87.627006,41.834873,holiday,in-person,not_estimated,False
kQrLXof5qechfL4BCm,Homecoming,,2019-11-14 06:00:00+00:00,2019-11-23 05:59:59+00:00,America/Chicago,777599,academic,"['academic', 'social']",US,0,,,0.0,"[{'entity_id': 'QJjfX3mJEReLU4USjyzyKc', 'name': 'University Of Illinois At Chicago', 'type': 'venue', 'formatted_address': '1200 West Harrison Street\nChicago, IL 60607\nUnited States of America'}]","[-87.658001, 41.87521]","[['6295630', '6255149', '6252001', '4896861', '4888671', '4887398']]",locality,1.0,active,2020-07-23 21:39:33+00:00,2020-07-24 02:26:45+00:00,,,University Of Illinois At Chicago,-87.658001,41.87521,social,in-person,not_estimated,True
7YzDcx8UHbbU7y74DZ,Homecoming,,2019-10-12 05:00:00+00:00,2019-10-13 04:59:59+00:00,America/Chicago,86399,academic,"['academic', 'social']",US,0,,,0.0,"[{'entity_id': 'dZujRpmDZFJRjswYBjzatj', 'name': 'University of Chicago', 'type': 'venue', 'formatted_address': 'Chicago, IL 60637\nUnited States of America'}]","[-87.598296, 41.790797]","[['6295630', '6255149', '6252001', '4896861', '4888671', '4894404'], ['6295630', '6255149', '6252001', '4896861', '4888671', '4887398']]",locality,1.0,active,2020-07-23 21:40:02+00:00,2020-07-23 21:40:26+00:00,,,University of Chicago,-87.598296,41.790797,social,in-person,not_estimated,True
8xWKVag3hg5QHA4wzh,Fall Break,,2019-10-05 05:00:00+00:00,2019-10-08 04:59:59+00:00,America/Chicago,259199,academic,"['academic', 'holiday']",US,60,,,3143.0,"[{'entity_id': 'qmgnxQEmGMxGuMKgJvjj4t', 'name': 'Illinois Institute of Technology', 'type': 'venue', 'formatted_address': '10 West 35th Street\nChicago, IL 60616\nUnited States of America'}]","[-87.627006, 41.834873]","[['6295630', '6255149', '6252001', '4896861', '4888671', '4906683'], ['6295630', '6255149', '6252001', '4896861', '4888671', '4887398']]",locality,1.0,active,2020-07-23 22:10:59+00:00,2020-09-03 22:11:55+00:00,,,Illinois Institute of Technology,-87.627006,41.834873,holiday,in-person,not_estimated,False
pSJs6MABTUbgmVJtTH,Fall Session,,2019-10-01 05:00:00+00:00,2019-12-14 05:59:59+00:00,America/Chicago,6397199,academic,"['academic', 'academic-session']",US,67,,,6801.0,"[{'entity_id': 'dZujRpmDZFJRjswYBjzatj', 'name': 'University of Chicago', 'type': 'venue', 'formatted_address': 'Chicago, IL 60637\nUnited States of America'}]","[-87.598296, 41.790797]","[['6295630', '6255149', '6252001', '4896861', '4888671', '4894404'], ['6295630', '6255149', '6252001', '4896861', '4888671', '4887398']]",locality,1.0,active,2020-07-23 21:40:01+00:00,2020-09-03 22:13:17+00:00,,,University of Chicago,-87.598296,41.790797,academic-session,in-person,not_estimated,True
WEoEtEdo2r6eguQ75Q,Homecoming,,2019-09-20 05:00:00+00:00,2019-09-22 04:59:59+00:00,America/Chicago,172799,academic,"['academic', 'social']",US,0,,,0.0,"[{'entity_id': 'qmgnxQEmGMxGuMKgJvjj4t', 'name': 'Illinois Institute of Technology', 'type': 'venue', 'formatted_address': '10 West 35th Street\nChicago, IL 60616\nUnited States of America'}]","[-87.627006, 41.834873]","[['6295630', '6255149', '6252001', '4896861', '4888671', '4906683'], ['6295630', '6255149', '6252001', '4896861', '4888671', '4887398']]",locality,1.0,active,2020-07-23 22:10:59+00:00,2020-07-23 22:13:23+00:00,,,Illinois Institute of Technology,-87.627006,41.834873,social,in-person,not_estimated,True
kc4vvPSdkpVHnQnmMi,Fall Session,,2019-09-03 05:00:00+00:00,2019-12-14 05:59:59+00:00,America/Chicago,8816399,academic,"['academic', 'academic-session']",US,67,,,6708.0,"[{'entity_id': 'cGTQDjm24PmvJL8nePCFcK', 'name': 'Columbia College Chicago', 'type': 'venue', 'formatted_address': '600 South Michigan Avenue\nChicago, IL 60605\nUnited States of America'}]","[-87.624444, 41.874226]","[['6295630', '6255149', '6252001', '4896861', '4888671', '4887398']]",locality,1.0,active,2020-07-23 22:08:24+00:00,2020-09-03 22:25:40+00:00,,,Columbia College Chicago,-87.624444,41.874226,academic-session,in-person,not_estimated,True
3wrXUa9PgdWyJhyeLo,Fall Break,,2019-08-31 05:00:00+00:00,2019-10-01 04:59:59+00:00,America/Chicago,2678399,academic,"['academic', 'holiday']",US,67,,,6801.0,"[{'entity_id': 'dZujRpmDZFJRjswYBjzatj', 'name': 'University of Chicago', 'type': 'venue', 'formatted_address': 'Chicago, IL 60637\nUnited States of America'}]","[-87.598296, 41.790797]","[['6295630', '6255149', '6252001', '4896861', '4888671', '4894404'], ['6295630', '6255149', '6252001', '4896861', '4888671', '4887398']]",locality,1.0,active,2020-07-23 21:40:00+00:00,2020-09-03 22:30:40+00:00,,,University of Chicago,-87.598296,41.790797,holiday,in-person,not_estimated,False
9Pwof5TtzmdLK4eGjL,Fall Session,,2019-08-26 05:00:00+00:00,2019-12-07 05:59:59+00:00,America/Chicago,8902799,academic,"['academic', 'academic-session']",US,76,,,20195.0,"[{'entity_id': 'QJjfX3mJEReLU4USjyzyKc', 'name': 'University Of Illinois At Chicago', 'type': 'venue', 'formatted_address': '1200 West Harrison Street\nChicago, IL 60607\nUnited States of America'}]","[-87.658001, 41.87521]","[['6295630', '6255149', '6252001', '4896861', '4888671', '4887398']]",locality,1.0,active,2020-07-23 21:39:32+00:00,2020-09-03 22:16:05+00:00,,,University Of Illinois At Chicago,-87.658001,41.87521,academic-session,in-person,not_estimated,True
khzBXHpQLPNaRatX6Q,Fall Session,,2019-08-26 05:00:00+00:00,2019-12-14 05:59:59+00:00,America/Chicago,9507599,academic,"['academic', 'academic-session']",US,65,,,5836.0,"[{'entity_id': 'SLPHTKkiJKhB5x2pRkXWzc', 'name': 'Harold Washington College, City College of Chicago', 'type': 'venue', 'formatted_address': '30 East Lake Street\nChicago, IL 60601\nUnited States of America'}]","[-87.626848, 41.886073]","[['6295630', '6255149', '6252001', '4896861', '4888671', '4887398']]",locality,1.0,active,2020-07-23 22:08:03+00:00,2020-09-03 22:17:13+00:00,,,"Harold Washington College, City College of Chicago",-87.626848,41.886073,academic-session,in-person,not_estimated,True
tT6QFA6HeTzNvpXM6Q,Fall Session,,2019-08-19 05:00:00+00:00,2019-11-30 05:59:59+00:00,America/Chicago,8902799,academic,"['academic', 'academic-session']",US,60,,,3143.0,"[{'entity_id': 'qmgnxQEmGMxGuMKgJvjj4t', 'name': 'Illinois Institute of Technology', 'type': 'venue', 'formatted_address': '10 West 35th Street\nChicago, IL 60616\nUnited States of America'}]","[-87.627006, 41.834873]","[['6295630', '6255149', '6252001', '4896861', '4888671', '4906683'], ['6295630', '6255149', '6252001', '4896861', '4888671', '4887398']]",locality,1.0,active,2020-07-23 22:10:58+00:00,2020-09-03 22:22:15+00:00,,,Illinois Institute of Technology,-87.627006,41.834873,academic-session,in-person,not_estimated,True
nweLxbpEDynRw3Thf2,Summer Session,,2019-06-24 05:00:00+00:00,2019-08-31 04:59:59+00:00,America/Chicago,5875199,academic,"['academic', 'academic-session']",US,67,,,6801.0,"[{'entity_id': 'dZujRpmDZFJRjswYBjzatj', 'name': 'University of Chicago', 'type': 'venue', 'formatted_address': 'Chicago, IL 60637\nUnited States of America'}]","[-87.598296, 41.790797]","[['6295630', '6255149', '6252001', '4896861', '4888671', '4894404'], ['6295630', '6255149', '6252001', '4896861', '4888671', '4887398']]",locality,1.0,active,2020-07-23 21:39:59+00:00,2020-09-03 22:10:53+00:00,,,University of Chicago,-87.598296,41.790797,academic-session,in-person,not_estimated,True
T5gFv6ZMDwipmvwjiG,Summer Break,,2019-06-15 05:00:00+00:00,2019-06-24 04:59:59+00:00,America/Chicago,777599,academic,"['academic', 'holiday']",US,67,,,6801.0,"[{'entity_id': 'dZujRpmDZFJRjswYBjzatj', 'name': 'University of Chicago', 'type': 'venue', 'formatted_address': 'Chicago, IL 60637\nUnited States of America'}]","[-87.598296, 41.790797]","[['6295630', '6255149', '6252001', '4896861', '4888671', '4894404'], ['6295630', '6255149', '6252001', '4896861', '4888671', '4887398']]",locality,1.0,active,2020-07-23 21:39:58+00:00,2020-09-03 22:16:08+00:00,,,University of Chicago,-87.598296,41.790797,holiday,in-person,not_estimated,False
WM3QNzPqoLV6D254Vr,DePaul University - Spring Graduation,,2019-06-15 05:00:00+00:00,2019-06-17 04:59:59+00:00,America/Chicago,172799,academic,"['academic', 'graduation']",US,80,,,30000.0,"[{'entity_id': 'pxJbsfW5VS6Mbays2U6wym', 'name': 'Wintrust Arena', 'type': 'venue', 'formatted_address': '200 East Cermak Road\nChicago, IL 60616\nUnited States of America'}]","[-87.621772, 41.853136]","[['6295630', '6255149', '6252001', '4896861', '4888671', '4906683'], ['6295630', '6255149', '6252001', '4896861', '4888671', '4887398']]",locality,1.0,active,2020-07-23 21:34:14+00:00,2020-09-03 22:15:36+00:00,,,Wintrust Arena,-87.621772,41.853136,graduation,in-person,not_estimated,True
Zusw69BCk3Da9gfJ2W,University of Chicago - Spring Graduation,,2019-06-15 05:00:00+00:00,2019-06-16 04:59:59+00:00,America/Chicago,86399,academic,"['academic', 'graduation']",US,73,,,14353.0,"[{'entity_id': 'dZujRpmDZFJRjswYBjzatj', 'name': 'University of Chicago', 'type': 'venue', 'formatted_address': 'Chicago, IL 60637\nUnited States of America'}]","[-87.598296, 41.790797]","[['6295630', '6255149', '6252001', '4896861', '4888671', '4894404'], ['6295630', '6255149', '6252001', '4896861', '4888671', '4887398']]",locality,1.0,active,2020-07-23 21:39:58+00:00,2021-03-19 10:48:00+00:00,,,University of Chicago,-87.598296,41.790797,graduation,in-person,not_estimated,True
Do6SWEjMDMMR79CbHo,Summer Session,,2019-06-05 05:00:00+00:00,2019-07-28 04:59:59+00:00,America/Chicago,4579199,academic,"['academic', 'academic-session']",US,65,,,5836.0,"[{'entity_id': 'SLPHTKkiJKhB5x2pRkXWzc', 'name': 'Harold Washington College, City College of Chicago', 'type': 'venue', 'formatted_address': '30 East Lake Street\nChicago, IL 60601\nUnited States of America'}]","[-87.626848, 41.886073]","[['6295630', '6255149', '6252001', '4896861', '4888671', '4887398']]",locality,1.0,active,2020-07-23 22:08:01+00:00,2020-09-03 22:23:17+00:00,,,"Harold Washington College, City College of Chicago",-87.626848,41.886073,academic-session,in-person,not_estimated,True
KM2KYSMe5SXsjpZVho,Summer Session,,2019-05-20 05:00:00+00:00,2019-08-11 04:59:59+00:00,America/Chicago,7171199,academic,"['academic', 'academic-session']",US,56,,,2012.0,"[{'entity_id': 'cGTQDjm24PmvJL8nePCFcK', 'name': 'Columbia College Chicago', 'type': 'venue', 'formatted_address': '600 South Michigan Avenue\nChicago, IL 60605\nUnited States of America'}]","[-87.624444, 41.874226]","[['6295630', '6255149', '6252001', '4896861', '4888671', '4887398']]",locality,1.0,active,2020-07-23 22:08:23+00:00,2020-09-03 22:13:36+00:00,,,Columbia College Chicago,-87.624444,41.874226,academic-session,in-person,not_estimated,True
KYvQgUuZQEk3C9qpKU,Summer Session,,2019-05-20 05:00:00+00:00,2019-08-10 04:59:59+00:00,America/Chicago,7084799,academic,"['academic', 'academic-session']",US,66,,,6058.0,"[{'entity_id': 'QJjfX3mJEReLU4USjyzyKc', 'name': 'University Of Illinois At Chicago', 'type': 'venue', 'formatted_address': '1200 West Harrison Street\nChicago, IL 60607\nUnited States of America'}]","[-87.658001, 41.87521]","[['6295630', '6255149', '6252001', '4896861', '4888671', '4887398']]",locality,1.0,active,2020-07-23 21:39:30+00:00,2020-09-03 22:23:23+00:00,,,University Of Illinois At Chicago,-87.658001,41.87521,academic-session,in-person,not_estimated,True
icyYtR6o43rFmrZxdn,Summer Session,,2019-05-20 05:00:00+00:00,2019-08-11 04:59:59+00:00,America/Chicago,7171199,academic,"['academic', 'academic-session']",US,49,,,942.0,"[{'entity_id': 'qmgnxQEmGMxGuMKgJvjj4t', 'name': 'Illinois Institute of Technology', 'type': 'venue', 'formatted_address': '10 West 35th Street\nChicago, IL 60616\nUnited States of America'}]","[-87.627006, 41.834873]","[['6295630', '6255149', '6252001', '4896861', '4888671', '4906683'], ['6295630', '6255149', '6252001', '4896861', '4888671', '4887398']]",locality,1.0,active,2020-07-23 22:10:56+00:00,2020-09-03 22:24:49+00:00,,,Illinois Institute of Technology,-87.627006,41.834873,academic-session,in-person,not_estimated,True
WevaaSAXhSouqJW3SZ,Illinois Institute of Technology - Spring Graduation,,2019-05-18 15:00:00+00:00,2019-05-18 15:00:00+00:00,America/Chicago,0,academic,"['academic', 'graduation']",US,58,,,2500.0,"[{'entity_id': 'qmgnxQEmGMxGuMKgJvjj4t', 'name': 'Illinois Institute of Technology', 'type': 'venue', 'formatted_address': '10 West 35th Street\nChicago, IL 60616\nUnited States of America'}]","[-87.627006, 41.834873]","[['6295630', '6255149', '6252001', '4896861', '4888671', '4906683'], ['6295630', '6255149', '6252001', '4896861', '4888671', '4887398']]",locality,1.0,active,2020-07-23 22:10:55+00:00,2021-03-19 10:03:31+00:00,,,Illinois Institute of Technology,-87.627006,41.834873,graduation,in-person,not_estimated,True
9oCGavRhDqTYX8GDcw,Columbia College Chicago - Spring Graduation,,2019-05-11 05:00:00+00:00,2019-05-13 04:59:59+00:00,America/Chicago,172799,academic,"['academic', 'graduation']",US,71,,,10800.0,"[{'entity_id': 'ZWjCGvqwmQzeS39FCZPcQC', 'name': 'Auditorium Theatre', 'type': 'venue', 'formatted_address': '50 East Ida B. Wells Drive\nChicago, IL 60605\nUnited States of America'}]","[-87.625113, 41.875824]","[['6295630', '6255149', '6252001', '4896861', '4888671', '4887398']]",locality,1.0,active,2020-07-23 22:08:22+00:00,2021-03-19 14:56:23+00:00,,,Auditorium Theatre,-87.625113,41.875824,graduation,in-person,not_estimated,True
MXWWsmJejEaNA5jES7,Summer Break,,2019-05-11 05:00:00+00:00,2019-08-26 04:59:59+00:00,America/Chicago,9244799,academic,"['academic', 'holiday']",US,76,,,20195.0,"[{'entity_id': 'QJjfX3mJEReLU4USjyzyKc', 'name': 'University Of Illinois At Chicago', 'type': 'venue', 'formatted_address': '1200 West Harrison Street\nChicago, IL 60607\nUnited States of America'}]","[-87.658001, 41.87521]","[['6295630', '6255149', '6252001', '4896861', '4888671', '4887398']]",locality,1.0,active,2020-07-23 21:39:31+00:00,2020-09-03 22:25:54+00:00,,,University Of Illinois At Chicago,-87.658001,41.87521,holiday,in-person,not_estimated,False
R9yZBUEaTZz3WGdVbA,Summer Break,,2019-05-11 05:00:00+00:00,2019-08-19 04:59:59+00:00,America/Chicago,8639999,academic,"['academic', 'holiday']",US,60,,,3143.0,"[{'entity_id': 'qmgnxQEmGMxGuMKgJvjj4t', 'name': 'Illinois Institute of Technology', 'type': 'venue', 'formatted_address': '10 West 35th Street\nChicago, IL 60616\nUnited States of America'}]","[-87.627006, 41.834873]","[['6295630', '6255149', '6252001', '4896861', '4888671', '4906683'], ['6295630', '6255149', '6252001', '4896861', '4888671', '4887398']]",locality,1.0,active,2020-07-23 22:10:57+00:00,2020-09-03 22:19:57+00:00,,,Illinois Institute of Technology,-87.627006,41.834873,holiday,in-person,not_estimated,False
cN3ep2hebuY6rhhDSc,Summer Break,,2019-05-11 05:00:00+00:00,2019-09-03 04:59:59+00:00,America/Chicago,9935999,academic,"['academic', 'holiday']",US,67,,,6708.0,"[{'entity_id': 'cGTQDjm24PmvJL8nePCFcK', 'name': 'Columbia College Chicago', 'type': 'venue', 'formatted_address': '600 South Michigan Avenue\nChicago, IL 60605\nUnited States of America'}]","[-87.624444, 41.874226]","[['6295630', '6255149', '6252001', '4896861', '4888671', '4887398']]",locality,1.0,active,2020-07-23 22:08:23+00:00,2020-09-03 22:23:28+00:00,,,Columbia College Chicago,-87.624444,41.874226,holiday,in-person,not_estimated,False
vFxsmYj9Mm387pLmhy,Summer Break,,2019-05-11 05:00:00+00:00,2019-08-26 04:59:59+00:00,America/Chicago,9244799,academic,"['academic', 'holiday']",US,65,,,5836.0,"[{'entity_id': 'SLPHTKkiJKhB5x2pRkXWzc', 'name': 'Harold Washington College, City College of Chicago', 'type': 'venue', 'formatted_address': '30 East Lake Street\nChicago, IL 60601\nUnited States of America'}]","[-87.626848, 41.886073]","[['6295630', '6255149', '6252001', '4896861', '4888671', '4887398']]",locality,1.0,active,2020-07-23 22:08:02+00:00,2020-09-03 22:14:09+00:00,,,"Harold Washington College, City College of Chicago",-87.626848,41.886073,holiday,in-person,not_estimated,False
vn4gNMMEzfsaKfVQ7N,University of Illinois at Chicago - Spring Graduation,,2019-05-08 05:00:00+00:00,2019-05-14 04:59:59+00:00,America/Chicago,518399,academic,"['academic', 'graduation']",US,80,,,30000.0,"[{'entity_id': 'r2kXnMREzPzTzQS8pHShMU', 'name': 'Credit Union 1 Arena', 'type': 'venue', 'formatted_address': '525 S Racine Ave\nChicago, IL 60607\nUnited States of America'}]","[-87.656141, 41.874856]","[['6295630', '6255149', '6252001', '4896861', '4888671', '4887398']]",locality,1.0,active,2020-07-23 21:39:29+00:00,2020-09-03 22:27:03+00:00,,,Credit Union 1 Arena,-87.656141,41.874856,graduation,in-person,not_estimated,True
XQr3JiWHKrweu3w3hi,Northeastern Illinois University - Spring Graduation,,2019-05-06 05:00:00+00:00,2019-05-07 04:59:59+00:00,America/Chicago,86399,academic,"['academic', 'graduation']",US,70,,,9500.0,"[{'entity_id': 'r2kXnMREzPzTzQS8pHShMU', 'name': 'Credit Union 1 Arena', 'type': 'venue', 'formatted_address': '525 S Racine Ave\nChicago, IL 60607\nUnited States of America'}]","[-87.656141, 41.874856]","[['6295630', '6255149', '6252001', '4896861', '4888671', '4887398']]",locality,1.0,active,2020-07-23 22:14:13+00:00,2021-03-19 12:34:59+00:00,,,Credit Union 1 Arena,-87.656141,41.874856,graduation,in-person,not_estimated,True
mF8S25KDrfEpvhTBh7,Spring Exams,,2019-05-06 05:00:00+00:00,2019-05-11 04:59:59+00:00,America/Chicago,431999,academic,"['academic', 'exam']",US,60,,,3143.0,"[{'entity_id': 'qmgnxQEmGMxGuMKgJvjj4t', 'name': 'Illinois Institute of Technology', 'type': 'venue', 'formatted_address': '10 West 35th Street\nChicago, IL 60616\nUnited States of America'}]","[-87.627006, 41.834873]","[['6295630', '6255149', '6252001', '4896861', '4888671', '4906683'], ['6295630', '6255149', '6252001', '4896861', '4888671', '4887398']]",locality,1.0,active,2020-07-23 22:10:55+00:00,2020-09-03 22:13:37+00:00,,,Illinois Institute of Technology,-87.627006,41.834873,exam,in-person,not_estimated,True
zhMGjqGs5uKPAowrSD,Spring Exams,,2019-05-06 05:00:00+00:00,2019-05-11 04:59:59+00:00,America/Chicago,431999,academic,"['academic', 'exam']",US,76,,,20195.0,"[{'entity_id': 'QJjfX3mJEReLU4USjyzyKc', 'name': 'University Of Illinois At Chicago', 'type': 'venue', 'formatted_address': '1200 West Harrison Street\nChicago, IL 60607\nUnited States of America'}]","[-87.658001, 41.87521]","[['6295630', '6255149', '6252001', '4896861', '4888671', '4887398']]",locality,1.0,active,2020-07-23 21:39:28+00:00,2020-09-03 22:19:17+00:00,,,University Of Illinois At Chicago,-87.658001,41.87521,exam,in-person,not_estimated,True
EQWajS6QSX5EHwo7zE,City Colleges of Chicago-Harry S Truman College - Spring Graduation,,2019-05-04 05:00:00+00:00,2019-05-05 04:59:59+00:00,America/Chicago,86399,academic,"['academic', 'graduation']",US,78,,,24000.0,"[{'entity_id': 'pxJbsfW5VS6Mbays2U6wym', 'name': 'Wintrust Arena', 'type': 'venue', 'formatted_address': '200 East Cermak Road\nChicago, IL 60616\nUnited States of America'}]","[-87.621772, 41.853136]","[['6295630', '6255149', '6252001', '4896861', '4888671', '4906683'], ['6295630', '6255149', '6252001', '4896861', '4888671', '4887398']]",locality,1.0,active,2020-07-23 22:11:21+00:00,2020-09-03 22:25:00+00:00,,,Wintrust Arena,-87.621772,41.853136,graduation,in-person,not_estimated,True
HFxtdpirnhejoarjin,City Colleges of Chicago-Malcolm X College - Spring Graduation,,2019-05-04 05:00:00+00:00,2019-05-05 04:59:59+00:00,America/Chicago,86399,academic,"['academic', 'graduation']",US,78,,,24000.0,"[{'entity_id': 'pxJbsfW5VS6Mbays2U6wym', 'name': 'Wintrust Arena', 'type': 'venue', 'formatted_address': '200 East Cermak Road\nChicago, IL 60616\nUnited States of America'}]","[-87.621772, 41.853136]","[['6295630', '6255149', '6252001', '4896861', '4888671', '4906683'], ['6295630', '6255149', '6252001', '4896861', '4888671', '4887398']]",locality,1.0,active,2020-07-23 22:11:40+00:00,2020-09-03 22:21:50+00:00,,,Wintrust Arena,-87.621772,41.853136,graduation,in-person,not_estimated,True
MdonHzAnEAF6J4iBiW,City Colleges of Chicago-Richard J Daley College - Spring Graduation,,2019-05-04 05:00:00+00:00,2019-05-05 04:59:59+00:00,America/Chicago,86399,academic,"['academic', 'graduation']",US,78,,,24000.0,"[{'entity_id': 'pxJbsfW5VS6Mbays2U6wym', 'name': 'Wintrust Arena', 'type': 'venue', 'formatted_address': '200 East Cermak Road\nChicago, IL 60616\nUnited States of America'}]","[-87.621772, 41.853136]","[['6295630', '6255149', '6252001', '4896861', '4888671', '4906683'], ['6295630', '6255149', '6252001', '4896861', '4888671', '4887398']]",locality,1.0,active,2020-07-23 22:11:59+00:00,2020-09-03 22:21:53+00:00,,,Wintrust Arena,-87.621772,41.853136,graduation,in-person,not_estimated,True
YXh6FTC9jWu2nrecNN,City Colleges of Chicago-Harold Washington College - Spring Graduation,,2019-05-04 05:00:00+00:00,2019-05-05 04:59:59+00:00,America/Chicago,86399,academic,"['academic', 'graduation']",US,78,,,24000.0,"[{'entity_id': 'pxJbsfW5VS6Mbays2U6wym', 'name': 'Wintrust Arena', 'type': 'venue', 'formatted_address': '200 East Cermak Road\nChicago, IL 60616\nUnited States of America'}]","[-87.621772, 41.853136]","[['6295630', '6255149', '6252001', '4896861', '4888671', '4906683'], ['6295630', '6255149', '6252001', '4896861', '4888671', '4887398']]",locality,1.0,active,2020-07-23 22:08:00+00:00,2020-09-03 22:23:14+00:00,,,Wintrust Arena,-87.621772,41.853136,graduation,in-person,not_estimated,True
goGdSYnsVzZGWy9XzN,City Colleges of Chicago-Wilbur Wright College - Spring Graduation,,2019-05-04 05:00:00+00:00,2019-05-05 04:59:59+00:00,America/Chicago,86399,academic,"['academic', 'graduation']",US,78,,,24000.0,"[{'entity_id': 'pxJbsfW5VS6Mbays2U6wym', 'name': 'Wintrust Arena', 'type': 'venue', 'formatted_address': '200 East Cermak Road\nChicago, IL 60616\nUnited States of America'}]","[-87.621772, 41.853136]","[['6295630', '6255149', '6252001', '4896861', '4888671', '4906683'], ['6295630', '6255149', '6252001', '4896861', '4888671', '4887398']]",locality,1.0,active,2020-07-23 21:32:59+00:00,2020-09-03 22:27:15+00:00,,,Wintrust Arena,-87.621772,41.853136,graduation,in-person,not_estimated,True
YYPjzSvD4czEXBen5R,Spring Break,,2019-04-13 05:00:00+00:00,2019-04-22 04:59:59+00:00,America/Chicago,777599,academic,"['academic', 'holiday']",US,65,,,5836.0,"[{'entity_id': 'SLPHTKkiJKhB5x2pRkXWzc', 'name': 'Harold Washington College, City College of Chicago', 'type': 'venue', 'formatted_address': '30 East Lake Street\nChicago, IL 60601\nUnited States of America'}]","[-87.626848, 41.886073]","[['6295630', '6255149', '6252001', '4896861', '4888671', '4887398']]",locality,1.0,active,2020-07-23 22:07:59+00:00,2020-09-03 22:14:07+00:00,,,"Harold Washington College, City College of Chicago",-87.626848,41.886073,holiday,in-person,not_estimated,False
3uP5C8NfL9ZMaPvg52,Spring Session,,2019-04-01 05:00:00+00:00,2019-06-15 04:59:59+00:00,America/Chicago,6479999,academic,"['academic', 'academic-session']",US,67,,,6801.0,"[{'entity_id': 'dZujRpmDZFJRjswYBjzatj', 'name': 'University of Chicago', 'type': 'venue', 'formatted_address': 'Chicago, IL 60637\nUnited States of America'}]","[-87.598296, 41.790797]","[['6295630', '6255149', '6252001', '4896861', '4888671', '4894404'], ['6295630', '6255149', '6252001', '4896861', '4888671', '4887398']]",locality,1.0,active,2020-07-23 21:39:57+00:00,2020-09-03 22:14:01+00:00,,,University of Chicago,-87.598296,41.790797,academic-session,in-person,not_estimated,True
2ZiVR25qDPj2UuEynT,Spring Break,,2019-03-23 05:00:00+00:00,2019-04-01 04:59:59+00:00,America/Chicago,777599,academic,"['academic', 'holiday']",US,67,,,6801.0,"[{'entity_id': 'dZujRpmDZFJRjswYBjzatj', 'name': 'University of Chicago', 'type': 'venue', 'formatted_address': 'Chicago, IL 60637\nUnited States of America'}]","[-87.598296, 41.790797]","[['6295630', '6255149', '6252001', '4896861', '4888671', '4894404'], ['6295630', '6255149', '6252001', '4896861', '4888671', '4887398']]",locality,1.0,active,2020-07-23 21:39:56+00:00,2020-09-03 22:31:27+00:00,,,University of Chicago,-87.598296,41.790797,holiday,in-person,not_estimated,False
btZGFFchtf8rfi2945,Spring Break,,2019-03-23 05:00:00+00:00,2019-04-01 04:59:59+00:00,America/Chicago,777599,academic,"['academic', 'holiday']",US,67,,,6708.0,"[{'entity_id': 'cGTQDjm24PmvJL8nePCFcK', 'name': 'Columbia College Chicago', 'type': 'venue', 'formatted_address': '600 South Michigan Avenue\nChicago, IL 60605\nUnited States of America'}]","[-87.624444, 41.874226]","[['6295630', '6255149', '6252001', '4896861', '4888671', '4887398']]",locality,1.0,active,2020-07-23 22:08:21+00:00,2020-09-03 22:12:56+00:00,,,Columbia College Chicago,-87.624444,41.874226,holiday,in-person,not_estimated,False
tHcKBWYkjXefpLNxV8,Spring Break,,2019-03-23 05:00:00+00:00,2019-04-01 04:59:59+00:00,America/Chicago,777599,academic,"['academic', 'holiday']",US,76,,,20195.0,"[{'entity_id': 'QJjfX3mJEReLU4USjyzyKc', 'name': 'University Of Illinois At Chicago', 'type': 'venue', 'formatted_address': '1200 West Harrison Street\nChicago, IL 60607\nUnited States of America'}]","[-87.658001, 41.87521]","[['6295630', '6255149', '6252001', '4896861', '4888671', '4887398']]",locality,1.0,active,2020-07-23 21:39:27+00:00,2020-09-03 22:12:54+00:00,,,University Of Illinois At Chicago,-87.658001,41.87521,holiday,in-person,not_estimated,False
ndRuecTdtbpqr5PWQ3,Spring Break,,2019-03-16 05:00:00+00:00,2019-03-25 04:59:59+00:00,America/Chicago,777599,academic,"['academic', 'holiday']",US,60,,,3143.0,"[{'entity_id': 'qmgnxQEmGMxGuMKgJvjj4t', 'name': 'Illinois Institute of Technology', 'type': 'venue', 'formatted_address': '10 West 35th Street\nChicago, IL 60616\nUnited States of America'}]","[-87.627006, 41.834873]","[['6295630', '6255149', '6252001', '4896861', '4888671', '4906683'], ['6295630', '6255149', '6252001', '4896861', '4888671', '4887398']]",locality,1.0,active,2020-07-23 22:10:54+00:00,2020-09-03 22:13:17+00:00,,,Illinois Institute of Technology,-87.627006,41.834873,holiday,in-person,not_estimated,False
SsfW92yHbn9mxk4yKs,Spring Session,,2019-01-22 06:00:00+00:00,2019-05-11 04:59:59+00:00,America/Chicago,9413999,academic,"['academic', 'academic-session']",US,67,,,6708.0,"[{'entity_id': 'cGTQDjm24PmvJL8nePCFcK', 'name': 'Columbia College Chicago', 'type': 'venue', 'formatted_address': '600 South Michigan Avenue\nChicago, IL 60605\nUnited States of America'}]","[-87.624444, 41.874226]","[['6295630', '6255149', '6252001', '4896861', '4888671', '4887398']]",locality,1.0,active,2020-07-23 22:08:20+00:00,2020-09-03 22:12:49+00:00,,,Columbia College Chicago,-87.624444,41.874226,academic-session,in-person,not_estimated,True
8dFmoGYW65tQQXavDD,Spring Session,,2019-01-14 06:00:00+00:00,2019-05-11 04:59:59+00:00,America/Chicago,10105199,academic,"['academic', 'academic-session']",US,65,,,5836.0,"[{'entity_id': 'SLPHTKkiJKhB5x2pRkXWzc', 'name': 'Harold Washington College, City College of Chicago', 'type': 'venue', 'formatted_address': '30 East Lake Street\nChicago, IL 60601\nUnited States of America'}]","[-87.626848, 41.886073]","[['6295630', '6255149', '6252001', '4896861', '4888671', '4887398']]",locality,1.0,active,2020-07-23 22:07:59+00:00,2020-09-03 22:14:11+00:00,,,"Harold Washington College, City College of Chicago",-87.626848,41.886073,academic-session,in-person,not_estimated,True
iRJphf7ZZkJEEqMG2v,Spring Session,,2019-01-14 06:00:00+00:00,2019-05-04 04:59:59+00:00,America/Chicago,9500399,academic,"['academic', 'academic-session']",US,60,,,3143.0,"[{'entity_id': 'qmgnxQEmGMxGuMKgJvjj4t', 'name': 'Illinois Institute of Technology', 'type': 'venue', 'formatted_address': '10 West 35th Street\nChicago, IL 60616\nUnited States of America'}]","[-87.627006, 41.834873]","[['6295630', '6255149', '6252001', '4896861', '4888671', '4906683'], ['6295630', '6255149', '6252001', '4896861', '4888671', '4887398']]",locality,1.0,active,2020-07-23 22:10:53+00:00,2020-09-03 22:21:02+00:00,,,Illinois Institute of Technology,-87.627006,41.834873,academic-session,in-person,not_estimated,True
zTToy7uhBzN474tGcQ,Spring Session,,2019-01-14 06:00:00+00:00,2019-05-04 04:59:59+00:00,America/Chicago,9500399,academic,"['academic', 'academic-session']",US,76,,,20195.0,"[{'entity_id': 'QJjfX3mJEReLU4USjyzyKc', 'name': 'University Of Illinois At Chicago', 'type': 'venue', 'formatted_address': '1200 West Harrison Street\nChicago, IL 60607\nUnited States of America'}]","[-87.658001, 41.87521]","[['6295630', '6255149', '6252001', '4896861', '4888671', '4887398']]",locality,1.0,active,2020-07-23 21:39:26+00:00,2020-09-03 22:23:35+00:00,,,University Of Illinois At Chicago,-87.658001,41.87521,academic-session,in-person,not_estimated,True
su8syEGYTFJwQ8qSeq,Winter Session,,2019-01-07 06:00:00+00:00,2019-03-23 04:59:59+00:00,America/Chicago,6476399,academic,"['academic', 'academic-session']",US,67,,,6801.0,"[{'entity_id': 'dZujRpmDZFJRjswYBjzatj', 'name': 'University of Chicago', 'type': 'venue', 'formatted_address': 'Chicago, IL 60637\nUnited States of America'}]","[-87.598296, 41.790797]","[['6295630', '6255149', '6252001', '4896861', '4888671', '4894404'], ['6295630', '6255149', '6252001', '4896861', '4888671', '4887398']]",locality,1.0,active,2020-07-23 21:39:55+00:00,2020-09-03 22:26:47+00:00,,,University of Chicago,-87.598296,41.790797,academic-session,in-person,not_estimated,True
vfMhDJAVMTYyvyTuiS,Winter Session,,2019-01-02 06:00:00+00:00,2019-01-19 05:59:59+00:00,America/Chicago,1468799,academic,"['academic', 'academic-session', 'estimated']",US,56,,,2012.0,"[{'entity_id': 'cGTQDjm24PmvJL8nePCFcK', 'name': 'Columbia College Chicago', 'type': 'venue', 'formatted_address': '600 South Michigan Avenue\nChicago, IL 60605\nUnited States of America'}]","[-87.624444, 41.874226]","[['6295630', '6255149', '6252001', '4896861', '4888671', '4887398']]",locality,1.0,active,2020-07-23 22:08:19+00:00,2020-09-03 22:19:52+00:00,,,Columbia College Chicago,-87.624444,41.874226,academic-session,in-person,estimated,True
44JwGPspdvz2dwKAWm,Winter Break,,2018-12-15 06:00:00+00:00,2019-01-22 05:59:59+00:00,America/Chicago,3283199,academic,"['academic', 'holiday']",US,66,,,6568.0,"[{'entity_id': 'cGTQDjm24PmvJL8nePCFcK', 'name': 'Columbia College Chicago', 'type': 'venue', 'formatted_address': '600 South Michigan Avenue\nChicago, IL 60605\nUnited States of America'}]","[-87.624444, 41.874226]","[['6295630', '6255149', '6252001', '4896861', '4888671', '4887398']]",locality,1.0,active,2020-07-23 22:08:17+00:00,2020-09-03 22:20:52+00:00,,,Columbia College Chicago,-87.624444,41.874226,holiday,in-person,not_estimated,False
UU4dcJBJiYnjZQicdc,Winter Break,,2018-12-15 06:00:00+00:00,2019-01-14 05:59:59+00:00,America/Chicago,2591999,academic,"['academic', 'holiday']",US,65,,,5836.0,"[{'entity_id': 'SLPHTKkiJKhB5x2pRkXWzc', 'name': 'Harold Washington College, City College of Chicago', 'type': 'venue', 'formatted_address': '30 East Lake Street\nChicago, IL 60601\nUnited States of America'}]","[-87.626848, 41.886073]","[['6295630', '6255149', '6252001', '4896861', '4888671', '4887398']]",locality,1.0,active,2020-07-23 22:07:58+00:00,2020-09-03 22:16:25+00:00,,,"Harold Washington College, City College of Chicago",-87.626848,41.886073,holiday,in-person,not_estimated,False
Zvm2MzH3rhhkZv8kvz,Winter Break,,2018-12-15 06:00:00+00:00,2019-01-07 05:59:59+00:00,America/Chicago,1987199,academic,"['academic', 'holiday']",US,66,,,6599.0,"[{'entity_id': 'dZujRpmDZFJRjswYBjzatj', 'name': 'University of Chicago', 'type': 'venue', 'formatted_address': 'Chicago, IL 60637\nUnited States of America'}]","[-87.598296, 41.790797]","[['6295630', '6255149', '6252001', '4896861', '4888671', '4894404'], ['6295630', '6255149', '6252001', '4896861', '4888671', '4887398']]",locality,1.0,active,2020-07-23 21:39:54+00:00,2020-09-03 22:15:15+00:00,,,University of Chicago,-87.598296,41.790797,holiday,in-person,not_estimated,False
mwjrPGBSigngzhyjRu,Winter Break,,2018-12-15 06:00:00+00:00,2019-01-14 05:59:59+00:00,America/Chicago,2591999,academic,"['academic', 'holiday']",US,76,,,19254.0,"[{'entity_id': 'QJjfX3mJEReLU4USjyzyKc', 'name': 'University Of Illinois At Chicago', 'type': 'venue', 'formatted_address': '1200 West Harrison Street\nChicago, IL 60607\nUnited States of America'}]","[-87.658001, 41.87521]","[['6295630', '6255149', '6252001', '4896861', '4888671', '4887398']]",locality,1.0,active,2020-07-23 21:39:25+00:00,2020-09-03 22:17:55+00:00,,,University Of Illinois At Chicago,-87.658001,41.87521,holiday,in-person,not_estimated,False
5CZ76MHPJZAK2mbriA,Winter Break,,2018-12-08 06:00:00+00:00,2019-01-14 05:59:59+00:00,America/Chicago,3196799,academic,"['academic', 'holiday']",US,60,,,3025.0,"[{'entity_id': 'qmgnxQEmGMxGuMKgJvjj4t', 'name': 'Illinois Institute of Technology', 'type': 'venue', 'formatted_address': '10 West 35th Street\nChicago, IL 60616\nUnited States of America'}]","[-87.627006, 41.834873]","[['6295630', '6255149', '6252001', '4896861', '4888671', '4906683'], ['6295630', '6255149', '6252001', '4896861', '4888671', '4887398']]",locality,1.0,active,2020-07-23 22:10:52+00:00,2020-09-03 22:21:13+00:00,,,Illinois Institute of Technology,-87.627006,41.834873,holiday,in-person,not_estimated,False
