id,title,description,start,end,timezone,duration,category,labels,country,rank,local_rank,aviation_rank,phq_attendance,entities,location,place_hierarchies,scope,relevance,state,first_seen,updated,deleted_reason,duplicate_of_id,entity_name,longitude,latitude,sub_category,session_type,estimated,on_campus
sJ9AWdrqnnkNHiPGNm,Summer Session,,2021-06-01 05:00:00+00:00,2021-08-09 04:59:59+00:00,America/Chicago,5961599,academic,"['academic', 'academic-session', 'online-session']",US,38,,,241.0,"[{'entity_id': '7pWU6Pnc6keuabbSNYFqNu', 'name': 'Austin Community College - Highland Campus', 'type': 'venue', 'formatted_address': '6101 Highland Campus Drive\nAustin, TX 78752\nUnited States of America'}]","[-97.713765, 30.326983]","[['6295630', '6255149', '6252001', '4736286', '4737316', '4669623'], ['6295630', '6255149', '6252001', '4736286', '4737316', '4671654']]",locality,1.0,active,2019-10-31 21:58:06+00:00,2021-01-26 04:41:33+00:00,,,Austin Community College - Highland Campus,-97.713765,30.326983,academic-session,online-session,not_estimated,True
AHPGV7cBMdgxEq7pGe,The University of Texas at Austin - Spring Graduation,,2021-05-21 05:00:00+00:00,2021-05-23 04:59:59+00:00,America/Chicago,172799,academic,"['academic', 'graduation']",US,78,,,24500.0,"[{'entity_id': 'zwgVtu3XAsAvEH6fcvLCcc', 'name': 'University of Texas - Gregory Gym', 'type': 'venue', 'formatted_address': '2101 Speedway\nAustin, TX 78712\nUnited States of America'}]","[-97.736914, 30.283953]","[['6295630', '6255149', '6252001', '4736286', '4737316', '4671654']]",locality,1.0,active,2019-10-31 22:01:36+00:00,2020-09-03 22:21:10+00:00,,,University of Texas - Gregory Gym,-97.736914,30.283953,graduation,in-person,not_estimated,True
6wh4b4S7ZfS6qg8x2Y,Summer Break,,2021-05-19 05:00:00+00:00,2021-08-25 04:59:59+00:00,America/Chicago,8467199,academic,"['academic', 'estimated', 'holiday']",US,84,,,51831.0,"[{'entity_id': 'VG9bPvYp7gnnWkYtmnRdCb', 'name': 'The University of Texas at Austin', 'type': 'venue', 'formatted_address': 'Austin, TX 78712\nUnited States of America'}]","[-97.734057, 30.284918]","[['6295630', '6255149', '6252001', '4736286', '4737316', '4671654']]",locality,1.0,active,2019-10-31 22:01:38+00:00,2020-11-10 01:48:28+00:00,,,The University of Texas at Austin,-97.734057,30.284918,holiday,in-person,estimated,False
gL2bbP7GS7eY6iU2Gu,Summer Session,,2021-05-19 05:00:00+00:00,2021-08-17 04:59:59+00:00,America/Chicago,7775999,academic,"['academic', 'academic-session', 'online-session']",US,54,,,1554.0,"[{'entity_id': 'VG9bPvYp7gnnWkYtmnRdCb', 'name': 'The University of Texas at Austin', 'type': 'venue', 'formatted_address': 'Austin, TX 78712\nUnited States of America'}]","[-97.734057, 30.284918]","[['6295630', '6255149', '6252001', '4736286', '4737316', '4671654']]",locality,1.0,active,2019-10-31 22:01:38+00:00,2021-02-22 03:56:21+00:00,,,The University of Texas at Austin,-97.734057,30.284918,academic-session,online-session,not_estimated,True
GiBYiZ69bm62aEDfQY,Summer Break,,2021-05-15 05:00:00+00:00,2021-08-23 04:59:59+00:00,America/Chicago,8639999,academic,"['academic', 'estimated', 'holiday']",US,58,,,2419.0,"[{'entity_id': '7pWU6Pnc6keuabbSNYFqNu', 'name': 'Austin Community College - Highland Campus', 'type': 'venue', 'formatted_address': '6101 Highland Campus Drive\nAustin, TX 78752\nUnited States of America'}]","[-97.713765, 30.326983]","[['6295630', '6255149', '6252001', '4736286', '4737316', '4669623'], ['6295630', '6255149', '6252001', '4736286', '4737316', '4671654']]",locality,1.0,active,2019-10-31 21:58:07+00:00,2020-10-07 11:11:43+00:00,,,Austin Community College - Highland Campus,-97.713765,30.326983,holiday,in-person,estimated,False
NPiiBJpU46R5AL3Acs,Austin Community College District - Spring Graduation,,2021-05-14 05:00:00+00:00,2021-05-15 04:59:59+00:00,America/Chicago,86399,academic,"['academic', 'estimated', 'graduation']",US,72,,,12600.0,"[{'entity_id': '39ENkzQLMam2qDNVYHwDTX7', 'name': 'Frank C. Erwin, Jr., Special Events Center', 'type': 'venue', 'formatted_address': '1701 Red River Street\nAustin, TX 78701\nUnited States of America'}]","[-97.732169, 30.276954]","[['6295630', '6255149', '6252001', '4736286', '4737316', '4671654']]",locality,1.0,active,2019-10-31 21:58:06+00:00,2021-03-19 12:19:02+00:00,,,"Frank C. Erwin, Jr., Special Events Center",-97.732169,30.276954,graduation,in-person,estimated,True
aYmT64NHZvQoTeFXGC,Spring Exams,,2021-05-12 05:00:00+00:00,2021-05-19 04:59:59+00:00,America/Chicago,604799,academic,"['academic', 'exam', 'online-session']",US,64,,,5183.0,"[{'entity_id': 'VG9bPvYp7gnnWkYtmnRdCb', 'name': 'The University of Texas at Austin', 'type': 'venue', 'formatted_address': 'Austin, TX 78712\nUnited States of America'}]","[-97.734057, 30.284918]","[['6295630', '6255149', '6252001', '4736286', '4737316', '4671654']]",locality,1.0,active,2019-10-31 22:01:36+00:00,2021-02-22 03:56:22+00:00,,,The University of Texas at Austin,-97.734057,30.284918,exam,online-session,not_estimated,True
JhEmjWeobyrEXNFFCx,Spring Break,,2021-03-13 06:00:00+00:00,2021-03-22 04:59:59+00:00,America/Chicago,773999,academic,"['academic', 'holiday']",US,58,,,2419.0,"[{'entity_id': '7pWU6Pnc6keuabbSNYFqNu', 'name': 'Austin Community College - Highland Campus', 'type': 'venue', 'formatted_address': '6101 Highland Campus Drive\nAustin, TX 78752\nUnited States of America'}]","[-97.713765, 30.326983]","[['6295630', '6255149', '6252001', '4736286', '4737316', '4669623'], ['6295630', '6255149', '6252001', '4736286', '4737316', '4671654']]",locality,1.0,active,2019-10-31 21:58:05+00:00,2020-10-07 12:44:08+00:00,,,Austin Community College - Highland Campus,-97.713765,30.326983,holiday,in-person,not_estimated,False
SsviwrvwE46aekaGa2,Spring Break,,2021-03-13 06:00:00+00:00,2021-03-22 04:59:59+00:00,America/Chicago,773999,academic,"['academic', 'holiday']",US,84,,,51831.0,"[{'entity_id': 'VG9bPvYp7gnnWkYtmnRdCb', 'name': 'The University of Texas at Austin', 'type': 'venue', 'formatted_address': 'Austin, TX 78712\nUnited States of America'}]","[-97.734057, 30.284918]","[['6295630', '6255149', '6252001', '4736286', '4737316', '4671654']]",locality,1.0,active,2019-10-31 22:01:35+00:00,2020-11-10 01:48:28+00:00,,,The University of Texas at Austin,-97.734057,30.284918,holiday,in-person,not_estimated,False
6gWYWLnhsiYPvXgdE8,Spring Session,,2021-01-19 06:00:00+00:00,2021-05-08 04:59:59+00:00,America/Chicago,9413999,academic,"['academic', 'academic-session', 'online-session']",US,64,,,5183.0,"[{'entity_id': 'VG9bPvYp7gnnWkYtmnRdCb', 'name': 'The University of Texas at Austin', 'type': 'venue', 'formatted_address': 'Austin, TX 78712\nUnited States of America'}]","[-97.734057, 30.284918]","[['6295630', '6255149', '6252001', '4736286', '4737316', '4671654']]",locality,1.0,active,2019-10-31 22:01:35+00:00,2021-02-22 03:55:55+00:00,,,The University of Texas at Austin,-97.734057,30.284918,academic-session,online-session,not_estimated,True
LxRK29kWZZ34p9vAua,Spring Session,,2021-01-19 06:00:00+00:00,2021-05-15 04:59:59+00:00,America/Chicago,10018799,academic,"['academic', 'academic-session', 'online-session']",US,38,,,241.0,"[{'entity_id': '7pWU6Pnc6keuabbSNYFqNu', 'name': 'Austin Community College - Highland Campus', 'type': 'venue', 'formatted_address': '6101 Highland Campus Drive\nAustin, TX 78752\nUnited States of America'}]","[-97.713765, 30.326983]","[['6295630', '6255149', '6252001', '4736286', '4737316', '4669623'], ['6295630', '6255149', '6252001', '4736286', '4737316', '4671654']]",locality,1.0,active,2019-10-31 21:58:05+00:00,2021-01-26 04:44:14+00:00,,,Austin Community College - Highland Campus,-97.713765,30.326983,academic-session,online-session,not_estimated,True
Hw2UsTNm9F7u5GpBMS,Winter Break,,2020-12-17 06:00:00+00:00,2021-01-19 05:59:59+00:00,America/Chicago,2851199,academic,"['academic', 'holiday']",US,84,,,51831.0,"[{'entity_id': 'VG9bPvYp7gnnWkYtmnRdCb', 'name': 'The University of Texas at Austin', 'type': 'venue', 'formatted_address': 'Austin, TX 78712\nUnited States of America'}]","[-97.734057, 30.284918]","[['6295630', '6255149', '6252001', '4736286', '4737316', '4671654']]",locality,1.0,active,2019-10-31 22:01:34+00:00,2020-11-10 01:48:51+00:00,,,The University of Texas at Austin,-97.734057,30.284918,holiday,in-person,not_estimated,False
kxbUL8j9Z8T3nM24A9,Winter Break,,2020-12-12 06:00:00+00:00,2021-01-19 05:59:59+00:00,America/Chicago,3283199,academic,"['academic', 'holiday']",US,58,,,2419.0,"[{'entity_id': '7pWU6Pnc6keuabbSNYFqNu', 'name': 'Austin Community College - Highland Campus', 'type': 'venue', 'formatted_address': '6101 Highland Campus Drive\nAustin, TX 78752\nUnited States of America'}]","[-97.713765, 30.326983]","[['6295630', '6255149', '6252001', '4736286', '4737316', '4669623'], ['6295630', '6255149', '6252001', '4736286', '4737316', '4671654']]",locality,1.0,active,2019-10-31 21:58:04+00:00,2020-10-06 21:38:07+00:00,,,Austin Community College - Highland Campus,-97.713765,30.326983,holiday,in-person,not_estimated,False
aQLbNVWyYAhezkCf2s,Fall Exams,,2020-12-10 06:00:00+00:00,2020-12-17 05:59:59+00:00,America/Chicago,604799,academic,"['academic', 'exam', 'hybrid-session']",US,76,,,20732.0,"[{'entity_id': 'VG9bPvYp7gnnWkYtmnRdCb', 'name': 'The University of Texas at Austin', 'type': 'venue', 'formatted_address': 'Austin, TX 78712\nUnited States of America'}]","[-97.734057, 30.284918]","[['6295630', '6255149', '6252001', '4736286', '4737316', '4671654']]",locality,1.0,active,2019-10-31 22:01:33+00:00,2020-11-10 01:48:22+00:00,,,The University of Texas at Austin,-97.734057,30.284918,exam,hybrid-session,not_estimated,True
JtYyYtzTarKc6VapCp,The University of Texas at Austin - Fall Graduation,,2020-12-05 06:00:00+00:00,2020-12-06 05:59:59+00:00,America/Chicago,86399,academic,"['academic', 'graduation']",US,59,,,2900.0,"[{'entity_id': 'xH33ACXDHdVgA7aP6JSZtZ', 'name': 'Bass Concert Hall', 'type': 'venue', 'formatted_address': '2350 Robert Dedman Drive\nAustin, TX 78712\nUnited States of America'}]","[-97.731236, 30.286095]","[['6295630', '6255149', '6252001', '4736286', '4737316', '4671654']]",locality,1.0,active,2019-10-31 22:01:34+00:00,2020-09-03 22:18:53+00:00,,,Bass Concert Hall,-97.731236,30.286095,graduation,in-person,not_estimated,True
nTYM3q2aHvG5Tz6KJL,Thanksgiving Break,,2020-11-26 06:00:00+00:00,2020-11-30 05:59:59+00:00,America/Chicago,345599,academic,"['academic', 'holiday']",US,58,,,2419.0,"[{'entity_id': '7pWU6Pnc6keuabbSNYFqNu', 'name': 'Austin Community College - Highland Campus', 'type': 'venue', 'formatted_address': '6101 Highland Campus Drive\nAustin, TX 78752\nUnited States of America'}]","[-97.713765, 30.326983]","[['6295630', '6255149', '6252001', '4736286', '4737316', '4669623'], ['6295630', '6255149', '6252001', '4736286', '4737316', '4671654']]",locality,1.0,active,2019-10-31 21:58:03+00:00,2020-10-07 12:59:39+00:00,,,Austin Community College - Highland Campus,-97.713765,30.326983,holiday,in-person,not_estimated,False
dcnR2pZwk5ctTKmMKf,Thanksgiving Break,,2020-11-25 06:00:00+00:00,2020-11-30 05:59:59+00:00,America/Chicago,431999,academic,"['academic', 'holiday']",US,84,,,51831.0,"[{'entity_id': 'VG9bPvYp7gnnWkYtmnRdCb', 'name': 'The University of Texas at Austin', 'type': 'venue', 'formatted_address': 'Austin, TX 78712\nUnited States of America'}]","[-97.734057, 30.284918]","[['6295630', '6255149', '6252001', '4736286', '4737316', '4671654']]",locality,1.0,active,2019-10-31 22:01:33+00:00,2020-11-10 01:48:29+00:00,,,The University of Texas at Austin,-97.734057,30.284918,holiday,in-person,not_estimated,False
T4LqSe8PuarzX8D9rt,Fall Session,,2020-08-26 05:00:00+00:00,2020-12-08 05:59:59+00:00,America/Chicago,8989199,academic,"['academic', 'academic-session', 'hybrid-session']",US,76,,,20732.0,"[{'entity_id': 'VG9bPvYp7gnnWkYtmnRdCb', 'name': 'The University of Texas at Austin', 'type': 'venue', 'formatted_address': 'Austin, TX 78712\nUnited States of America'}]","[-97.734057, 30.284918]","[['6295630', '6255149', '6252001', '4736286', '4737316', '4671654']]",locality,1.0,active,2019-10-31 22:01:32+00:00,2020-11-10 01:48:54+00:00,,,The University of Texas at Austin,-97.734057,30.284918,academic-session,hybrid-session,not_estimated,True
fkgbKSedD4PpY5P9Gr,Fall Session,,2020-08-24 05:00:00+00:00,2020-12-12 05:59:59+00:00,America/Chicago,9507599,academic,"['academic', 'academic-session', 'online-session']",US,38,,,241.0,"[{'entity_id': '7pWU6Pnc6keuabbSNYFqNu', 'name': 'Austin Community College - Highland Campus', 'type': 'venue', 'formatted_address': '6101 Highland Campus Drive\nAustin, TX 78752\nUnited States of America'}]","[-97.713765, 30.326983]","[['6295630', '6255149', '6252001', '4736286', '4737316', '4669623'], ['6295630', '6255149', '6252001', '4736286', '4737316', '4671654']]",locality,1.0,active,2019-10-31 21:58:03+00:00,2020-10-21 01:56:51+00:00,,,Austin Community College - Highland Campus,-97.713765,30.326983,academic-session,online-session,not_estimated,True
jMZUzivVgULApAbNuP,Summer Session,,2020-06-04 05:00:00+00:00,2020-08-18 04:59:59+00:00,America/Chicago,6479999,academic,"['academic', 'academic-session']",US,74,,,15549.0,"[{'entity_id': 'VG9bPvYp7gnnWkYtmnRdCb', 'name': 'The University of Texas at Austin', 'type': 'venue', 'formatted_address': 'Austin, TX 78712\nUnited States of America'}]","[-97.734057, 30.284918]","[['6295630', '6255149', '6252001', '4736286', '4737316', '4671654']]",locality,1.0,active,2019-10-31 22:01:31+00:00,2020-11-10 01:48:39+00:00,,,The University of Texas at Austin,-97.734057,30.284918,academic-session,in-person,not_estimated,True
Q9DL8nRXu3x3H4JUPF,Summer Session,,2020-06-01 05:00:00+00:00,2020-08-10 04:59:59+00:00,America/Chicago,6047999,academic,"['academic', 'academic-session']",US,58,,,2419.0,"[{'entity_id': '7pWU6Pnc6keuabbSNYFqNu', 'name': 'Austin Community College - Highland Campus', 'type': 'venue', 'formatted_address': '6101 Highland Campus Drive\nAustin, TX 78752\nUnited States of America'}]","[-97.713765, 30.326983]","[['6295630', '6255149', '6252001', '4736286', '4737316', '4669623'], ['6295630', '6255149', '6252001', '4736286', '4737316', '4671654']]",locality,1.0,active,2019-10-31 21:58:01+00:00,2020-10-07 16:12:51+00:00,,,Austin Community College - Highland Campus,-97.713765,30.326983,academic-session,in-person,not_estimated,True
TJWdw2NcJzCzrhXNUT,Summer Break,,2020-05-20 05:00:00+00:00,2020-08-26 04:59:59+00:00,America/Chicago,8467199,academic,"['academic', 'holiday']",US,84,,,51831.0,"[{'entity_id': 'VG9bPvYp7gnnWkYtmnRdCb', 'name': 'The University of Texas at Austin', 'type': 'venue', 'formatted_address': 'Austin, TX 78712\nUnited States of America'}]","[-97.734057, 30.284918]","[['6295630', '6255149', '6252001', '4736286', '4737316', '4671654']]",locality,1.0,active,2019-10-31 22:01:32+00:00,2020-11-10 01:48:28+00:00,,,The University of Texas at Austin,-97.734057,30.284918,holiday,in-person,not_estimated,False
CkYPYYPnPEALiLmKTu,Summer Break,,2020-05-16 05:00:00+00:00,2020-08-24 04:59:59+00:00,America/Chicago,8639999,academic,"['academic', 'holiday']",US,58,,,2419.0,"[{'entity_id': '7pWU6Pnc6keuabbSNYFqNu', 'name': 'Austin Community College - Highland Campus', 'type': 'venue', 'formatted_address': '6101 Highland Campus Drive\nAustin, TX 78752\nUnited States of America'}]","[-97.713765, 30.326983]","[['6295630', '6255149', '6252001', '4736286', '4737316', '4669623'], ['6295630', '6255149', '6252001', '4736286', '4737316', '4671654']]",locality,1.0,active,2019-10-31 21:58:02+00:00,2020-10-06 09:01:56+00:00,,,Austin Community College - Highland Campus,-97.713765,30.326983,holiday,in-person,not_estimated,False
okEmk5MyXfEvcnsjEo,Spring Exams,,2020-05-13 05:00:00+00:00,2020-05-20 04:59:59+00:00,America/Chicago,604799,academic,"['academic', 'exam']",US,84,,,51831.0,"[{'entity_id': 'VG9bPvYp7gnnWkYtmnRdCb', 'name': 'The University of Texas at Austin', 'type': 'venue', 'formatted_address': 'Austin, TX 78712\nUnited States of America'}]","[-97.734057, 30.284918]","[['6295630', '6255149', '6252001', '4736286', '4737316', '4671654']]",locality,1.0,active,2019-10-31 22:01:30+00:00,2020-11-10 01:48:51+00:00,,,The University of Texas at Austin,-97.734057,30.284918,exam,in-person,not_estimated,True
KtmJ2b5LvLhZU4gFiE,COVID-19 Class Cancellation,All classes being conducted remotely / suspended in response to COVID-19,2020-05-02 05:00:00+00:00,2020-08-18 04:59:59+00:00,America/Chicago,9331199,academic,"['academic', 'holiday']",US,84,,,51831.0,"[{'entity_id': 'VG9bPvYp7gnnWkYtmnRdCb', 'name': 'The University of Texas at Austin', 'type': 'venue', 'formatted_address': 'Austin, TX 78712\nUnited States of America'}]","[-97.734057, 30.284918]","[['6295630', '6255149', '6252001', '4736286', '4737316', '4671654']]",locality,1.0,active,2020-04-30 08:10:49+00:00,2020-11-10 01:48:28+00:00,,,The University of Texas at Austin,-97.734057,30.284918,holiday,in-person,not_estimated,False
tmHfHeZtt4fSSkFdRQ,COVID-19 Class Cancellation,All classes being conducted remotely / suspended in response to COVID-19,2020-05-02 05:00:00+00:00,2020-08-10 04:59:59+00:00,America/Chicago,8639999,academic,"['academic', 'holiday']",US,58,,,2419.0,"[{'entity_id': '7pWU6Pnc6keuabbSNYFqNu', 'name': 'Austin Community College - Highland Campus', 'type': 'venue', 'formatted_address': '6101 Highland Campus Drive\nAustin, TX 78752\nUnited States of America'}]","[-97.713765, 30.326983]","[['6295630', '6255149', '6252001', '4736286', '4737316', '4669623'], ['6295630', '6255149', '6252001', '4736286', '4737316', '4671654']]",locality,1.0,active,2020-04-30 05:22:38+00:00,2020-10-06 08:18:01+00:00,,,Austin Community College - Highland Campus,-97.713765,30.326983,holiday,in-person,not_estimated,False
Fxu3Kz5WWnLGVw26aP,Spring Break,,2020-03-14 05:00:00+00:00,2020-03-23 04:59:59+00:00,America/Chicago,777599,academic,"['academic', 'holiday']",US,58,,,2419.0,"[{'entity_id': '7pWU6Pnc6keuabbSNYFqNu', 'name': 'Austin Community College - Highland Campus', 'type': 'venue', 'formatted_address': '6101 Highland Campus Drive\nAustin, TX 78752\nUnited States of America'}]","[-97.713765, 30.326983]","[['6295630', '6255149', '6252001', '4736286', '4737316', '4669623'], ['6295630', '6255149', '6252001', '4736286', '4737316', '4671654']]",locality,1.0,active,2019-10-31 21:58:00+00:00,2020-10-07 14:59:09+00:00,,,Austin Community College - Highland Campus,-97.713765,30.326983,holiday,in-person,not_estimated,False
y9PwfoL9Qdx7xcvYkn,Spring Break,,2020-03-14 05:00:00+00:00,2020-03-23 04:59:59+00:00,America/Chicago,777599,academic,"['academic', 'holiday']",US,84,,,51831.0,"[{'entity_id': 'VG9bPvYp7gnnWkYtmnRdCb', 'name': 'The University of Texas at Austin', 'type': 'venue', 'formatted_address': 'Austin, TX 78712\nUnited States of America'}]","[-97.734057, 30.284918]","[['6295630', '6255149', '6252001', '4736286', '4737316', '4671654']]",locality,1.0,active,2019-10-31 22:01:29+00:00,2020-11-10 01:48:41+00:00,,,The University of Texas at Austin,-97.734057,30.284918,holiday,in-person,not_estimated,False
62Pn4vf8GRv5ygqhaH,COVID-19 Class Cancellation,All classes being conducted remotely / suspended in response to COVID-19,2020-03-11 05:00:00+00:00,2020-05-02 04:59:59+00:00,America/Chicago,4492799,academic,"['academic', 'estimated', 'holiday']",US,84,,,51831.0,"[{'entity_id': 'VG9bPvYp7gnnWkYtmnRdCb', 'name': 'The University of Texas at Austin', 'type': 'venue', 'formatted_address': 'Austin, TX 78712\nUnited States of America'}]","[-97.734057, 30.284918]","[['6295630', '6255149', '6252001', '4736286', '4737316', '4671654']]",locality,1.0,active,2020-03-25 01:46:30+00:00,2020-11-10 01:48:45+00:00,,,The University of Texas at Austin,-97.734057,30.284918,holiday,in-person,estimated,False
hWnz6LovXA2UtFe5Ev,COVID-19 Class Cancellation,All classes being conducted remotely / suspended in response to COVID-19,2020-03-11 05:00:00+00:00,2020-05-02 04:59:59+00:00,America/Chicago,4492799,academic,"['academic', 'estimated', 'holiday']",US,58,,,2419.0,"[{'entity_id': '7pWU6Pnc6keuabbSNYFqNu', 'name': 'Austin Community College - Highland Campus', 'type': 'venue', 'formatted_address': '6101 Highland Campus Drive\nAustin, TX 78752\nUnited States of America'}]","[-97.713765, 30.326983]","[['6295630', '6255149', '6252001', '4736286', '4737316', '4669623'], ['6295630', '6255149', '6252001', '4736286', '4737316', '4671654']]",locality,1.0,active,2020-03-25 01:45:16+00:00,2020-10-06 09:20:21+00:00,,,Austin Community College - Highland Campus,-97.713765,30.326983,holiday,in-person,estimated,False
YukviQpZ2erMbXE7zG,Spring Session,,2020-01-21 06:00:00+00:00,2020-05-09 04:59:59+00:00,America/Chicago,9413999,academic,"['academic', 'academic-session']",US,84,,,51831.0,"[{'entity_id': 'VG9bPvYp7gnnWkYtmnRdCb', 'name': 'The University of Texas at Austin', 'type': 'venue', 'formatted_address': 'Austin, TX 78712\nUnited States of America'}]","[-97.734057, 30.284918]","[['6295630', '6255149', '6252001', '4736286', '4737316', '4671654']]",locality,1.0,active,2019-10-31 22:01:29+00:00,2020-11-10 01:48:28+00:00,,,The University of Texas at Austin,-97.734057,30.284918,academic-session,in-person,not_estimated,True
csKsX7q363rUcPJATk,Spring Session,,2020-01-21 06:00:00+00:00,2020-05-16 04:59:59+00:00,America/Chicago,10018799,academic,"['academic', 'academic-session']",US,58,,,2419.0,"[{'entity_id': '7pWU6Pnc6keuabbSNYFqNu', 'name': 'Austin Community College - Highland Campus', 'type': 'venue', 'formatted_address': '6101 Highland Campus Drive\nAustin, TX 78752\nUnited States of America'}]","[-97.713765, 30.326983]","[['6295630', '6255149', '6252001', '4736286', '4737316', '4669623'], ['6295630', '6255149', '6252001', '4736286', '4737316', '4671654']]",locality,1.0,active,2019-10-31 21:58:00+00:00,2020-10-07 04:03:55+00:00,,,Austin Community College - Highland Campus,-97.713765,30.326983,academic-session,in-person,not_estimated,True
aZQ2bSzMkugxJGDhCU,Winter Break,,2019-12-19 06:00:00+00:00,2020-01-21 05:59:59+00:00,America/Chicago,2851199,academic,"['academic', 'holiday']",US,84,,,51831.0,"[{'entity_id': 'VG9bPvYp7gnnWkYtmnRdCb', 'name': 'The University of Texas at Austin', 'type': 'venue', 'formatted_address': 'Austin, TX 78712\nUnited States of America'}]","[-97.734057, 30.284918]","[['6295630', '6255149', '6252001', '4736286', '4737316', '4671654']]",locality,1.0,active,2019-10-31 22:01:28+00:00,2020-11-10 01:48:39+00:00,,,The University of Texas at Austin,-97.734057,30.284918,holiday,in-person,not_estimated,False
yndKiRpvkNbDQ2kYgY,Winter Break,,2019-12-14 06:00:00+00:00,2020-01-21 05:59:59+00:00,America/Chicago,3283199,academic,"['academic', 'holiday']",US,58,,,2419.0,"[{'entity_id': '7pWU6Pnc6keuabbSNYFqNu', 'name': 'Austin Community College - Highland Campus', 'type': 'venue', 'formatted_address': '6101 Highland Campus Drive\nAustin, TX 78752\nUnited States of America'}]","[-97.713765, 30.326983]","[['6295630', '6255149', '6252001', '4736286', '4737316', '4669623'], ['6295630', '6255149', '6252001', '4736286', '4737316', '4671654']]",locality,1.0,active,2019-10-31 21:57:59+00:00,2020-10-07 17:58:00+00:00,,,Austin Community College - Highland Campus,-97.713765,30.326983,holiday,in-person,not_estimated,False
bv8kAhyHEvxGKZ9rmQ,Austin Community College District - Fall Graduation,,2019-12-14 00:00:00+00:00,2019-12-14 00:00:00+00:00,America/Chicago,0,academic,"['academic', 'graduation']",US,75,,,18600.0,"[{'entity_id': '39ENkzQLMam2qDNVYHwDTX7', 'name': 'Frank C. Erwin, Jr., Special Events Center', 'type': 'venue', 'formatted_address': '1701 Red River Street\nAustin, TX 78701\nUnited States of America'}]","[-97.732169, 30.276954]","[['6295630', '6255149', '6252001', '4736286', '4737316', '4671654']]",locality,1.0,active,2019-10-31 21:57:59+00:00,2021-03-19 13:59:15+00:00,,,"Frank C. Erwin, Jr., Special Events Center",-97.732169,30.276954,graduation,in-person,not_estimated,True
vtmS4Df33yCJKLC4nv,Fall Exams,,2019-12-12 06:00:00+00:00,2019-12-19 05:59:59+00:00,America/Chicago,604799,academic,"['academic', 'exam']",US,84,,,51831.0,"[{'entity_id': 'VG9bPvYp7gnnWkYtmnRdCb', 'name': 'The University of Texas at Austin', 'type': 'venue', 'formatted_address': 'Austin, TX 78712\nUnited States of America'}]","[-97.734057, 30.284918]","[['6295630', '6255149', '6252001', '4736286', '4737316', '4671654']]",locality,1.0,active,2019-10-31 22:01:27+00:00,2020-11-10 01:48:22+00:00,,,The University of Texas at Austin,-97.734057,30.284918,exam,in-person,not_estimated,True
6jgK5cmmQNqCnbAeh7,The University of Texas at Austin - Fall Graduation,,2019-12-07 06:00:00+00:00,2019-12-08 05:59:59+00:00,America/Chicago,86399,academic,"['academic', 'graduation']",US,59,,,2900.0,"[{'entity_id': 'xH33ACXDHdVgA7aP6JSZtZ', 'name': 'Bass Concert Hall', 'type': 'venue', 'formatted_address': '2350 Robert Dedman Drive\nAustin, TX 78712\nUnited States of America'}]","[-97.731236, 30.286095]","[['6295630', '6255149', '6252001', '4736286', '4737316', '4671654']]",locality,1.0,active,2019-10-31 22:01:28+00:00,2020-09-03 22:15:51+00:00,,,Bass Concert Hall,-97.731236,30.286095,graduation,in-person,not_estimated,True
QZbzMXpnTp8RPLbgmQ,Thanksgiving Break,,2019-11-28 06:00:00+00:00,2019-12-02 05:59:59+00:00,America/Chicago,345599,academic,"['academic', 'holiday']",US,58,,,2419.0,"[{'entity_id': '7pWU6Pnc6keuabbSNYFqNu', 'name': 'Austin Community College - Highland Campus', 'type': 'venue', 'formatted_address': '6101 Highland Campus Drive\nAustin, TX 78752\nUnited States of America'}]","[-97.713765, 30.326983]","[['6295630', '6255149', '6252001', '4736286', '4737316', '4669623'], ['6295630', '6255149', '6252001', '4736286', '4737316', '4671654']]",locality,1.0,active,2019-10-31 21:57:58+00:00,2020-10-06 23:12:19+00:00,,,Austin Community College - Highland Campus,-97.713765,30.326983,holiday,in-person,not_estimated,False
MkoDh9vLVCya6bd8xZ,Thanksgiving Break,,2019-11-27 06:00:00+00:00,2019-12-02 05:59:59+00:00,America/Chicago,431999,academic,"['academic', 'holiday']",US,84,,,51831.0,"[{'entity_id': 'VG9bPvYp7gnnWkYtmnRdCb', 'name': 'The University of Texas at Austin', 'type': 'venue', 'formatted_address': 'Austin, TX 78712\nUnited States of America'}]","[-97.734057, 30.284918]","[['6295630', '6255149', '6252001', '4736286', '4737316', '4671654']]",locality,1.0,active,2019-10-31 22:01:27+00:00,2020-11-10 01:48:39+00:00,,,The University of Texas at Austin,-97.734057,30.284918,holiday,in-person,not_estimated,False
5FVUzdrivbrLcRVn7C,Homecoming,,2019-11-09 06:00:00+00:00,2019-11-10 05:59:59+00:00,America/Chicago,86399,academic,"['academic', 'social']",US,0,,,0.0,"[{'entity_id': 'VG9bPvYp7gnnWkYtmnRdCb', 'name': 'The University of Texas at Austin', 'type': 'venue', 'formatted_address': 'Austin, TX 78712\nUnited States of America'}]","[-97.734057, 30.284918]","[['6295630', '6255149', '6252001', '4736286', '4737316', '4671654']]",locality,1.0,active,2019-10-31 22:01:26+00:00,2020-11-10 01:48:54+00:00,,,The University of Texas at Austin,-97.734057,30.284918,social,in-person,not_estimated,True
K4ahvcxQRiHMZnUcVi,Fall Session,,2019-08-28 05:00:00+00:00,2019-12-10 05:59:59+00:00,America/Chicago,8989199,academic,"['academic', 'academic-session']",US,84,,,51831.0,"[{'entity_id': 'VG9bPvYp7gnnWkYtmnRdCb', 'name': 'The University of Texas at Austin', 'type': 'venue', 'formatted_address': 'Austin, TX 78712\nUnited States of America'}]","[-97.734057, 30.284918]","[['6295630', '6255149', '6252001', '4736286', '4737316', '4671654']]",locality,1.0,active,2019-10-31 22:01:26+00:00,2020-11-10 01:48:45+00:00,,,The University of Texas at Austin,-97.734057,30.284918,academic-session,in-person,not_estimated,True
UQeNS8e3t5orKxrysp,Fall Session,,2019-08-26 05:00:00+00:00,2019-12-13 05:59:59+00:00,America/Chicago,9421199,academic,"['academic', 'academic-session']",US,58,,,2419.0,"[{'entity_id': '7pWU6Pnc6keuabbSNYFqNu', 'name': 'Austin Community College - Highland Campus', 'type': 'venue', 'formatted_address': '6101 Highland Campus Drive\nAustin, TX 78752\nUnited States of America'}]","[-97.713765, 30.326983]","[['6295630', '6255149', '6252001', '4736286', '4737316', '4669623'], ['6295630', '6255149', '6252001', '4736286', '4737316', '4671654']]",locality,1.0,active,2019-10-31 21:57:58+00:00,2020-10-19 03:57:33+00:00,,,Austin Community College - Highland Campus,-97.713765,30.326983,academic-session,in-person,not_estimated,True
y6EUoVr33opQ5ruaYE,Summer Session,,2019-06-06 05:00:00+00:00,2019-08-20 04:59:59+00:00,America/Chicago,6479999,academic,"['academic', 'academic-session']",US,74,,,15549.0,"[{'entity_id': 'VG9bPvYp7gnnWkYtmnRdCb', 'name': 'The University of Texas at Austin', 'type': 'venue', 'formatted_address': 'Austin, TX 78712\nUnited States of America'}]","[-97.734057, 30.284918]","[['6295630', '6255149', '6252001', '4736286', '4737316', '4671654']]",locality,1.0,active,2019-10-31 22:01:25+00:00,2020-11-10 01:48:28+00:00,,,The University of Texas at Austin,-97.734057,30.284918,academic-session,in-person,not_estimated,True
rxTZY7TuyHGKkQ984n,Summer Session,,2019-05-28 05:00:00+00:00,2019-08-13 04:59:59+00:00,America/Chicago,6652799,academic,"['academic', 'academic-session']",US,47,,,726.0,"[{'entity_id': '7pWU6Pnc6keuabbSNYFqNu', 'name': 'Austin Community College - Highland Campus', 'type': 'venue', 'formatted_address': '6101 Highland Campus Drive\nAustin, TX 78752\nUnited States of America'}]","[-97.713765, 30.326983]","[['6295630', '6255149', '6252001', '4736286', '4737316', '4669623'], ['6295630', '6255149', '6252001', '4736286', '4737316', '4671654']]",locality,1.0,active,2020-10-18 22:47:06+00:00,2020-10-18 22:47:53+00:00,,,Austin Community College - Highland Campus,-97.713765,30.326983,academic-session,in-person,not_estimated,True
ZdUocKpyrJxrK77ZRp,The University of Texas at Austin - Spring Graduation,,2019-05-24 05:00:00+00:00,2019-05-26 04:59:59+00:00,America/Chicago,172799,academic,"['academic', 'graduation']",US,78,,,24500.0,"[{'entity_id': 'zwgVtu3XAsAvEH6fcvLCcc', 'name': 'University of Texas - Gregory Gym', 'type': 'venue', 'formatted_address': '2101 Speedway\nAustin, TX 78712\nUnited States of America'}]","[-97.736914, 30.283953]","[['6295630', '6255149', '6252001', '4736286', '4737316', '4671654']]",locality,1.0,active,2019-10-31 22:01:24+00:00,2020-09-03 22:09:17+00:00,,,University of Texas - Gregory Gym,-97.736914,30.283953,graduation,in-person,not_estimated,True
zdnESrJTKbZ4ek3sDv,Summer Break,,2019-05-22 05:00:00+00:00,2019-08-29 04:59:59+00:00,America/Chicago,8553599,academic,"['academic', 'holiday']",US,84,,,51831.0,"[{'entity_id': 'VG9bPvYp7gnnWkYtmnRdCb', 'name': 'The University of Texas at Austin', 'type': 'venue', 'formatted_address': 'Austin, TX 78712\nUnited States of America'}]","[-97.734057, 30.284918]","[['6295630', '6255149', '6252001', '4736286', '4737316', '4671654']]",locality,1.0,active,2019-10-31 22:01:25+00:00,2020-11-10 01:48:27+00:00,,,The University of Texas at Austin,-97.734057,30.284918,holiday,in-person,not_estimated,False
mc6n5ge2QRFtMLujzJ,Austin Community College District - Spring Graduation,,2019-05-17 23:00:00+00:00,2019-05-17 23:00:00+00:00,America/Chicago,0,academic,"['academic', 'graduation']",US,72,,,12600.0,"[{'entity_id': '39ENkzQLMam2qDNVYHwDTX7', 'name': 'Frank C. Erwin, Jr., Special Events Center', 'type': 'venue', 'formatted_address': '1701 Red River Street\nAustin, TX 78701\nUnited States of America'}]","[-97.732169, 30.276954]","[['6295630', '6255149', '6252001', '4736286', '4737316', '4671654']]",locality,1.0,active,2019-10-31 21:57:57+00:00,2021-03-19 14:00:17+00:00,,,"Frank C. Erwin, Jr., Special Events Center",-97.732169,30.276954,graduation,in-person,not_estimated,True
K3hdVxwZqFbwCb5TqC,Summer Break,,2019-05-17 05:00:00+00:00,2019-08-26 04:59:59+00:00,America/Chicago,8726399,academic,"['academic', 'holiday']",US,58,,,2419.0,"[{'entity_id': '7pWU6Pnc6keuabbSNYFqNu', 'name': 'Austin Community College - Highland Campus', 'type': 'venue', 'formatted_address': '6101 Highland Campus Drive\nAustin, TX 78752\nUnited States of America'}]","[-97.713765, 30.326983]","[['6295630', '6255149', '6252001', '4736286', '4737316', '4669623'], ['6295630', '6255149', '6252001', '4736286', '4737316', '4671654']]",locality,1.0,active,2020-10-18 22:47:05+00:00,2020-10-18 22:48:05+00:00,,,Austin Community College - Highland Campus,-97.713765,30.326983,holiday,in-person,not_estimated,False
L4MVqdRfT6d6btnPGM,Spring Exams,,2019-05-15 05:00:00+00:00,2019-05-22 04:59:59+00:00,America/Chicago,604799,academic,"['academic', 'exam']",US,84,,,51831.0,"[{'entity_id': 'VG9bPvYp7gnnWkYtmnRdCb', 'name': 'The University of Texas at Austin', 'type': 'venue', 'formatted_address': 'Austin, TX 78712\nUnited States of America'}]","[-97.734057, 30.284918]","[['6295630', '6255149', '6252001', '4736286', '4737316', '4671654']]",locality,1.0,active,2019-10-31 22:01:24+00:00,2020-11-10 01:48:28+00:00,,,The University of Texas at Austin,-97.734057,30.284918,exam,in-person,not_estimated,True
3V7n5VdBVxx2yL4tML,Spring Break,,2019-03-16 05:00:00+00:00,2019-03-25 04:59:59+00:00,America/Chicago,777599,academic,"['academic', 'holiday']",US,84,,,51831.0,"[{'entity_id': 'VG9bPvYp7gnnWkYtmnRdCb', 'name': 'The University of Texas at Austin', 'type': 'venue', 'formatted_address': 'Austin, TX 78712\nUnited States of America'}]","[-97.734057, 30.284918]","[['6295630', '6255149', '6252001', '4736286', '4737316', '4671654']]",locality,1.0,active,2019-10-31 22:01:23+00:00,2020-11-10 01:48:28+00:00,,,The University of Texas at Austin,-97.734057,30.284918,holiday,in-person,not_estimated,False
zwo3TdnKxuhS8jJSPE,Spring Break,,2019-03-16 05:00:00+00:00,2019-03-25 04:59:59+00:00,America/Chicago,777599,academic,"['academic', 'holiday']",US,58,,,2419.0,"[{'entity_id': '7pWU6Pnc6keuabbSNYFqNu', 'name': 'Austin Community College - Highland Campus', 'type': 'venue', 'formatted_address': '6101 Highland Campus Drive\nAustin, TX 78752\nUnited States of America'}]","[-97.713765, 30.326983]","[['6295630', '6255149', '6252001', '4736286', '4737316', '4669623'], ['6295630', '6255149', '6252001', '4736286', '4737316', '4671654']]",locality,1.0,active,2020-10-18 22:47:04+00:00,2020-10-18 22:47:40+00:00,,,Austin Community College - Highland Campus,-97.713765,30.326983,holiday,in-person,not_estimated,False
Hf7bFqAB9hUnc9atgh,Spring Session,,2019-01-22 06:00:00+00:00,2019-05-17 04:59:59+00:00,America/Chicago,9932399,academic,"['academic', 'academic-session']",US,58,,,2419.0,"[{'entity_id': '7pWU6Pnc6keuabbSNYFqNu', 'name': 'Austin Community College - Highland Campus', 'type': 'venue', 'formatted_address': '6101 Highland Campus Drive\nAustin, TX 78752\nUnited States of America'}]","[-97.713765, 30.326983]","[['6295630', '6255149', '6252001', '4736286', '4737316', '4669623'], ['6295630', '6255149', '6252001', '4736286', '4737316', '4671654']]",locality,1.0,active,2020-10-18 22:47:03+00:00,2020-10-18 22:48:17+00:00,,,Austin Community College - Highland Campus,-97.713765,30.326983,academic-session,in-person,not_estimated,True
cS5xpZNdzGSd2MM5M2,Spring Session,,2019-01-22 06:00:00+00:00,2019-05-11 04:59:59+00:00,America/Chicago,9413999,academic,"['academic', 'academic-session']",US,84,,,51831.0,"[{'entity_id': 'VG9bPvYp7gnnWkYtmnRdCb', 'name': 'The University of Texas at Austin', 'type': 'venue', 'formatted_address': 'Austin, TX 78712\nUnited States of America'}]","[-97.734057, 30.284918]","[['6295630', '6255149', '6252001', '4736286', '4737316', '4671654']]",locality,1.0,active,2019-10-31 22:01:23+00:00,2020-11-10 01:48:54+00:00,,,The University of Texas at Austin,-97.734057,30.284918,academic-session,in-person,not_estimated,True
DDq5EebcyvWXUkac9x,Winter Break,,2018-12-20 06:00:00+00:00,2019-01-22 05:59:59+00:00,America/Chicago,2851199,academic,"['academic', 'holiday']",US,84,,,51831.0,"[{'entity_id': 'VG9bPvYp7gnnWkYtmnRdCb', 'name': 'The University of Texas at Austin', 'type': 'venue', 'formatted_address': 'Austin, TX 78712\nUnited States of America'}]","[-97.734057, 30.284918]","[['6295630', '6255149', '6252001', '4736286', '4737316', '4671654']]",locality,1.0,active,2019-10-31 22:01:22+00:00,2020-11-10 01:48:28+00:00,,,The University of Texas at Austin,-97.734057,30.284918,holiday,in-person,not_estimated,False
TQtBfms4iKTmN648dF,Winter Break,,2018-12-14 06:00:00+00:00,2019-01-22 05:59:59+00:00,America/Chicago,3369599,academic,"['academic', 'holiday']",US,58,,,2391.0,"[{'entity_id': '7pWU6Pnc6keuabbSNYFqNu', 'name': 'Austin Community College - Highland Campus', 'type': 'venue', 'formatted_address': '6101 Highland Campus Drive\nAustin, TX 78752\nUnited States of America'}]","[-97.713765, 30.326983]","[['6295630', '6255149', '6252001', '4736286', '4737316', '4669623'], ['6295630', '6255149', '6252001', '4736286', '4737316', '4671654']]",locality,1.0,active,2020-10-18 22:47:02+00:00,2020-10-18 22:48:21+00:00,,,Austin Community College - Highland Campus,-97.713765,30.326983,holiday,in-person,not_estimated,False
