cancelled,category,country,deleted_reason,description,duplicate_of_id,duration,end,first_seen,id,labels,location,place_hierarchies,postponed,relevance,scope,start,state,timezone,title,updated,aviation_rank,brand_safe,entities,local_rank,phq_attendance,predicted_end,private,rank,entity_name,longitude,latitude,sub_category,session_type,estimated,on_campus
,academic,US,,,,4751999,2021-02-16 07:59:59+00:00,2020-08-27 22:59:43+00:00,Phxjnbcp4JPuYwU5f4,"['academic', 'holiday']","[-118.470395, 34.016557]","[['6295630', '6255149', '6252001', '5332921', '5368381', '5393701'], ['6295630', '6255149', '6252001', '5332921', '5368381', '5368361']]",,1.0,locality,2020-12-23 08:00:00+00:00,active,America/Los_Angeles,Winter Break,2020-09-03 22:30:05+00:00,,,"[{'entity_id': 'PzFqeGx7V5zPwb2zemvXTB', 'name': 'Santa Monica College', 'type': 'venue', 'formatted_address': '1900 Pico Boulevard\nSanta Monica, CA 90405\nUnited States of America'}]",,24153.0,,False,78,Santa Monica College,-118.470395,34.016557,holiday,in-person,not_estimated,False
,academic,US,,,,1382399,2021-01-04 07:59:59+00:00,2020-08-27 23:06:19+00:00,ELJQRjQ9sEksGjrnhX,"['academic', 'holiday']","[-118.445181, 34.068921]","[['6295630', '6255149', '6252001', '5332921', '5368381', '5408545'], ['6295630', '6255149', '6252001', '5332921', '5368381', '5368361']]",,1.0,locality,2020-12-19 08:00:00+00:00,active,America/Los_Angeles,Winter Break,2020-09-03 22:29:16+00:00,,,"[{'entity_id': '32afGxjEeXh84pfVwWY9qUk', 'name': 'University of California - Los Angeles', 'type': 'venue', 'formatted_address': 'Los Angeles, CA 90095\nUnited States of America'}]",,31543.0,,False,80,University of California - Los Angeles,-118.445181,34.068921,holiday,in-person,not_estimated,False
,academic,US,,,,1987199,2021-01-11 07:59:59+00:00,2020-08-27 22:39:39+00:00,GnZDn9boJZQr47xFtR,"['academic', 'holiday']","[-118.416611, 33.970163]","[['6295630', '6255149', '6252001', '5332921', '5368381', '5323452'], ['6295630', '6255149', '6252001', '5332921', '5368381', '5368361']]",,1.0,locality,2020-12-19 08:00:00+00:00,active,America/Los_Angeles,Winter Break,2020-09-03 22:16:18+00:00,,,"[{'entity_id': 'w5KkFLAQnvrWF8nDe4PKWQ', 'name': 'Loyola Marymount University', 'type': 'venue', 'formatted_address': '1 Loyola Marymount University Drive\nLos Angeles, CA 90045\nUnited States of America'}]",,6665.0,,False,66,Loyola Marymount University,-118.416611,33.970163,holiday,in-person,not_estimated,False
,academic,US,,,,4406399,2021-02-08 07:59:59+00:00,2020-08-27 22:35:32+00:00,JLzRJHLjwztuQXc8dS,"['academic', 'holiday']","[-118.292473, 34.087269]","[['6295630', '6255149', '6252001', '5332921', '5368381', '5368361'], ['6295630', '6255149', '6252001', '5332921', '5368381', '8062691']]",,1.0,locality,2020-12-19 08:00:00+00:00,active,America/Los_Angeles,Winter Break,2020-09-03 22:19:04+00:00,,,"[{'entity_id': 'htkLSUCJvJffjDUhU7cfeC', 'name': 'Los Angeles City College', 'type': 'venue', 'formatted_address': '855 North Vermont Avenue\nLos Angeles, CA 90029\nUnited States of America'}]",,10646.0,,False,71,Los Angeles City College,-118.292473,34.087269,holiday,in-person,not_estimated,False
,academic,US,,,,4406399,2021-02-08 07:59:59+00:00,2020-08-27 23:11:57+00:00,JoDK82KppSPCHafpJ3,"['academic', 'holiday']","[-118.387156, 34.004228]","[['6295630', '6255149', '6252001', '5332921', '5368381', '5364195'], ['6295630', '6255149', '6252001', '5332921', '5368381', '5368361']]",,1.0,locality,2020-12-19 08:00:00+00:00,active,America/Los_Angeles,Winter Break,2020-09-03 22:21:12+00:00,,,"[{'entity_id': 'aZtwEWCRc8nfX4CcFksdip', 'name': 'West Los Angeles College', 'type': 'venue', 'formatted_address': '9000 Overland Avenue\nCulver City, CA 90230\nUnited States of America'}]",,2478.0,,False,58,West Los Angeles College,-118.387156,34.004228,holiday,in-person,not_estimated,False
,academic,US,,,,4406399,2021-02-08 07:59:59+00:00,2020-08-27 22:38:40+00:00,ggDnoyLSVKv6CviMcL,"['academic', 'estimated', 'holiday']","[-118.421718, 34.175568]","[['6295630', '6255149', '6252001', '5332921', '5368381', '5368361'], ['6295630', '6255149', '6252001', '5332921', '5368381', '5363024']]",,1.0,locality,2020-12-19 08:00:00+00:00,active,America/Los_Angeles,Winter Break,2021-03-23 19:53:33+00:00,,,"[{'entity_id': 'vveYakrX9C6U3CBvFSZSNQ', 'name': 'Los Angeles Valley College', 'type': 'venue', 'formatted_address': '5800 Fulton Avenue\nLos Angeles, CA 91401\nUnited States of America'}]",,11917.0,,False,72,Los Angeles Valley College,-118.421718,34.175568,holiday,in-person,estimated,False
,academic,US,,,,4406399,2021-02-08 07:59:59+00:00,2020-08-27 22:38:10+00:00,pJHKKLgcW2fcHniQkZ,"['academic', 'estimated', 'holiday']","[-118.269695, 34.032848]","[['6295630', '6255149', '6252001', '5332921', '5368381', '5368361'], ['6295630', '6255149', '6252001', '5332921', '5368381', '5360529']]",,1.0,locality,2020-12-19 08:00:00+00:00,active,America/Los_Angeles,Winter Break,2020-09-03 22:19:55+00:00,,,"[{'entity_id': '36Ni6bFidX2bME3rKyW8m8R', 'name': 'Los Angeles Trade Technical College', 'type': 'venue', 'formatted_address': '400 West Washington Boulevard\nLos Angeles, CA 90015\nUnited States of America'}]",,10263.0,,False,70,Los Angeles Trade Technical College,-118.269695,34.032848,holiday,in-person,estimated,False
,academic,US,,,,5788799,2021-02-22 07:59:59+00:00,2020-08-27 22:30:31+00:00,nCZzuSeGXT4rsx5jtv,"['academic', 'holiday']","[-118.227919, 34.16658]","[['6295630', '6255149', '6252001', '5332921', '5368381', '5344624'], ['6295630', '6255149', '6252001', '5332921', '5368381', '5368361']]",,1.0,locality,2020-12-17 08:00:00+00:00,active,America/Los_Angeles,Winter Break,2020-09-03 22:28:32+00:00,,,"[{'entity_id': '37Kjv45jpCD2iLBByC83iUW', 'name': 'Glendale Community College', 'type': 'venue', 'formatted_address': '1500 North Verdugo Road\nGlendale, CA 91208\nUnited States of America'}]",,14781.0,,False,73,Glendale Community College,-118.227919,34.16658,holiday,in-person,not_estimated,False
,academic,US,,,,691199,2020-12-23 07:59:59+00:00,2020-08-27 22:59:42+00:00,CHBmTCYBXN6EsfuGW5,"['academic', 'exam', 'online-session']","[-118.470395, 34.016557]","[['6295630', '6255149', '6252001', '5332921', '5368381', '5393701'], ['6295630', '6255149', '6252001', '5332921', '5368381', '5368361']]",,1.0,locality,2020-12-15 08:00:00+00:00,active,America/Los_Angeles,Fall Exams,2020-10-21 02:12:04+00:00,,,"[{'entity_id': 'PzFqeGx7V5zPwb2zemvXTB', 'name': 'Santa Monica College', 'type': 'venue', 'formatted_address': '1900 Pico Boulevard\nSanta Monica, CA 90405\nUnited States of America'}]",,0.0,,False,0,Santa Monica College,-118.470395,34.016557,exam,online-session,not_estimated,True
,academic,US,,,,431999,2020-12-19 07:59:59+00:00,2020-08-27 23:11:56+00:00,8cLvpUsixHkqRRYQ4a,"['academic', 'exam', 'online-session']","[-118.387156, 34.004228]","[['6295630', '6255149', '6252001', '5332921', '5368381', '5364195'], ['6295630', '6255149', '6252001', '5332921', '5368381', '5368361']]",,1.0,locality,2020-12-14 08:00:00+00:00,active,America/Los_Angeles,Fall Exams,2020-10-21 02:12:37+00:00,,,"[{'entity_id': 'aZtwEWCRc8nfX4CcFksdip', 'name': 'West Los Angeles College', 'type': 'venue', 'formatted_address': '9000 Overland Avenue\nCulver City, CA 90230\nUnited States of America'}]",,0.0,,False,0,West Los Angeles College,-118.387156,34.004228,exam,online-session,not_estimated,True
,academic,US,,,,431999,2020-12-19 07:59:59+00:00,2020-08-27 23:07:01+00:00,D9JoRUVfJ9YJDFiFNC,"['academic', 'exam', 'online-session']","[-118.445181, 34.068921]","[['6295630', '6255149', '6252001', '5332921', '5368381', '5408545'], ['6295630', '6255149', '6252001', '5332921', '5368381', '5368361']]",,1.0,locality,2020-12-14 08:00:00+00:00,active,America/Los_Angeles,Fall Exams,2020-10-21 02:08:39+00:00,,,"[{'entity_id': '32afGxjEeXh84pfVwWY9qUk', 'name': 'University of California - Los Angeles', 'type': 'venue', 'formatted_address': 'Los Angeles, CA 90095\nUnited States of America'}]",,3157.0,,False,60,University of California - Los Angeles,-118.445181,34.068921,exam,online-session,not_estimated,True
,academic,US,,,,431999,2020-12-19 07:59:59+00:00,2020-08-27 22:35:31+00:00,PsX5mjJTQx9xN8eU25,"['academic', 'exam', 'online-session']","[-118.292473, 34.087269]","[['6295630', '6255149', '6252001', '5332921', '5368381', '5368361'], ['6295630', '6255149', '6252001', '5332921', '5368381', '8062691']]",,1.0,locality,2020-12-14 08:00:00+00:00,active,America/Los_Angeles,Fall Exams,2020-10-21 02:14:15+00:00,,,"[{'entity_id': 'htkLSUCJvJffjDUhU7cfeC', 'name': 'Los Angeles City College', 'type': 'venue', 'formatted_address': '855 North Vermont Avenue\nLos Angeles, CA 90029\nUnited States of America'}]",,0.0,,False,0,Los Angeles City College,-118.292473,34.087269,exam,online-session,not_estimated,True
,academic,US,,,,431999,2020-12-19 07:59:59+00:00,2020-08-27 22:39:38+00:00,jPXiP2cTuSHoyLxYXW,"['academic', 'exam', 'online-session']","[-118.416611, 33.970163]","[['6295630', '6255149', '6252001', '5332921', '5368381', '5323452'], ['6295630', '6255149', '6252001', '5332921', '5368381', '5368361']]",,1.0,locality,2020-12-14 08:00:00+00:00,active,America/Los_Angeles,Fall Exams,2020-10-21 02:11:54+00:00,,,"[{'entity_id': 'w5KkFLAQnvrWF8nDe4PKWQ', 'name': 'Loyola Marymount University', 'type': 'venue', 'formatted_address': '1 Loyola Marymount University Drive\nLos Angeles, CA 90045\nUnited States of America'}]",,667.0,,False,46,Loyola Marymount University,-118.416611,33.970163,exam,online-session,not_estimated,True
,academic,US,,,,431999,2020-12-19 07:59:59+00:00,2020-08-27 22:38:40+00:00,kpneoifZodFcRwNq7V,"['academic', 'exam', 'online-session']","[-118.421718, 34.175568]","[['6295630', '6255149', '6252001', '5332921', '5368381', '5368361'], ['6295630', '6255149', '6252001', '5332921', '5368381', '5363024']]",,1.0,locality,2020-12-14 08:00:00+00:00,active,America/Los_Angeles,Fall Exams,2020-10-21 02:15:32+00:00,,,"[{'entity_id': 'vveYakrX9C6U3CBvFSZSNQ', 'name': 'Los Angeles Valley College', 'type': 'venue', 'formatted_address': '5800 Fulton Avenue\nLos Angeles, CA 91401\nUnited States of America'}]",,0.0,,False,0,Los Angeles Valley College,-118.421718,34.175568,exam,online-session,not_estimated,True
,academic,US,,,,431999,2020-12-19 07:59:59+00:00,2020-08-27 22:38:09+00:00,uedyXru7Q4urBNmYoa,"['academic', 'exam', 'hybrid-session']","[-118.269695, 34.032848]","[['6295630', '6255149', '6252001', '5332921', '5368381', '5368361'], ['6295630', '6255149', '6252001', '5332921', '5368381', '5360529']]",,1.0,locality,2020-12-14 08:00:00+00:00,active,America/Los_Angeles,Fall Exams,2020-10-21 02:11:54+00:00,,,"[{'entity_id': '36Ni6bFidX2bME3rKyW8m8R', 'name': 'Los Angeles Trade Technical College', 'type': 'venue', 'formatted_address': '400 West Washington Boulevard\nLos Angeles, CA 90015\nUnited States of America'}]",,4291.0,,False,63,Los Angeles Trade Technical College,-118.269695,34.032848,exam,hybrid-session,not_estimated,True
,academic,US,,,,691199,2020-12-17 07:59:59+00:00,2020-08-27 22:30:30+00:00,dZVtV9m7wqxwZdwV7y,"['academic', 'exam', 'online-session']","[-118.227919, 34.16658]","[['6295630', '6255149', '6252001', '5332921', '5368381', '5344624'], ['6295630', '6255149', '6252001', '5332921', '5368381', '5368361']]",,1.0,locality,2020-12-09 08:00:00+00:00,active,America/Los_Angeles,Fall Exams,2020-10-21 02:12:31+00:00,,,"[{'entity_id': '37Kjv45jpCD2iLBByC83iUW', 'name': 'Glendale Community College', 'type': 'venue', 'formatted_address': '1500 North Verdugo Road\nGlendale, CA 91208\nUnited States of America'}]",,1477.0,,False,53,Glendale Community College,-118.227919,34.16658,exam,online-session,not_estimated,True
,academic,US,,,,345599,2020-11-30 07:59:59+00:00,2020-08-27 23:11:56+00:00,4BYRanvphRTy388uQv,"['academic', 'holiday']","[-118.387156, 34.004228]","[['6295630', '6255149', '6252001', '5332921', '5368381', '5364195'], ['6295630', '6255149', '6252001', '5332921', '5368381', '5368361']]",,1.0,locality,2020-11-26 08:00:00+00:00,active,America/Los_Angeles,Thanksgiving Break,2020-09-03 22:28:45+00:00,,,"[{'entity_id': 'aZtwEWCRc8nfX4CcFksdip', 'name': 'West Los Angeles College', 'type': 'venue', 'formatted_address': '9000 Overland Avenue\nCulver City, CA 90230\nUnited States of America'}]",,2478.0,,False,58,West Los Angeles College,-118.387156,34.004228,holiday,in-person,not_estimated,False
,academic,US,,,,345599,2020-11-30 07:59:59+00:00,2020-08-27 22:38:39+00:00,7aHtSx9A3WVRkoms89,"['academic', 'holiday']","[-118.421718, 34.175568]","[['6295630', '6255149', '6252001', '5332921', '5368381', '5368361'], ['6295630', '6255149', '6252001', '5332921', '5368381', '5363024']]",,1.0,locality,2020-11-26 08:00:00+00:00,active,America/Los_Angeles,Thanksgiving Break,2021-03-23 20:20:42+00:00,,,"[{'entity_id': 'vveYakrX9C6U3CBvFSZSNQ', 'name': 'Los Angeles Valley College', 'type': 'venue', 'formatted_address': '5800 Fulton Avenue\nLos Angeles, CA 91401\nUnited States of America'}]",,11917.0,,False,72,Los Angeles Valley College,-118.421718,34.175568,holiday,in-person,not_estimated,False
,academic,US,,,,345599,2020-11-30 07:59:59+00:00,2020-08-27 22:59:41+00:00,ToYkZCxjsdFzhaeiQX,"['academic', 'holiday']","[-118.470395, 34.016557]","[['6295630', '6255149', '6252001', '5332921', '5368381', '5393701'], ['6295630', '6255149', '6252001', '5332921', '5368381', '5368361']]",,1.0,locality,2020-11-26 08:00:00+00:00,active,America/Los_Angeles,Thanksgiving Break,2020-09-03 22:20:25+00:00,,,"[{'entity_id': 'PzFqeGx7V5zPwb2zemvXTB', 'name': 'Santa Monica College', 'type': 'venue', 'formatted_address': '1900 Pico Boulevard\nSanta Monica, CA 90405\nUnited States of America'}]",,24153.0,,False,78,Santa Monica College,-118.470395,34.016557,holiday,in-person,not_estimated,False
,academic,US,,,,345599,2020-11-30 07:59:59+00:00,2020-08-27 22:38:07+00:00,Uk7vki4n89RdUSnbWW,"['academic', 'holiday']","[-118.269695, 34.032848]","[['6295630', '6255149', '6252001', '5332921', '5368381', '5368361'], ['6295630', '6255149', '6252001', '5332921', '5368381', '5360529']]",,1.0,locality,2020-11-26 08:00:00+00:00,active,America/Los_Angeles,Thanksgiving Break,2020-09-03 22:19:45+00:00,,,"[{'entity_id': '36Ni6bFidX2bME3rKyW8m8R', 'name': 'Los Angeles Trade Technical College', 'type': 'venue', 'formatted_address': '400 West Washington Boulevard\nLos Angeles, CA 90015\nUnited States of America'}]",,10263.0,,False,70,Los Angeles Trade Technical College,-118.269695,34.032848,holiday,in-person,not_estimated,False
,academic,US,,,,345599,2020-11-30 07:59:59+00:00,2020-08-27 22:35:30+00:00,aKWiC7Acdbihb44fUt,"['academic', 'holiday']","[-118.292473, 34.087269]","[['6295630', '6255149', '6252001', '5332921', '5368381', '5368361'], ['6295630', '6255149', '6252001', '5332921', '5368381', '8062691']]",,1.0,locality,2020-11-26 08:00:00+00:00,active,America/Los_Angeles,Thanksgiving Break,2020-09-03 22:27:30+00:00,,,"[{'entity_id': 'htkLSUCJvJffjDUhU7cfeC', 'name': 'Los Angeles City College', 'type': 'venue', 'formatted_address': '855 North Vermont Avenue\nLos Angeles, CA 90029\nUnited States of America'}]",,10646.0,,False,71,Los Angeles City College,-118.292473,34.087269,holiday,in-person,not_estimated,False
,academic,US,,,,345599,2020-11-30 07:59:59+00:00,2020-08-27 23:06:14+00:00,fvrzyabmm2bZQQyfQT,"['academic', 'holiday']","[-118.445181, 34.068921]","[['6295630', '6255149', '6252001', '5332921', '5368381', '5408545'], ['6295630', '6255149', '6252001', '5332921', '5368381', '5368361']]",,1.0,locality,2020-11-26 08:00:00+00:00,active,America/Los_Angeles,Thanksgiving Break,2020-09-03 22:17:47+00:00,,,"[{'entity_id': '32afGxjEeXh84pfVwWY9qUk', 'name': 'University of California - Los Angeles', 'type': 'venue', 'formatted_address': 'Los Angeles, CA 90095\nUnited States of America'}]",,31543.0,,False,80,University of California - Los Angeles,-118.445181,34.068921,holiday,in-person,not_estimated,False
,academic,US,,,,345599,2020-11-30 07:59:59+00:00,2020-08-27 22:30:28+00:00,hAyCPwXL7tfTtp5rkw,"['academic', 'holiday']","[-118.227919, 34.16658]","[['6295630', '6255149', '6252001', '5332921', '5368381', '5344624'], ['6295630', '6255149', '6252001', '5332921', '5368381', '5368361']]",,1.0,locality,2020-11-26 08:00:00+00:00,active,America/Los_Angeles,Thanksgiving Break,2020-09-03 22:12:54+00:00,,,"[{'entity_id': '37Kjv45jpCD2iLBByC83iUW', 'name': 'Glendale Community College', 'type': 'venue', 'formatted_address': '1500 North Verdugo Road\nGlendale, CA 91208\nUnited States of America'}]",,14781.0,,False,73,Glendale Community College,-118.227919,34.16658,holiday,in-person,not_estimated,False
,academic,US,,,,431999,2020-11-30 07:59:59+00:00,2020-08-27 22:39:37+00:00,Qic4bYqewtcmbCosE8,"['academic', 'holiday']","[-118.416611, 33.970163]","[['6295630', '6255149', '6252001', '5332921', '5368381', '5323452'], ['6295630', '6255149', '6252001', '5332921', '5368381', '5368361']]",,1.0,locality,2020-11-25 08:00:00+00:00,active,America/Los_Angeles,Thanksgiving Break,2020-09-03 22:20:53+00:00,,,"[{'entity_id': 'w5KkFLAQnvrWF8nDe4PKWQ', 'name': 'Loyola Marymount University', 'type': 'venue', 'formatted_address': '1 Loyola Marymount University Drive\nLos Angeles, CA 90045\nUnited States of America'}]",,6665.0,,False,66,Loyola Marymount University,-118.416611,33.970163,holiday,in-person,not_estimated,False
,academic,US,,,,4060799,2021-01-11 07:59:59+00:00,2020-08-27 23:09:56+00:00,tMSyYGva5wuuVyMzVW,"['academic', 'holiday']","[-118.285117, 34.022352]","[['6295630', '6255149', '6252001', '5332921', '5368381', '5368361'], ['6295630', '6255149', '6252001', '5332921', '5368381', '5360529']]",,1.0,locality,2020-11-25 08:00:00+00:00,active,America/Los_Angeles,Winter Break,2020-09-03 22:28:00+00:00,,,"[{'entity_id': 'LD5w4M9KxZgSmmhvgbYdYz', 'name': 'University of Southern California', 'type': 'venue', 'formatted_address': 'Los Angeles, CA 90007\nUnited States of America'}]",,20499.0,,False,76,University of Southern California,-118.285117,34.022352,holiday,in-person,not_estimated,False
,academic,US,,,,691199,2020-11-25 07:59:59+00:00,2020-08-27 23:09:55+00:00,QSc3Rg5Qcrpd37DQRq,"['academic', 'exam', 'online-session']","[-118.285117, 34.022352]","[['6295630', '6255149', '6252001', '5332921', '5368381', '5368361'], ['6295630', '6255149', '6252001', '5332921', '5368381', '5360529']]",,1.0,locality,2020-11-17 08:00:00+00:00,active,America/Los_Angeles,Fall Exams,2020-10-21 02:09:48+00:00,,,"[{'entity_id': 'LD5w4M9KxZgSmmhvgbYdYz', 'name': 'University of Southern California', 'type': 'venue', 'formatted_address': 'Los Angeles, CA 90007\nUnited States of America'}]",,2050.0,,False,56,University of Southern California,-118.285117,34.022352,exam,online-session,not_estimated,True
,academic,US,,,,86399,2020-11-15 07:59:59+00:00,2020-08-27 23:09:54+00:00,4gcMhcMhtjffLL4F7p,"['academic', 'social']","[-118.285117, 34.022352]","[['6295630', '6255149', '6252001', '5332921', '5368381', '5368361'], ['6295630', '6255149', '6252001', '5332921', '5368381', '5360529']]",,1.0,locality,2020-11-14 08:00:00+00:00,active,America/Los_Angeles,Homecoming,2020-08-27 23:38:35+00:00,,,"[{'entity_id': 'LD5w4M9KxZgSmmhvgbYdYz', 'name': 'University of Southern California', 'type': 'venue', 'formatted_address': 'Los Angeles, CA 90007\nUnited States of America'}]",,0.0,,False,0,University of Southern California,-118.285117,34.022352,social,in-person,not_estimated,True
,academic,US,,,,6224399,2020-12-12 07:59:59+00:00,2020-08-27 23:06:14+00:00,drz4LGojez5cQY9QBt,"['academic', 'academic-session', 'online-session']","[-118.445181, 34.068921]","[['6295630', '6255149', '6252001', '5332921', '5368381', '5408545'], ['6295630', '6255149', '6252001', '5332921', '5368381', '5368361']]",,1.0,locality,2020-10-01 07:00:00+00:00,active,America/Los_Angeles,Fall Session,2020-10-21 02:13:13+00:00,,,"[{'entity_id': '32afGxjEeXh84pfVwWY9qUk', 'name': 'University of California - Los Angeles', 'type': 'venue', 'formatted_address': 'Los Angeles, CA 90095\nUnited States of America'}]",,3157.0,,False,60,University of California - Los Angeles,-118.445181,34.068921,academic-session,online-session,not_estimated,True
,academic,US,,,,8902799,2020-12-12 07:59:59+00:00,2020-08-27 22:35:29+00:00,4G9yJCPgUNL53HzD4R,"['academic', 'academic-session', 'online-session']","[-118.292473, 34.087269]","[['6295630', '6255149', '6252001', '5332921', '5368381', '5368361'], ['6295630', '6255149', '6252001', '5332921', '5368381', '8062691']]",,1.0,locality,2020-08-31 07:00:00+00:00,active,America/Los_Angeles,Fall Session,2020-10-21 01:55:18+00:00,,,"[{'entity_id': 'htkLSUCJvJffjDUhU7cfeC', 'name': 'Los Angeles City College', 'type': 'venue', 'formatted_address': '855 North Vermont Avenue\nLos Angeles, CA 90029\nUnited States of America'}]",,0.0,,False,0,Los Angeles City College,-118.292473,34.087269,academic-session,online-session,not_estimated,True
,academic,US,,,,9161999,2020-12-15 07:59:59+00:00,2020-08-27 22:59:40+00:00,7cg4U4jNAayuTYjMN4,"['academic', 'academic-session', 'online-session']","[-118.470395, 34.016557]","[['6295630', '6255149', '6252001', '5332921', '5368381', '5393701'], ['6295630', '6255149', '6252001', '5332921', '5368381', '5368361']]",,1.0,locality,2020-08-31 07:00:00+00:00,active,America/Los_Angeles,Fall Session,2020-10-21 02:10:06+00:00,,,"[{'entity_id': 'PzFqeGx7V5zPwb2zemvXTB', 'name': 'Santa Monica College', 'type': 'venue', 'formatted_address': '1900 Pico Boulevard\nSanta Monica, CA 90405\nUnited States of America'}]",,0.0,,False,0,Santa Monica College,-118.470395,34.016557,academic-session,online-session,not_estimated,True
,academic,US,,,,8643599,2020-12-09 07:59:59+00:00,2020-08-27 22:30:27+00:00,EuVRtfJ8fBNBnGNXT6,"['academic', 'academic-session', 'online-session']","[-118.227919, 34.16658]","[['6295630', '6255149', '6252001', '5332921', '5368381', '5344624'], ['6295630', '6255149', '6252001', '5332921', '5368381', '5368361']]",,1.0,locality,2020-08-31 07:00:00+00:00,active,America/Los_Angeles,Fall Session,2020-10-21 01:59:19+00:00,,,"[{'entity_id': '37Kjv45jpCD2iLBByC83iUW', 'name': 'Glendale Community College', 'type': 'venue', 'formatted_address': '1500 North Verdugo Road\nGlendale, CA 91208\nUnited States of America'}]",,1477.0,,False,53,Glendale Community College,-118.227919,34.16658,academic-session,online-session,not_estimated,True
,academic,US,,,,8902799,2020-12-12 07:59:59+00:00,2020-08-27 22:38:38+00:00,T2kMzHLKNkkAjtbtfT,"['academic', 'academic-session', 'online-session']","[-118.421718, 34.175568]","[['6295630', '6255149', '6252001', '5332921', '5368381', '5368361'], ['6295630', '6255149', '6252001', '5332921', '5368381', '5363024']]",,1.0,locality,2020-08-31 07:00:00+00:00,active,America/Los_Angeles,Fall Session,2020-10-21 02:16:16+00:00,,,"[{'entity_id': 'vveYakrX9C6U3CBvFSZSNQ', 'name': 'Los Angeles Valley College', 'type': 'venue', 'formatted_address': '5800 Fulton Avenue\nLos Angeles, CA 91401\nUnited States of America'}]",,0.0,,False,0,Los Angeles Valley College,-118.421718,34.175568,academic-session,online-session,not_estimated,True
,academic,US,,,,8902799,2020-12-12 07:59:59+00:00,2020-08-27 23:11:55+00:00,TXba4nkiCHSZcj8Pf3,"['academic', 'academic-session', 'online-session']","[-118.387156, 34.004228]","[['6295630', '6255149', '6252001', '5332921', '5368381', '5364195'], ['6295630', '6255149', '6252001', '5332921', '5368381', '5368361']]",,1.0,locality,2020-08-31 07:00:00+00:00,active,America/Los_Angeles,Fall Session,2020-10-21 02:02:30+00:00,,,"[{'entity_id': 'aZtwEWCRc8nfX4CcFksdip', 'name': 'West Los Angeles College', 'type': 'venue', 'formatted_address': '9000 Overland Avenue\nCulver City, CA 90230\nUnited States of America'}]",,0.0,,False,0,West Los Angeles College,-118.387156,34.004228,academic-session,online-session,not_estimated,True
,academic,US,,,,8902799,2020-12-12 07:59:59+00:00,2020-08-27 22:38:06+00:00,csygmxWmEz7kYnF2MT,"['academic', 'academic-session', 'hybrid-session']","[-118.269695, 34.032848]","[['6295630', '6255149', '6252001', '5332921', '5368381', '5368361'], ['6295630', '6255149', '6252001', '5332921', '5368381', '5360529']]",,1.0,locality,2020-08-31 07:00:00+00:00,active,America/Los_Angeles,Fall Session,2020-10-21 02:13:10+00:00,,,"[{'entity_id': '36Ni6bFidX2bME3rKyW8m8R', 'name': 'Los Angeles Trade Technical College', 'type': 'venue', 'formatted_address': '400 West Washington Boulevard\nLos Angeles, CA 90015\nUnited States of America'}]",,4291.0,,False,63,Los Angeles Trade Technical College,-118.269695,34.032848,academic-session,hybrid-session,not_estimated,True
,academic,US,,,,8902799,2020-12-12 07:59:59+00:00,2020-08-27 22:39:35+00:00,ktQTh2ZjQVF5c3cNPi,"['academic', 'academic-session', 'online-session']","[-118.416611, 33.970163]","[['6295630', '6255149', '6252001', '5332921', '5368381', '5323452'], ['6295630', '6255149', '6252001', '5332921', '5368381', '5368361']]",,1.0,locality,2020-08-31 07:00:00+00:00,active,America/Los_Angeles,Fall Session,2020-10-21 02:10:03+00:00,,,"[{'entity_id': 'w5KkFLAQnvrWF8nDe4PKWQ', 'name': 'Loyola Marymount University', 'type': 'venue', 'formatted_address': '1 Loyola Marymount University Drive\nLos Angeles, CA 90045\nUnited States of America'}]",,667.0,,False,46,Loyola Marymount University,-118.416611,33.970163,academic-session,online-session,not_estimated,True
,academic,US,,,,7693199,2020-11-14 07:59:59+00:00,2020-08-27 23:09:54+00:00,MqXG5JLJvWmhbrbfvo,"['academic', 'academic-session', 'online-session']","[-118.285117, 34.022352]","[['6295630', '6255149', '6252001', '5332921', '5368381', '5368361'], ['6295630', '6255149', '6252001', '5332921', '5368381', '5360529']]",,1.0,locality,2020-08-17 07:00:00+00:00,active,America/Los_Angeles,Fall Session,2020-10-21 02:04:49+00:00,,,"[{'entity_id': 'LD5w4M9KxZgSmmhvgbYdYz', 'name': 'University of Southern California', 'type': 'venue', 'formatted_address': 'Los Angeles, CA 90007\nUnited States of America'}]",,2050.0,,False,56,University of Southern California,-118.285117,34.022352,academic-session,online-session,not_estimated,True
,academic,US,,,,4665599,2020-08-15 06:59:59+00:00,2020-08-27 22:59:36+00:00,GsHneR8cGiF5ip63L5,"['academic', 'academic-session']","[-118.470395, 34.016557]","[['6295630', '6255149', '6252001', '5332921', '5368381', '5393701'], ['6295630', '6255149', '6252001', '5332921', '5368381', '5368361']]",,1.0,locality,2020-06-22 07:00:00+00:00,active,America/Los_Angeles,Summer Session,2020-09-03 22:21:38+00:00,,,"[{'entity_id': 'PzFqeGx7V5zPwb2zemvXTB', 'name': 'Santa Monica College', 'type': 'venue', 'formatted_address': '1900 Pico Boulevard\nSanta Monica, CA 90405\nUnited States of America'}]",,24153.0,,False,78,Santa Monica College,-118.470395,34.016557,academic-session,in-person,not_estimated,True
,academic,US,,,,7084799,2020-09-12 06:59:59+00:00,2020-08-27 23:06:36+00:00,PHSQCLVUFdVUNZaJ5d,"['academic', 'academic-session']","[-118.445181, 34.068921]","[['6295630', '6255149', '6252001', '5332921', '5368381', '5408545'], ['6295630', '6255149', '6252001', '5332921', '5368381', '5368361']]",,1.0,locality,2020-06-22 07:00:00+00:00,active,America/Los_Angeles,Summer Session,2020-09-03 22:21:08+00:00,,,"[{'entity_id': '32afGxjEeXh84pfVwWY9qUk', 'name': 'University of California - Los Angeles', 'type': 'venue', 'formatted_address': 'Los Angeles, CA 90095\nUnited States of America'}]",,9462.0,,False,70,University of California - Los Angeles,-118.445181,34.068921,academic-session,in-person,not_estimated,True
,academic,US,,,,6479999,2020-08-31 06:59:59+00:00,2020-08-27 22:59:37+00:00,KcNv4WRiDNhz9qHFxS,"['academic', 'holiday']","[-118.470395, 34.016557]","[['6295630', '6255149', '6252001', '5332921', '5368381', '5393701'], ['6295630', '6255149', '6252001', '5332921', '5368381', '5368361']]",,1.0,locality,2020-06-17 07:00:00+00:00,active,America/Los_Angeles,Summer Break,2020-09-03 22:15:01+00:00,,,"[{'entity_id': 'PzFqeGx7V5zPwb2zemvXTB', 'name': 'Santa Monica College', 'type': 'venue', 'formatted_address': '1900 Pico Boulevard\nSanta Monica, CA 90405\nUnited States of America'}]",,24153.0,,False,78,Santa Monica College,-118.470395,34.016557,holiday,in-person,not_estimated,False
,academic,US,,,,6652799,2020-08-31 06:59:59+00:00,2020-08-27 22:35:28+00:00,PWnDBNizzgduEPmzp7,"['academic', 'academic-session']","[-118.292473, 34.087269]","[['6295630', '6255149', '6252001', '5332921', '5368381', '5368361'], ['6295630', '6255149', '6252001', '5332921', '5368381', '8062691']]",,1.0,locality,2020-06-15 07:00:00+00:00,active,America/Los_Angeles,Summer Session,2020-09-03 22:26:25+00:00,,,"[{'entity_id': 'htkLSUCJvJffjDUhU7cfeC', 'name': 'Los Angeles City College', 'type': 'venue', 'formatted_address': '855 North Vermont Avenue\nLos Angeles, CA 90029\nUnited States of America'}]",,3193.0,,False,60,Los Angeles City College,-118.292473,34.087269,academic-session,in-person,not_estimated,True
,academic,US,,,,6047999,2020-08-24 06:59:59+00:00,2020-08-27 22:38:36+00:00,VgBvPyNjBGkqKrMnVy,"['academic', 'academic-session']","[-118.421718, 34.175568]","[['6295630', '6255149', '6252001', '5332921', '5368381', '5368361'], ['6295630', '6255149', '6252001', '5332921', '5368381', '5363024']]",,1.0,locality,2020-06-15 07:00:00+00:00,active,America/Los_Angeles,Summer Session,2021-03-23 20:33:29+00:00,,,"[{'entity_id': 'vveYakrX9C6U3CBvFSZSNQ', 'name': 'Los Angeles Valley College', 'type': 'venue', 'formatted_address': '5800 Fulton Avenue\nLos Angeles, CA 91401\nUnited States of America'}]",,11917.0,,False,72,Los Angeles Valley College,-118.421718,34.175568,academic-session,in-person,not_estimated,True
,academic,US,,,,6652799,2020-08-31 06:59:59+00:00,2020-08-27 22:38:05+00:00,cEbnuhrCEJcJPUMExR,"['academic', 'academic-session']","[-118.269695, 34.032848]","[['6295630', '6255149', '6252001', '5332921', '5368381', '5368361'], ['6295630', '6255149', '6252001', '5332921', '5368381', '5360529']]",,1.0,locality,2020-06-15 07:00:00+00:00,active,America/Los_Angeles,Summer Session,2020-09-03 22:27:32+00:00,,,"[{'entity_id': '36Ni6bFidX2bME3rKyW8m8R', 'name': 'Los Angeles Trade Technical College', 'type': 'venue', 'formatted_address': '400 West Washington Boulevard\nLos Angeles, CA 90015\nUnited States of America'}]",,3078.0,,False,60,Los Angeles Trade Technical College,-118.269695,34.032848,academic-session,in-person,not_estimated,True
,academic,US,,,,5875199,2020-08-22 06:59:59+00:00,2020-08-27 22:30:25+00:00,dB2Mnd27fWjuBZhyg7,"['academic', 'academic-session']","[-118.227919, 34.16658]","[['6295630', '6255149', '6252001', '5332921', '5368381', '5344624'], ['6295630', '6255149', '6252001', '5332921', '5368381', '5368361']]",,1.0,locality,2020-06-15 07:00:00+00:00,active,America/Los_Angeles,Summer Session,2020-09-03 22:15:04+00:00,,,"[{'entity_id': '37Kjv45jpCD2iLBByC83iUW', 'name': 'Glendale Community College', 'type': 'venue', 'formatted_address': '1500 North Verdugo Road\nGlendale, CA 91208\nUnited States of America'}]",,14781.0,,False,73,Glendale Community College,-118.227919,34.16658,academic-session,in-person,not_estimated,True
,academic,US,,,,6047999,2020-08-24 06:59:59+00:00,2020-08-27 23:11:53+00:00,ykhu2VAKnkitE4KcRP,"['academic', 'academic-session']","[-118.387156, 34.004228]","[['6295630', '6255149', '6252001', '5332921', '5368381', '5364195'], ['6295630', '6255149', '6252001', '5332921', '5368381', '5368361']]",,1.0,locality,2020-06-15 07:00:00+00:00,active,America/Los_Angeles,Summer Session,2020-09-03 22:10:18+00:00,,,"[{'entity_id': 'aZtwEWCRc8nfX4CcFksdip', 'name': 'West Los Angeles College', 'type': 'venue', 'formatted_address': '9000 Overland Avenue\nCulver City, CA 90230\nUnited States of America'}]",,2478.0,,False,58,West Los Angeles College,-118.387156,34.004228,academic-session,in-person,not_estimated,True
,academic,US,,,,9503999,2020-10-01 06:59:59+00:00,2020-08-27 23:05:49+00:00,vzhimty86WM2Y3NuFK,"['academic', 'holiday']","[-118.445181, 34.068921]","[['6295630', '6255149', '6252001', '5332921', '5368381', '5408545'], ['6295630', '6255149', '6252001', '5332921', '5368381', '5368361']]",,1.0,locality,2020-06-13 07:00:00+00:00,active,America/Los_Angeles,Summer Break,2020-09-03 22:20:25+00:00,,,"[{'entity_id': '32afGxjEeXh84pfVwWY9qUk', 'name': 'University of California - Los Angeles', 'type': 'venue', 'formatted_address': 'Los Angeles, CA 90095\nUnited States of America'}]",,31543.0,,False,80,University of California - Los Angeles,-118.445181,34.068921,holiday,in-person,not_estimated,False
,academic,US,,,,6998399,2020-08-31 06:59:59+00:00,2020-08-27 22:30:26+00:00,MrpND2Yvbo8YugZwLp,"['academic', 'holiday']","[-118.227919, 34.16658]","[['6295630', '6255149', '6252001', '5332921', '5368381', '5344624'], ['6295630', '6255149', '6252001', '5332921', '5368381', '5368361']]",,1.0,locality,2020-06-11 07:00:00+00:00,active,America/Los_Angeles,Summer Break,2020-09-03 22:12:47+00:00,,,"[{'entity_id': '37Kjv45jpCD2iLBByC83iUW', 'name': 'Glendale Community College', 'type': 'venue', 'formatted_address': '1500 North Verdugo Road\nGlendale, CA 91208\nUnited States of America'}]",,14781.0,,False,73,Glendale Community College,-118.227919,34.16658,holiday,in-person,not_estimated,False
,academic,US,,,,7171199,2020-08-31 06:59:59+00:00,2020-08-27 23:11:54+00:00,LHQ5SQgpBSQJHqcmpL,"['academic', 'holiday']","[-118.387156, 34.004228]","[['6295630', '6255149', '6252001', '5332921', '5368381', '5364195'], ['6295630', '6255149', '6252001', '5332921', '5368381', '5368361']]",,1.0,locality,2020-06-09 07:00:00+00:00,active,America/Los_Angeles,Summer Break,2020-09-03 22:20:48+00:00,,,"[{'entity_id': 'aZtwEWCRc8nfX4CcFksdip', 'name': 'West Los Angeles College', 'type': 'venue', 'formatted_address': '9000 Overland Avenue\nCulver City, CA 90230\nUnited States of America'}]",,2478.0,,False,58,West Los Angeles College,-118.387156,34.004228,holiday,in-person,not_estimated,False
,academic,US,,,,7171199,2020-08-31 06:59:59+00:00,2020-08-27 22:38:37+00:00,T4ZMoXrqa6QYwsGKtr,"['academic', 'holiday']","[-118.421718, 34.175568]","[['6295630', '6255149', '6252001', '5332921', '5368381', '5368361'], ['6295630', '6255149', '6252001', '5332921', '5368381', '5363024']]",,1.0,locality,2020-06-09 07:00:00+00:00,active,America/Los_Angeles,Summer Break,2021-03-23 20:28:59+00:00,,,"[{'entity_id': 'vveYakrX9C6U3CBvFSZSNQ', 'name': 'Los Angeles Valley College', 'type': 'venue', 'formatted_address': '5800 Fulton Avenue\nLos Angeles, CA 91401\nUnited States of America'}]",,11917.0,,False,72,Los Angeles Valley College,-118.421718,34.175568,holiday,in-person,not_estimated,False
,academic,US,,,,7171199,2020-08-31 06:59:59+00:00,2020-08-27 22:35:28+00:00,rvcmeCzyQDUF5KndS6,"['academic', 'holiday']","[-118.292473, 34.087269]","[['6295630', '6255149', '6252001', '5332921', '5368381', '5368361'], ['6295630', '6255149', '6252001', '5332921', '5368381', '8062691']]",,1.0,locality,2020-06-09 07:00:00+00:00,active,America/Los_Angeles,Summer Break,2020-09-03 22:15:58+00:00,,,"[{'entity_id': 'htkLSUCJvJffjDUhU7cfeC', 'name': 'Los Angeles City College', 'type': 'venue', 'formatted_address': '855 North Vermont Avenue\nLos Angeles, CA 90029\nUnited States of America'}]",,10646.0,,False,71,Los Angeles City College,-118.292473,34.087269,holiday,in-person,not_estimated,False
,academic,US,,,,7171199,2020-08-31 06:59:59+00:00,2020-08-27 22:38:06+00:00,uaz2RqnJq6YVBeBzfa,"['academic', 'holiday']","[-118.269695, 34.032848]","[['6295630', '6255149', '6252001', '5332921', '5368381', '5368361'], ['6295630', '6255149', '6252001', '5332921', '5368381', '5360529']]",,1.0,locality,2020-06-09 07:00:00+00:00,active,America/Los_Angeles,Summer Break,2020-09-03 22:29:27+00:00,,,"[{'entity_id': '36Ni6bFidX2bME3rKyW8m8R', 'name': 'Los Angeles Trade Technical College', 'type': 'venue', 'formatted_address': '400 West Washington Boulevard\nLos Angeles, CA 90015\nUnited States of America'}]",,10263.0,,False,70,Los Angeles Trade Technical College,-118.269695,34.032848,holiday,in-person,not_estimated,False
,academic,US,,,,691199,2020-06-17 06:59:59+00:00,2020-08-27 22:59:33+00:00,zgXfckeJLgQAyo5zKk,"['academic', 'exam']","[-118.470395, 34.016557]","[['6295630', '6255149', '6252001', '5332921', '5368381', '5393701'], ['6295630', '6255149', '6252001', '5332921', '5368381', '5368361']]",,1.0,locality,2020-06-09 07:00:00+00:00,active,America/Los_Angeles,Spring Exams,2020-09-03 22:27:17+00:00,,,"[{'entity_id': 'PzFqeGx7V5zPwb2zemvXTB', 'name': 'Santa Monica College', 'type': 'venue', 'formatted_address': '1900 Pico Boulevard\nSanta Monica, CA 90405\nUnited States of America'}]",,24153.0,,False,78,Santa Monica College,-118.470395,34.016557,exam,in-person,not_estimated,True
,academic,US,,,,431999,2020-06-13 06:59:59+00:00,2020-08-27 23:06:12+00:00,dpD8DRHz4uteBHh8gs,"['academic', 'exam']","[-118.445181, 34.068921]","[['6295630', '6255149', '6252001', '5332921', '5368381', '5408545'], ['6295630', '6255149', '6252001', '5332921', '5368381', '5368361']]",,1.0,locality,2020-06-08 07:00:00+00:00,active,America/Los_Angeles,Spring Exams,2020-09-03 22:21:23+00:00,,,"[{'entity_id': '32afGxjEeXh84pfVwWY9qUk', 'name': 'University of California - Los Angeles', 'type': 'venue', 'formatted_address': 'Los Angeles, CA 90095\nUnited States of America'}]",,31543.0,,False,80,University of California - Los Angeles,-118.445181,34.068921,exam,in-person,not_estimated,True
,academic,US,,,,691199,2020-06-11 06:59:59+00:00,2020-08-27 22:30:24+00:00,8xHTHyJc67zVGnHRNF,"['academic', 'exam']","[-118.227919, 34.16658]","[['6295630', '6255149', '6252001', '5332921', '5368381', '5344624'], ['6295630', '6255149', '6252001', '5332921', '5368381', '5368361']]",,1.0,locality,2020-06-03 07:00:00+00:00,active,America/Los_Angeles,Spring Exams,2020-09-03 22:24:14+00:00,,,"[{'entity_id': '37Kjv45jpCD2iLBByC83iUW', 'name': 'Glendale Community College', 'type': 'venue', 'formatted_address': '1500 North Verdugo Road\nGlendale, CA 91208\nUnited States of America'}]",,14781.0,,False,73,Glendale Community College,-118.227919,34.16658,exam,in-person,not_estimated,True
,academic,US,,,,604799,2020-06-09 06:59:59+00:00,2020-08-27 22:38:34+00:00,2TPDjDcky2W4KkYyph,"['academic', 'exam']","[-118.421718, 34.175568]","[['6295630', '6255149', '6252001', '5332921', '5368381', '5368361'], ['6295630', '6255149', '6252001', '5332921', '5368381', '5363024']]",,1.0,locality,2020-06-02 07:00:00+00:00,active,America/Los_Angeles,Spring Exams,2021-03-23 21:28:14+00:00,,,"[{'entity_id': 'vveYakrX9C6U3CBvFSZSNQ', 'name': 'Los Angeles Valley College', 'type': 'venue', 'formatted_address': '5800 Fulton Avenue\nLos Angeles, CA 91401\nUnited States of America'}]",,11917.0,,False,72,Los Angeles Valley College,-118.421718,34.175568,exam,in-person,not_estimated,True
,academic,US,,,,604799,2020-06-09 06:59:59+00:00,2020-08-27 23:11:51+00:00,3pK34wCdGyCNb5vbEk,"['academic', 'exam']","[-118.387156, 34.004228]","[['6295630', '6255149', '6252001', '5332921', '5368381', '5364195'], ['6295630', '6255149', '6252001', '5332921', '5368381', '5368361']]",,1.0,locality,2020-06-02 07:00:00+00:00,active,America/Los_Angeles,Spring Exams,2020-09-03 22:14:47+00:00,,,"[{'entity_id': 'aZtwEWCRc8nfX4CcFksdip', 'name': 'West Los Angeles College', 'type': 'venue', 'formatted_address': '9000 Overland Avenue\nCulver City, CA 90230\nUnited States of America'}]",,2478.0,,False,58,West Los Angeles College,-118.387156,34.004228,exam,in-person,not_estimated,True
,academic,US,,,,604799,2020-06-09 06:59:59+00:00,2020-08-27 22:35:26+00:00,3t29crbxzr57EDn6bo,"['academic', 'exam']","[-118.292473, 34.087269]","[['6295630', '6255149', '6252001', '5332921', '5368381', '5368361'], ['6295630', '6255149', '6252001', '5332921', '5368381', '8062691']]",,1.0,locality,2020-06-02 07:00:00+00:00,active,America/Los_Angeles,Spring Exams,2020-09-03 22:21:08+00:00,,,"[{'entity_id': 'htkLSUCJvJffjDUhU7cfeC', 'name': 'Los Angeles City College', 'type': 'venue', 'formatted_address': '855 North Vermont Avenue\nLos Angeles, CA 90029\nUnited States of America'}]",,10646.0,,False,71,Los Angeles City College,-118.292473,34.087269,exam,in-person,not_estimated,True
,academic,US,,,,604799,2020-06-09 06:59:59+00:00,2020-08-27 22:38:03+00:00,P2HrT3Y8VPEghxvqSm,"['academic', 'exam']","[-118.269695, 34.032848]","[['6295630', '6255149', '6252001', '5332921', '5368381', '5368361'], ['6295630', '6255149', '6252001', '5332921', '5368381', '5360529']]",,1.0,locality,2020-06-02 07:00:00+00:00,active,America/Los_Angeles,Spring Exams,2020-09-03 22:21:45+00:00,,,"[{'entity_id': '36Ni6bFidX2bME3rKyW8m8R', 'name': 'Los Angeles Trade Technical College', 'type': 'venue', 'formatted_address': '400 West Washington Boulevard\nLos Angeles, CA 90015\nUnited States of America'}]",,10263.0,,False,70,Los Angeles Trade Technical College,-118.269695,34.032848,exam,in-person,not_estimated,True
,academic,US,,,,7257599,2020-08-12 06:59:59+00:00,2020-08-27 23:09:52+00:00,oaAbXFKsbJbQbmbgVK,"['academic', 'academic-session']","[-118.285117, 34.022352]","[['6295630', '6255149', '6252001', '5332921', '5368381', '5368361'], ['6295630', '6255149', '6252001', '5332921', '5368381', '5360529']]",,1.0,locality,2020-05-20 07:00:00+00:00,active,America/Los_Angeles,Summer Session,2020-09-03 22:20:59+00:00,,,"[{'entity_id': 'LD5w4M9KxZgSmmhvgbYdYz', 'name': 'University of Southern California', 'type': 'venue', 'formatted_address': 'Los Angeles, CA 90007\nUnited States of America'}]",,6150.0,,False,66,University of Southern California,-118.285117,34.022352,academic-session,in-person,not_estimated,True
,academic,US,,,,7084799,2020-08-08 06:59:59+00:00,2020-08-27 22:39:33+00:00,e6jo5LuYxgiTq6s48U,"['academic', 'academic-session']","[-118.416611, 33.970163]","[['6295630', '6255149', '6252001', '5332921', '5368381', '5323452'], ['6295630', '6255149', '6252001', '5332921', '5368381', '5368361']]",,1.0,locality,2020-05-18 07:00:00+00:00,active,America/Los_Angeles,Summer Session,2020-09-03 22:26:54+00:00,,,"[{'entity_id': 'w5KkFLAQnvrWF8nDe4PKWQ', 'name': 'Loyola Marymount University', 'type': 'venue', 'formatted_address': '1 Loyola Marymount University Drive\nLos Angeles, CA 90045\nUnited States of America'}]",,1999.0,,False,56,Loyola Marymount University,-118.416611,33.970163,academic-session,in-person,not_estimated,True
,academic,US,,,,8207999,2020-08-17 06:59:59+00:00,2020-08-27 23:09:53+00:00,6uhFwB2pBXf9WZjcAc,"['academic', 'holiday']","[-118.285117, 34.022352]","[['6295630', '6255149', '6252001', '5332921', '5368381', '5368361'], ['6295630', '6255149', '6252001', '5332921', '5368381', '5360529']]",,1.0,locality,2020-05-14 07:00:00+00:00,active,America/Los_Angeles,Summer Break,2020-09-03 22:21:07+00:00,,,"[{'entity_id': 'LD5w4M9KxZgSmmhvgbYdYz', 'name': 'University of Southern California', 'type': 'venue', 'formatted_address': 'Los Angeles, CA 90007\nUnited States of America'}]",,20499.0,,False,76,University of Southern California,-118.285117,34.022352,holiday,in-person,not_estimated,False
,academic,US,,,,9849599,2020-08-31 06:59:59+00:00,2020-08-27 22:39:34+00:00,TQbXVEVfiDcnXAdnM3,"['academic', 'holiday']","[-118.416611, 33.970163]","[['6295630', '6255149', '6252001', '5332921', '5368381', '5323452'], ['6295630', '6255149', '6252001', '5332921', '5368381', '5368361']]",,1.0,locality,2020-05-09 07:00:00+00:00,active,America/Los_Angeles,Summer Break,2020-09-03 22:21:43+00:00,,,"[{'entity_id': 'w5KkFLAQnvrWF8nDe4PKWQ', 'name': 'Loyola Marymount University', 'type': 'venue', 'formatted_address': '1 Loyola Marymount University Drive\nLos Angeles, CA 90045\nUnited States of America'}]",,6665.0,,False,66,Loyola Marymount University,-118.416611,33.970163,holiday,in-person,not_estimated,False
,academic,US,,,,691199,2020-05-14 06:59:59+00:00,2020-08-27 23:09:50+00:00,QTHFq3ajw9Je35m5pB,"['academic', 'exam']","[-118.285117, 34.022352]","[['6295630', '6255149', '6252001', '5332921', '5368381', '5368361'], ['6295630', '6255149', '6252001', '5332921', '5368381', '5360529']]",,1.0,locality,2020-05-06 07:00:00+00:00,active,America/Los_Angeles,Spring Exams,2020-09-03 22:21:07+00:00,,,"[{'entity_id': 'LD5w4M9KxZgSmmhvgbYdYz', 'name': 'University of Southern California', 'type': 'venue', 'formatted_address': 'Los Angeles, CA 90007\nUnited States of America'}]",,20499.0,,False,76,University of Southern California,-118.285117,34.022352,exam,in-person,not_estimated,True
,academic,US,,,,431999,2020-05-09 06:59:59+00:00,2020-08-27 22:39:31+00:00,9RwMztxuFrUQ8Dwj5Z,"['academic', 'exam']","[-118.416611, 33.970163]","[['6295630', '6255149', '6252001', '5332921', '5368381', '5323452'], ['6295630', '6255149', '6252001', '5332921', '5368381', '5368361']]",,1.0,locality,2020-05-04 07:00:00+00:00,active,America/Los_Angeles,Spring Exams,2020-09-03 22:26:35+00:00,,,"[{'entity_id': 'w5KkFLAQnvrWF8nDe4PKWQ', 'name': 'Loyola Marymount University', 'type': 'venue', 'formatted_address': '1 Loyola Marymount University Drive\nLos Angeles, CA 90045\nUnited States of America'}]",,6665.0,,False,66,Loyola Marymount University,-118.416611,33.970163,exam,in-person,not_estimated,True
,academic,US,,,,777599,2020-04-20 06:59:59+00:00,2020-08-27 22:30:24+00:00,BjnHFyP4ZkhgP4GviC,"['academic', 'holiday']","[-118.227919, 34.16658]","[['6295630', '6255149', '6252001', '5332921', '5368381', '5344624'], ['6295630', '6255149', '6252001', '5332921', '5368381', '5368361']]",,1.0,locality,2020-04-11 07:00:00+00:00,active,America/Los_Angeles,Spring Break,2020-09-03 22:14:00+00:00,,,"[{'entity_id': '37Kjv45jpCD2iLBByC83iUW', 'name': 'Glendale Community College', 'type': 'venue', 'formatted_address': '1500 North Verdugo Road\nGlendale, CA 91208\nUnited States of America'}]",,14781.0,,False,73,Glendale Community College,-118.227919,34.16658,holiday,in-person,not_estimated,False
,academic,US,,,,777599,2020-04-20 06:59:59+00:00,2020-08-27 22:59:32+00:00,xVdeg25U4ZGX9NyXrb,"['academic', 'holiday']","[-118.470395, 34.016557]","[['6295630', '6255149', '6252001', '5332921', '5368381', '5393701'], ['6295630', '6255149', '6252001', '5332921', '5368381', '5368361']]",,1.0,locality,2020-04-11 07:00:00+00:00,active,America/Los_Angeles,Spring Break,2020-09-03 22:22:56+00:00,,,"[{'entity_id': 'PzFqeGx7V5zPwb2zemvXTB', 'name': 'Santa Monica College', 'type': 'venue', 'formatted_address': '1900 Pico Boulevard\nSanta Monica, CA 90405\nUnited States of America'}]",,24153.0,,False,78,Santa Monica College,-118.470395,34.016557,holiday,in-person,not_estimated,False
,academic,US,,,,777599,2020-04-13 06:59:59+00:00,2020-08-27 22:35:25+00:00,9VHq8iDXFdDhjNTtzh,"['academic', 'holiday']","[-118.292473, 34.087269]","[['6295630', '6255149', '6252001', '5332921', '5368381', '5368361'], ['6295630', '6255149', '6252001', '5332921', '5368381', '8062691']]",,1.0,locality,2020-04-04 07:00:00+00:00,active,America/Los_Angeles,Spring Break,2020-09-03 22:28:19+00:00,,,"[{'entity_id': 'htkLSUCJvJffjDUhU7cfeC', 'name': 'Los Angeles City College', 'type': 'venue', 'formatted_address': '855 North Vermont Avenue\nLos Angeles, CA 90029\nUnited States of America'}]",,10646.0,,False,71,Los Angeles City College,-118.292473,34.087269,holiday,in-person,not_estimated,False
,academic,US,,,,863999,2020-04-14 06:59:59+00:00,2020-08-27 22:38:02+00:00,sAFvTFvBLpDjPFXqqv,"['academic', 'holiday']","[-118.269695, 34.032848]","[['6295630', '6255149', '6252001', '5332921', '5368381', '5368361'], ['6295630', '6255149', '6252001', '5332921', '5368381', '5360529']]",,1.0,locality,2020-04-04 07:00:00+00:00,active,America/Los_Angeles,Spring Break,2020-09-03 22:20:02+00:00,,,"[{'entity_id': '36Ni6bFidX2bME3rKyW8m8R', 'name': 'Los Angeles Trade Technical College', 'type': 'venue', 'formatted_address': '400 West Washington Boulevard\nLos Angeles, CA 90015\nUnited States of America'}]",,10263.0,,False,70,Los Angeles Trade Technical College,-118.269695,34.032848,holiday,in-person,not_estimated,False
,academic,US,,,,5875199,2020-06-06 06:59:59+00:00,2020-08-27 23:06:12+00:00,RVLSZTi8fVmK6M9g8H,"['academic', 'academic-session']","[-118.445181, 34.068921]","[['6295630', '6255149', '6252001', '5332921', '5368381', '5408545'], ['6295630', '6255149', '6252001', '5332921', '5368381', '5368361']]",,1.0,locality,2020-03-30 07:00:00+00:00,active,America/Los_Angeles,Spring Session,2020-09-03 22:21:17+00:00,,,"[{'entity_id': '32afGxjEeXh84pfVwWY9qUk', 'name': 'University of California - Los Angeles', 'type': 'venue', 'formatted_address': 'Los Angeles, CA 90095\nUnited States of America'}]",,31543.0,,False,80,University of California - Los Angeles,-118.445181,34.068921,academic-session,in-person,not_estimated,True
,academic,US,,,,777599,2020-03-30 06:59:59+00:00,2020-08-27 23:11:50+00:00,GSnn226xE8F7ApBuLG,"['academic', 'holiday']","[-118.387156, 34.004228]","[['6295630', '6255149', '6252001', '5332921', '5368381', '5364195'], ['6295630', '6255149', '6252001', '5332921', '5368381', '5368361']]",,1.0,locality,2020-03-21 07:00:00+00:00,active,America/Los_Angeles,Spring Break,2020-09-03 22:24:08+00:00,,,"[{'entity_id': 'aZtwEWCRc8nfX4CcFksdip', 'name': 'West Los Angeles College', 'type': 'venue', 'formatted_address': '9000 Overland Avenue\nCulver City, CA 90230\nUnited States of America'}]",,2478.0,,False,58,West Los Angeles College,-118.387156,34.004228,holiday,in-person,not_estimated,False
,academic,US,,,,777599,2020-03-30 06:59:59+00:00,2020-08-27 23:06:21+00:00,bMdScMeT2799LMeVqx,"['academic', 'holiday']","[-118.445181, 34.068921]","[['6295630', '6255149', '6252001', '5332921', '5368381', '5408545'], ['6295630', '6255149', '6252001', '5332921', '5368381', '5368361']]",,1.0,locality,2020-03-21 07:00:00+00:00,active,America/Los_Angeles,Spring Break,2020-09-03 22:22:05+00:00,,,"[{'entity_id': '32afGxjEeXh84pfVwWY9qUk', 'name': 'University of California - Los Angeles', 'type': 'venue', 'formatted_address': 'Los Angeles, CA 90095\nUnited States of America'}]",,31543.0,,False,80,University of California - Los Angeles,-118.445181,34.068921,holiday,in-person,not_estimated,False
,academic,US,,,,777599,2020-03-30 06:59:59+00:00,2020-08-27 22:38:35+00:00,uiyLADfDtDDLTQWAEK,"['academic', 'holiday']","[-118.421718, 34.175568]","[['6295630', '6255149', '6252001', '5332921', '5368381', '5368361'], ['6295630', '6255149', '6252001', '5332921', '5368381', '5363024']]",,1.0,locality,2020-03-21 07:00:00+00:00,active,America/Los_Angeles,Spring Break,2021-03-23 21:55:57+00:00,,,"[{'entity_id': 'vveYakrX9C6U3CBvFSZSNQ', 'name': 'Los Angeles Valley College', 'type': 'venue', 'formatted_address': '5800 Fulton Avenue\nLos Angeles, CA 91401\nUnited States of America'}]",,11917.0,,False,72,Los Angeles Valley College,-118.421718,34.175568,holiday,in-person,not_estimated,False
,academic,US,,,,431999,2020-03-21 06:59:59+00:00,2020-08-27 23:06:32+00:00,iAqAXLPPnVCSgXrr7A,"['academic', 'exam']","[-118.445181, 34.068921]","[['6295630', '6255149', '6252001', '5332921', '5368381', '5408545'], ['6295630', '6255149', '6252001', '5332921', '5368381', '5368361']]",,1.0,locality,2020-03-16 07:00:00+00:00,active,America/Los_Angeles,Winter Exams,2020-09-03 22:19:25+00:00,,,"[{'entity_id': '32afGxjEeXh84pfVwWY9qUk', 'name': 'University of California - Los Angeles', 'type': 'venue', 'formatted_address': 'Los Angeles, CA 90095\nUnited States of America'}]",,31543.0,,False,80,University of California - Los Angeles,-118.445181,34.068921,exam,in-person,not_estimated,True
,academic,US,,,,777599,2020-03-23 06:59:59+00:00,2020-08-27 23:09:49+00:00,pAffP6eiG42VFm5C8C,"['academic', 'holiday']","[-118.285117, 34.022352]","[['6295630', '6255149', '6252001', '5332921', '5368381', '5368361'], ['6295630', '6255149', '6252001', '5332921', '5368381', '5360529']]",,1.0,locality,2020-03-14 07:00:00+00:00,active,America/Los_Angeles,Spring Break,2020-09-03 22:20:18+00:00,,,"[{'entity_id': 'LD5w4M9KxZgSmmhvgbYdYz', 'name': 'University of Southern California', 'type': 'venue', 'formatted_address': 'Los Angeles, CA 90007\nUnited States of America'}]",,20499.0,,False,76,University of Southern California,-118.285117,34.022352,holiday,in-person,not_estimated,False
,academic,US,,All classes being conducted remotely / suspended in response to COVID-19,,14947199,2020-08-31 06:59:59+00:00,2020-08-27 21:27:24+00:00,Dzouwb4SgsYi6jvM4o,"['academic', 'holiday']","[-118.421718, 34.175568]","[['6295630', '6255149', '6252001', '5332921', '5368381', '5368361'], ['6295630', '6255149', '6252001', '5332921', '5368381', '5363024']]",,1.0,locality,2020-03-11 07:00:00+00:00,active,America/Los_Angeles,COVID-19 Class Cancellation,2021-03-23 21:28:20+00:00,,,"[{'entity_id': 'vveYakrX9C6U3CBvFSZSNQ', 'name': 'Los Angeles Valley College', 'type': 'venue', 'formatted_address': '5800 Fulton Avenue\nLos Angeles, CA 91401\nUnited States of America'}]",,11917.0,,False,72,Los Angeles Valley College,-118.421718,34.175568,holiday,in-person,not_estimated,False
,academic,US,,All classes being conducted remotely / suspended in response to COVID-19,,14947199,2020-08-31 06:59:59+00:00,2020-08-27 21:27:18+00:00,PAcFHT56WiKBiTMZgE,"['academic', 'holiday']","[-118.292473, 34.087269]","[['6295630', '6255149', '6252001', '5332921', '5368381', '5368361'], ['6295630', '6255149', '6252001', '5332921', '5368381', '8062691']]",,1.0,locality,2020-03-11 07:00:00+00:00,active,America/Los_Angeles,COVID-19 Class Cancellation,2020-09-03 22:21:11+00:00,,,"[{'entity_id': 'htkLSUCJvJffjDUhU7cfeC', 'name': 'Los Angeles City College', 'type': 'venue', 'formatted_address': '855 North Vermont Avenue\nLos Angeles, CA 90029\nUnited States of America'}]",,10646.0,,False,71,Los Angeles City College,-118.292473,34.087269,holiday,in-person,not_estimated,False
,academic,US,,All classes being conducted remotely / suspended in response to COVID-19,,13737599,2020-08-17 06:59:59+00:00,2020-08-27 21:28:11+00:00,QoT9jTAS2V5zLCRqXh,"['academic', 'holiday']","[-118.285117, 34.022352]","[['6295630', '6255149', '6252001', '5332921', '5368381', '5368361'], ['6295630', '6255149', '6252001', '5332921', '5368381', '5360529']]",,1.0,locality,2020-03-11 07:00:00+00:00,active,America/Los_Angeles,COVID-19 Class Cancellation,2020-09-03 22:21:12+00:00,,,"[{'entity_id': 'LD5w4M9KxZgSmmhvgbYdYz', 'name': 'University of Southern California', 'type': 'venue', 'formatted_address': 'Los Angeles, CA 90007\nUnited States of America'}]",,20499.0,,False,76,University of Southern California,-118.285117,34.022352,holiday,in-person,not_estimated,False
,academic,US,,All classes being conducted remotely / suspended in response to COVID-19,,14947199,2020-08-31 06:59:59+00:00,2020-08-27 21:27:26+00:00,SiKKCcrBGSxXysQKyH,"['academic', 'holiday']","[-118.416611, 33.970163]","[['6295630', '6255149', '6252001', '5332921', '5368381', '5323452'], ['6295630', '6255149', '6252001', '5332921', '5368381', '5368361']]",,1.0,locality,2020-03-11 07:00:00+00:00,active,America/Los_Angeles,COVID-19 Class Cancellation,2020-09-03 22:15:36+00:00,,,"[{'entity_id': 'w5KkFLAQnvrWF8nDe4PKWQ', 'name': 'Loyola Marymount University', 'type': 'venue', 'formatted_address': '1 Loyola Marymount University Drive\nLos Angeles, CA 90045\nUnited States of America'}]",,6665.0,,False,66,Loyola Marymount University,-118.416611,33.970163,holiday,in-person,not_estimated,False
,academic,US,,All classes being conducted remotely / suspended in response to COVID-19,,14947199,2020-08-31 06:59:59+00:00,2020-08-27 21:27:54+00:00,SyUL2sCGnzYCX3q2F8,"['academic', 'holiday']","[-118.470395, 34.016557]","[['6295630', '6255149', '6252001', '5332921', '5368381', '5393701'], ['6295630', '6255149', '6252001', '5332921', '5368381', '5368361']]",,1.0,locality,2020-03-11 07:00:00+00:00,active,America/Los_Angeles,COVID-19 Class Cancellation,2020-09-03 22:26:26+00:00,,,"[{'entity_id': 'PzFqeGx7V5zPwb2zemvXTB', 'name': 'Santa Monica College', 'type': 'venue', 'formatted_address': '1900 Pico Boulevard\nSanta Monica, CA 90405\nUnited States of America'}]",,24153.0,,False,78,Santa Monica College,-118.470395,34.016557,holiday,in-person,not_estimated,False
,academic,US,,All classes being conducted remotely / suspended in response to COVID-19,,14947199,2020-08-31 06:59:59+00:00,2020-08-27 21:27:10+00:00,X3ueS3MPYCxLqRc268,"['academic', 'holiday']","[-118.227919, 34.16658]","[['6295630', '6255149', '6252001', '5332921', '5368381', '5344624'], ['6295630', '6255149', '6252001', '5332921', '5368381', '5368361']]",,1.0,locality,2020-03-11 07:00:00+00:00,active,America/Los_Angeles,COVID-19 Class Cancellation,2020-09-03 22:19:41+00:00,,,"[{'entity_id': '37Kjv45jpCD2iLBByC83iUW', 'name': 'Glendale Community College', 'type': 'venue', 'formatted_address': '1500 North Verdugo Road\nGlendale, CA 91208\nUnited States of America'}]",,14781.0,,False,73,Glendale Community College,-118.227919,34.16658,holiday,in-person,not_estimated,False
,academic,US,,All classes being conducted remotely / suspended in response to COVID-19,,14947199,2020-08-31 06:59:59+00:00,2020-08-27 21:27:23+00:00,gM8YsmrU9nZxCs8q3o,"['academic', 'holiday']","[-118.269695, 34.032848]","[['6295630', '6255149', '6252001', '5332921', '5368381', '5368361'], ['6295630', '6255149', '6252001', '5332921', '5368381', '5360529']]",,1.0,locality,2020-03-11 07:00:00+00:00,active,America/Los_Angeles,COVID-19 Class Cancellation,2020-09-03 22:16:19+00:00,,,"[{'entity_id': '36Ni6bFidX2bME3rKyW8m8R', 'name': 'Los Angeles Trade Technical College', 'type': 'venue', 'formatted_address': '400 West Washington Boulevard\nLos Angeles, CA 90015\nUnited States of America'}]",,10263.0,,False,70,Los Angeles Trade Technical College,-118.269695,34.032848,holiday,in-person,not_estimated,False
,academic,US,,All classes being conducted remotely / suspended in response to COVID-19,,14947199,2020-08-31 06:59:59+00:00,2020-08-27 21:28:14+00:00,pFwtiiVNQWxfpr3LDg,"['academic', 'holiday']","[-118.387156, 34.004228]","[['6295630', '6255149', '6252001', '5332921', '5368381', '5364195'], ['6295630', '6255149', '6252001', '5332921', '5368381', '5368361']]",,1.0,locality,2020-03-11 07:00:00+00:00,active,America/Los_Angeles,COVID-19 Class Cancellation,2020-09-03 22:20:33+00:00,,,"[{'entity_id': 'aZtwEWCRc8nfX4CcFksdip', 'name': 'West Los Angeles College', 'type': 'venue', 'formatted_address': '9000 Overland Avenue\nCulver City, CA 90230\nUnited States of America'}]",,2478.0,,False,58,West Los Angeles College,-118.387156,34.004228,holiday,in-person,not_estimated,False
,academic,US,,All classes being conducted remotely / suspended in response to COVID-19,,17625599,2020-10-01 06:59:59+00:00,2020-08-27 21:28:04+00:00,viKmy5rgLnsk23YLnz,"['academic', 'holiday']","[-118.445181, 34.068921]","[['6295630', '6255149', '6252001', '5332921', '5368381', '5408545'], ['6295630', '6255149', '6252001', '5332921', '5368381', '5368361']]",,1.0,locality,2020-03-11 07:00:00+00:00,active,America/Los_Angeles,COVID-19 Class Cancellation,2020-09-03 22:27:28+00:00,,,"[{'entity_id': '32afGxjEeXh84pfVwWY9qUk', 'name': 'University of California - Los Angeles', 'type': 'venue', 'formatted_address': 'Los Angeles, CA 90095\nUnited States of America'}]",,31543.0,,False,80,University of California - Los Angeles,-118.445181,34.068921,holiday,in-person,not_estimated,False
,academic,US,,,,1378799,2020-03-23 06:59:59+00:00,2020-08-27 22:39:30+00:00,xfMLBaJE9e8snCd4gj,"['academic', 'holiday']","[-118.416611, 33.970163]","[['6295630', '6255149', '6252001', '5332921', '5368381', '5323452'], ['6295630', '6255149', '6252001', '5332921', '5368381', '5368361']]",,1.0,locality,2020-03-07 08:00:00+00:00,active,America/Los_Angeles,Spring Break,2020-09-03 22:27:45+00:00,,,"[{'entity_id': 'w5KkFLAQnvrWF8nDe4PKWQ', 'name': 'Loyola Marymount University', 'type': 'venue', 'formatted_address': '1 Loyola Marymount University Drive\nLos Angeles, CA 90045\nUnited States of America'}]",,6665.0,,False,66,Loyola Marymount University,-118.416611,33.970163,holiday,in-person,not_estimated,False
,academic,US,,,,9154799,2020-06-03 06:59:59+00:00,2020-08-27 22:30:23+00:00,7cHGJheDCaNiw9NsDD,"['academic', 'academic-session']","[-118.227919, 34.16658]","[['6295630', '6255149', '6252001', '5332921', '5368381', '5344624'], ['6295630', '6255149', '6252001', '5332921', '5368381', '5368361']]",,1.0,locality,2020-02-18 08:00:00+00:00,active,America/Los_Angeles,Spring Session,2020-09-03 22:26:55+00:00,,,"[{'entity_id': '37Kjv45jpCD2iLBByC83iUW', 'name': 'Glendale Community College', 'type': 'venue', 'formatted_address': '1500 North Verdugo Road\nGlendale, CA 91208\nUnited States of America'}]",,14781.0,,False,73,Glendale Community College,-118.227919,34.16658,academic-session,in-person,not_estimated,True
,academic,US,,,,9673199,2020-06-09 06:59:59+00:00,2020-08-27 22:59:32+00:00,PnKyaCHqDfagmNu7Zu,"['academic', 'academic-session']","[-118.470395, 34.016557]","[['6295630', '6255149', '6252001', '5332921', '5368381', '5393701'], ['6295630', '6255149', '6252001', '5332921', '5368381', '5368361']]",,1.0,locality,2020-02-18 08:00:00+00:00,active,America/Los_Angeles,Spring Session,2020-09-03 22:14:48+00:00,,,"[{'entity_id': 'PzFqeGx7V5zPwb2zemvXTB', 'name': 'Santa Monica College', 'type': 'venue', 'formatted_address': '1900 Pico Boulevard\nSanta Monica, CA 90405\nUnited States of America'}]",,24153.0,,False,78,Santa Monica College,-118.470395,34.016557,academic-session,in-person,not_estimated,True
,academic,US,,,,9759599,2020-06-02 06:59:59+00:00,2020-08-27 23:11:49+00:00,ZwEJtcimCSTPegeChr,"['academic', 'academic-session']","[-118.387156, 34.004228]","[['6295630', '6255149', '6252001', '5332921', '5368381', '5364195'], ['6295630', '6255149', '6252001', '5332921', '5368381', '5368361']]",,1.0,locality,2020-02-10 08:00:00+00:00,active,America/Los_Angeles,Spring Session,2020-09-03 22:16:58+00:00,,,"[{'entity_id': 'aZtwEWCRc8nfX4CcFksdip', 'name': 'West Los Angeles College', 'type': 'venue', 'formatted_address': '9000 Overland Avenue\nCulver City, CA 90230\nUnited States of America'}]",,2478.0,,False,58,West Los Angeles College,-118.387156,34.004228,academic-session,in-person,not_estimated,True
,academic,US,,,,9759599,2020-06-02 06:59:59+00:00,2020-08-27 22:38:33+00:00,cduSAzyYLXazp46rJa,"['academic', 'academic-session']","[-118.421718, 34.175568]","[['6295630', '6255149', '6252001', '5332921', '5368381', '5368361'], ['6295630', '6255149', '6252001', '5332921', '5368381', '5363024']]",,1.0,locality,2020-02-10 08:00:00+00:00,active,America/Los_Angeles,Spring Session,2021-03-23 21:22:36+00:00,,,"[{'entity_id': 'vveYakrX9C6U3CBvFSZSNQ', 'name': 'Los Angeles Valley College', 'type': 'venue', 'formatted_address': '5800 Fulton Avenue\nLos Angeles, CA 91401\nUnited States of America'}]",,11917.0,,False,72,Los Angeles Valley College,-118.421718,34.175568,academic-session,in-person,not_estimated,True
,academic,US,,,,9759599,2020-06-02 06:59:59+00:00,2020-08-27 22:38:01+00:00,fqj3pcxY2ivTFDyFrN,"['academic', 'academic-session']","[-118.269695, 34.032848]","[['6295630', '6255149', '6252001', '5332921', '5368381', '5368361'], ['6295630', '6255149', '6252001', '5332921', '5368381', '5360529']]",,1.0,locality,2020-02-10 08:00:00+00:00,active,America/Los_Angeles,Spring Session,2020-09-03 22:19:39+00:00,,,"[{'entity_id': '36Ni6bFidX2bME3rKyW8m8R', 'name': 'Los Angeles Trade Technical College', 'type': 'venue', 'formatted_address': '400 West Washington Boulevard\nLos Angeles, CA 90015\nUnited States of America'}]",,10263.0,,False,70,Los Angeles Trade Technical College,-118.269695,34.032848,academic-session,in-person,not_estimated,True
,academic,US,,,,9759599,2020-06-02 06:59:59+00:00,2020-08-27 22:35:24+00:00,uua7MUQ4CX2DzbvtLB,"['academic', 'academic-session']","[-118.292473, 34.087269]","[['6295630', '6255149', '6252001', '5332921', '5368381', '5368361'], ['6295630', '6255149', '6252001', '5332921', '5368381', '8062691']]",,1.0,locality,2020-02-10 08:00:00+00:00,active,America/Los_Angeles,Spring Session,2020-09-03 22:12:59+00:00,,,"[{'entity_id': 'htkLSUCJvJffjDUhU7cfeC', 'name': 'Los Angeles City College', 'type': 'venue', 'formatted_address': '855 North Vermont Avenue\nLos Angeles, CA 90029\nUnited States of America'}]",,10646.0,,False,71,Los Angeles City College,-118.292473,34.087269,academic-session,in-person,not_estimated,True
,academic,US,,,,9500399,2020-05-02 06:59:59+00:00,2020-08-27 23:09:48+00:00,ud8yAwFhW5LDQkDV4U,"['academic', 'academic-session']","[-118.285117, 34.022352]","[['6295630', '6255149', '6252001', '5332921', '5368381', '5368361'], ['6295630', '6255149', '6252001', '5332921', '5368381', '5360529']]",,1.0,locality,2020-01-13 08:00:00+00:00,active,America/Los_Angeles,Spring Session,2020-09-03 22:02:32+00:00,,,"[{'entity_id': 'LD5w4M9KxZgSmmhvgbYdYz', 'name': 'University of Southern California', 'type': 'venue', 'formatted_address': 'Los Angeles, CA 90007\nUnited States of America'}]",,20499.0,,False,76,University of Southern California,-118.285117,34.022352,academic-session,in-person,not_estimated,True
,academic,US,,,,9500399,2020-05-02 06:59:59+00:00,2020-08-27 22:39:30+00:00,yPRWnNCEA3Wgije4Ju,"['academic', 'academic-session']","[-118.416611, 33.970163]","[['6295630', '6255149', '6252001', '5332921', '5368381', '5323452'], ['6295630', '6255149', '6252001', '5332921', '5368381', '5368361']]",,1.0,locality,2020-01-13 08:00:00+00:00,active,America/Los_Angeles,Spring Session,2020-09-03 22:24:06+00:00,,,"[{'entity_id': 'w5KkFLAQnvrWF8nDe4PKWQ', 'name': 'Loyola Marymount University', 'type': 'venue', 'formatted_address': '1 Loyola Marymount University Drive\nLos Angeles, CA 90045\nUnited States of America'}]",,6665.0,,False,66,Loyola Marymount University,-118.416611,33.970163,academic-session,in-person,not_estimated,True
,academic,US,,,,3369599,2020-02-14 07:59:59+00:00,2020-08-27 22:30:22+00:00,28p6NtAkRjUUodb6ku,"['academic', 'academic-session']","[-118.227919, 34.16658]","[['6295630', '6255149', '6252001', '5332921', '5368381', '5344624'], ['6295630', '6255149', '6252001', '5332921', '5368381', '5368361']]",,1.0,locality,2020-01-06 08:00:00+00:00,active,America/Los_Angeles,Winter Session,2020-09-03 22:26:18+00:00,,,"[{'entity_id': '37Kjv45jpCD2iLBByC83iUW', 'name': 'Glendale Community College', 'type': 'venue', 'formatted_address': '1500 North Verdugo Road\nGlendale, CA 91208\nUnited States of America'}]",,4434.0,,False,63,Glendale Community College,-118.227919,34.16658,academic-session,in-person,not_estimated,True
,academic,US,,,,5871599,2020-03-14 06:59:59+00:00,2020-08-27 23:06:23+00:00,PnAqkPWfFyK3j8LwiG,"['academic', 'academic-session']","[-118.445181, 34.068921]","[['6295630', '6255149', '6252001', '5332921', '5368381', '5408545'], ['6295630', '6255149', '6252001', '5332921', '5368381', '5368361']]",,1.0,locality,2020-01-06 08:00:00+00:00,active,America/Los_Angeles,Winter Session,2020-09-03 22:20:41+00:00,,,"[{'entity_id': '32afGxjEeXh84pfVwWY9qUk', 'name': 'University of California - Los Angeles', 'type': 'venue', 'formatted_address': 'Los Angeles, CA 90095\nUnited States of America'}]",,31543.0,,False,80,University of California - Los Angeles,-118.445181,34.068921,academic-session,in-person,not_estimated,True
,academic,US,,,,3023999,2020-02-10 07:59:59+00:00,2020-08-27 23:11:49+00:00,Vqfetvjw2KVkEq9C3B,"['academic', 'academic-session']","[-118.387156, 34.004228]","[['6295630', '6255149', '6252001', '5332921', '5368381', '5364195'], ['6295630', '6255149', '6252001', '5332921', '5368381', '5368361']]",,1.0,locality,2020-01-06 08:00:00+00:00,active,America/Los_Angeles,Winter Session,2020-09-03 22:29:07+00:00,,,"[{'entity_id': 'aZtwEWCRc8nfX4CcFksdip', 'name': 'West Los Angeles College', 'type': 'venue', 'formatted_address': '9000 Overland Avenue\nCulver City, CA 90230\nUnited States of America'}]",,743.0,,False,47,West Los Angeles College,-118.387156,34.004228,academic-session,in-person,not_estimated,True
,academic,US,,,,3023999,2020-02-10 07:59:59+00:00,2020-08-27 22:35:24+00:00,YZfgvb5nrkghkGrWyM,"['academic', 'academic-session']","[-118.292473, 34.087269]","[['6295630', '6255149', '6252001', '5332921', '5368381', '5368361'], ['6295630', '6255149', '6252001', '5332921', '5368381', '8062691']]",,1.0,locality,2020-01-06 08:00:00+00:00,active,America/Los_Angeles,Winter Session,2020-09-03 22:23:55+00:00,,,"[{'entity_id': 'htkLSUCJvJffjDUhU7cfeC', 'name': 'Los Angeles City College', 'type': 'venue', 'formatted_address': '855 North Vermont Avenue\nLos Angeles, CA 90029\nUnited States of America'}]",,3193.0,,False,60,Los Angeles City College,-118.292473,34.087269,academic-session,in-person,not_estimated,True
,academic,US,,,,3369599,2020-02-14 07:59:59+00:00,2020-08-27 22:59:31+00:00,jfHyE7jtgYiXpZ9X6y,"['academic', 'academic-session']","[-118.470395, 34.016557]","[['6295630', '6255149', '6252001', '5332921', '5368381', '5393701'], ['6295630', '6255149', '6252001', '5332921', '5368381', '5368361']]",,1.0,locality,2020-01-06 08:00:00+00:00,active,America/Los_Angeles,Winter Session,2020-09-03 22:21:10+00:00,,,"[{'entity_id': 'PzFqeGx7V5zPwb2zemvXTB', 'name': 'Santa Monica College', 'type': 'venue', 'formatted_address': '1900 Pico Boulevard\nSanta Monica, CA 90405\nUnited States of America'}]",,7246.0,,False,67,Santa Monica College,-118.470395,34.016557,academic-session,in-person,not_estimated,True
,academic,US,,,,2937599,2020-02-09 07:59:59+00:00,2020-08-27 22:38:30+00:00,nCzgjyW8mGLJcHrALn,"['academic', 'academic-session']","[-118.421718, 34.175568]","[['6295630', '6255149', '6252001', '5332921', '5368381', '5368361'], ['6295630', '6255149', '6252001', '5332921', '5368381', '5363024']]",,1.0,locality,2020-01-06 08:00:00+00:00,active,America/Los_Angeles,Winter Session,2020-09-03 22:23:00+00:00,,,"[{'entity_id': 'vveYakrX9C6U3CBvFSZSNQ', 'name': 'Los Angeles Valley College', 'type': 'venue', 'formatted_address': '5800 Fulton Avenue\nLos Angeles, CA 91401\nUnited States of America'}]",,3575.0,,False,61,Los Angeles Valley College,-118.421718,34.175568,academic-session,in-person,not_estimated,True
,academic,US,,,,3023999,2020-02-10 07:59:59+00:00,2020-08-27 22:38:00+00:00,uchXZNC4S8CHMKV5AT,"['academic', 'academic-session']","[-118.269695, 34.032848]","[['6295630', '6255149', '6252001', '5332921', '5368381', '5368361'], ['6295630', '6255149', '6252001', '5332921', '5368381', '5360529']]",,1.0,locality,2020-01-06 08:00:00+00:00,active,America/Los_Angeles,Winter Session,2020-09-03 22:19:26+00:00,,,"[{'entity_id': '36Ni6bFidX2bME3rKyW8m8R', 'name': 'Los Angeles Trade Technical College', 'type': 'venue', 'formatted_address': '400 West Washington Boulevard\nLos Angeles, CA 90015\nUnited States of America'}]",,3078.0,,False,60,Los Angeles Trade Technical College,-118.269695,34.032848,academic-session,in-person,not_estimated,True
,academic,US,,,,2159999,2020-01-13 07:59:59+00:00,2020-08-27 23:09:47+00:00,4sEJTJkwTbsG3orp8y,"['academic', 'holiday']","[-118.285117, 34.022352]","[['6295630', '6255149', '6252001', '5332921', '5368381', '5368361'], ['6295630', '6255149', '6252001', '5332921', '5368381', '5360529']]",,1.0,locality,2019-12-19 08:00:00+00:00,active,America/Los_Angeles,Winter Break,2020-09-03 22:26:34+00:00,,,"[{'entity_id': 'LD5w4M9KxZgSmmhvgbYdYz', 'name': 'University of Southern California', 'type': 'venue', 'formatted_address': 'Los Angeles, CA 90007\nUnited States of America'}]",,19535.0,,False,76,University of Southern California,-118.285117,34.022352,holiday,in-person,not_estimated,False
,academic,US,,,,5270399,2020-02-18 07:59:59+00:00,2020-08-27 22:30:21+00:00,ZgUx9ekqYtuz5PzUjz,"['academic', 'holiday']","[-118.227919, 34.16658]","[['6295630', '6255149', '6252001', '5332921', '5368381', '5344624'], ['6295630', '6255149', '6252001', '5332921', '5368381', '5368361']]",,1.0,locality,2019-12-19 08:00:00+00:00,active,America/Los_Angeles,Winter Break,2020-09-03 22:26:19+00:00,,,"[{'entity_id': '37Kjv45jpCD2iLBByC83iUW', 'name': 'Glendale Community College', 'type': 'venue', 'formatted_address': '1500 North Verdugo Road\nGlendale, CA 91208\nUnited States of America'}]",,14781.0,,False,73,Glendale Community College,-118.227919,34.16658,holiday,in-person,not_estimated,False
,academic,US,,,,5356799,2020-02-18 07:59:59+00:00,2020-08-27 22:59:31+00:00,4AJzYXawYrrs5p4vZ9,"['academic', 'holiday']","[-118.470395, 34.016557]","[['6295630', '6255149', '6252001', '5332921', '5368381', '5393701'], ['6295630', '6255149', '6252001', '5332921', '5368381', '5368361']]",,1.0,locality,2019-12-18 08:00:00+00:00,active,America/Los_Angeles,Winter Break,2020-09-03 22:27:37+00:00,,,"[{'entity_id': 'PzFqeGx7V5zPwb2zemvXTB', 'name': 'Santa Monica College', 'type': 'venue', 'formatted_address': '1900 Pico Boulevard\nSanta Monica, CA 90405\nUnited States of America'}]",,24153.0,,False,78,Santa Monica College,-118.470395,34.016557,holiday,in-person,not_estimated,False
,academic,US,,,,5011199,2020-02-10 07:59:59+00:00,2020-08-27 22:35:23+00:00,2hdQFiVEyyJWWsP8FG,"['academic', 'holiday']","[-118.292473, 34.087269]","[['6295630', '6255149', '6252001', '5332921', '5368381', '5368361'], ['6295630', '6255149', '6252001', '5332921', '5368381', '8062691']]",,1.0,locality,2019-12-14 08:00:00+00:00,active,America/Los_Angeles,Winter Break,2020-09-03 22:15:51+00:00,,,"[{'entity_id': 'htkLSUCJvJffjDUhU7cfeC', 'name': 'Los Angeles City College', 'type': 'venue', 'formatted_address': '855 North Vermont Avenue\nLos Angeles, CA 90029\nUnited States of America'}]",,10646.0,,False,71,Los Angeles City College,-118.292473,34.087269,holiday,in-person,not_estimated,False
,academic,US,,,,5011199,2020-02-10 07:59:59+00:00,2020-08-27 22:38:29+00:00,HzzdzqUKWeMyzYREFx,"['academic', 'holiday']","[-118.421718, 34.175568]","[['6295630', '6255149', '6252001', '5332921', '5368381', '5368361'], ['6295630', '6255149', '6252001', '5332921', '5368381', '5363024']]",,1.0,locality,2019-12-14 08:00:00+00:00,active,America/Los_Angeles,Winter Break,2021-03-23 20:02:16+00:00,,,"[{'entity_id': 'vveYakrX9C6U3CBvFSZSNQ', 'name': 'Los Angeles Valley College', 'type': 'venue', 'formatted_address': '5800 Fulton Avenue\nLos Angeles, CA 91401\nUnited States of America'}]",,11917.0,,False,72,Los Angeles Valley College,-118.421718,34.175568,holiday,in-person,not_estimated,False
,academic,US,,,,1987199,2020-01-06 07:59:59+00:00,2020-08-27 23:06:15+00:00,KeKrLfdfZmRy2Lu9iL,"['academic', 'holiday']","[-118.445181, 34.068921]","[['6295630', '6255149', '6252001', '5332921', '5368381', '5408545'], ['6295630', '6255149', '6252001', '5332921', '5368381', '5368361']]",,1.0,locality,2019-12-14 08:00:00+00:00,active,America/Los_Angeles,Winter Break,2020-09-03 22:16:19+00:00,,,"[{'entity_id': '32afGxjEeXh84pfVwWY9qUk', 'name': 'University of California - Los Angeles', 'type': 'venue', 'formatted_address': 'Los Angeles, CA 90095\nUnited States of America'}]",,31543.0,,False,80,University of California - Los Angeles,-118.445181,34.068921,holiday,in-person,not_estimated,False
,academic,US,,,,5011199,2020-02-10 07:59:59+00:00,2020-08-27 22:37:59+00:00,gCtixPQZm535pvcVpE,"['academic', 'holiday']","[-118.269695, 34.032848]","[['6295630', '6255149', '6252001', '5332921', '5368381', '5368361'], ['6295630', '6255149', '6252001', '5332921', '5368381', '5360529']]",,1.0,locality,2019-12-14 08:00:00+00:00,active,America/Los_Angeles,Winter Break,2020-09-03 22:20:34+00:00,,,"[{'entity_id': '36Ni6bFidX2bME3rKyW8m8R', 'name': 'Los Angeles Trade Technical College', 'type': 'venue', 'formatted_address': '400 West Washington Boulevard\nLos Angeles, CA 90015\nUnited States of America'}]",,10263.0,,False,70,Los Angeles Trade Technical College,-118.269695,34.032848,holiday,in-person,not_estimated,False
,academic,US,,,,5011199,2020-02-10 07:59:59+00:00,2020-08-27 23:11:49+00:00,ggrdMYWFB5JgputS8y,"['academic', 'holiday']","[-118.387156, 34.004228]","[['6295630', '6255149', '6252001', '5332921', '5368381', '5364195'], ['6295630', '6255149', '6252001', '5332921', '5368381', '5368361']]",,1.0,locality,2019-12-14 08:00:00+00:00,active,America/Los_Angeles,Winter Break,2020-09-03 22:19:24+00:00,,,"[{'entity_id': 'aZtwEWCRc8nfX4CcFksdip', 'name': 'West Los Angeles College', 'type': 'venue', 'formatted_address': '9000 Overland Avenue\nCulver City, CA 90230\nUnited States of America'}]",,2478.0,,False,58,West Los Angeles College,-118.387156,34.004228,holiday,in-person,not_estimated,False
,academic,US,,,,2591999,2020-01-13 07:59:59+00:00,2020-08-27 22:39:29+00:00,q9rpjmaMLHto37WGvq,"['academic', 'holiday']","[-118.416611, 33.970163]","[['6295630', '6255149', '6252001', '5332921', '5368381', '5323452'], ['6295630', '6255149', '6252001', '5332921', '5368381', '5368361']]",,1.0,locality,2019-12-14 08:00:00+00:00,active,America/Los_Angeles,Winter Break,2020-09-03 22:28:30+00:00,,,"[{'entity_id': 'w5KkFLAQnvrWF8nDe4PKWQ', 'name': 'Loyola Marymount University', 'type': 'venue', 'formatted_address': '1 Loyola Marymount University Drive\nLos Angeles, CA 90045\nUnited States of America'}]",,6584.0,,False,66,Loyola Marymount University,-118.416611,33.970163,holiday,in-person,not_estimated,False
,academic,US,,,,691199,2019-12-19 07:59:59+00:00,2020-08-27 22:30:21+00:00,7npApdM8pFm3JWasaQ,"['academic', 'exam']","[-118.227919, 34.16658]","[['6295630', '6255149', '6252001', '5332921', '5368381', '5344624'], ['6295630', '6255149', '6252001', '5332921', '5368381', '5368361']]",,1.0,locality,2019-12-11 08:00:00+00:00,active,America/Los_Angeles,Fall Exams,2020-09-03 22:22:15+00:00,,,"[{'entity_id': '37Kjv45jpCD2iLBByC83iUW', 'name': 'Glendale Community College', 'type': 'venue', 'formatted_address': '1500 North Verdugo Road\nGlendale, CA 91208\nUnited States of America'}]",,14781.0,,False,73,Glendale Community College,-118.227919,34.16658,exam,in-person,not_estimated,True
,academic,US,,,,691199,2019-12-19 07:59:59+00:00,2020-08-27 23:09:46+00:00,GxHotBmQYB7DrGmsri,"['academic', 'exam']","[-118.285117, 34.022352]","[['6295630', '6255149', '6252001', '5332921', '5368381', '5368361'], ['6295630', '6255149', '6252001', '5332921', '5368381', '5360529']]",,1.0,locality,2019-12-11 08:00:00+00:00,active,America/Los_Angeles,Fall Exams,2020-09-03 22:25:19+00:00,,,"[{'entity_id': 'LD5w4M9KxZgSmmhvgbYdYz', 'name': 'University of Southern California', 'type': 'venue', 'formatted_address': 'Los Angeles, CA 90007\nUnited States of America'}]",,19535.0,,False,76,University of Southern California,-118.285117,34.022352,exam,in-person,not_estimated,True
,academic,US,,,,691199,2019-12-18 07:59:59+00:00,2020-08-27 22:59:31+00:00,YhoeTCji89avumFkpL,"['academic', 'exam']","[-118.470395, 34.016557]","[['6295630', '6255149', '6252001', '5332921', '5368381', '5393701'], ['6295630', '6255149', '6252001', '5332921', '5368381', '5368361']]",,1.0,locality,2019-12-10 08:00:00+00:00,active,America/Los_Angeles,Fall Exams,2020-09-03 22:29:58+00:00,,,"[{'entity_id': 'PzFqeGx7V5zPwb2zemvXTB', 'name': 'Santa Monica College', 'type': 'venue', 'formatted_address': '1900 Pico Boulevard\nSanta Monica, CA 90405\nUnited States of America'}]",,24153.0,,False,78,Santa Monica College,-118.470395,34.016557,exam,in-person,not_estimated,True
,academic,US,,,,431999,2019-12-14 07:59:59+00:00,2020-08-27 22:37:59+00:00,5sfA56AWT8jQDzUNxo,"['academic', 'exam']","[-118.269695, 34.032848]","[['6295630', '6255149', '6252001', '5332921', '5368381', '5368361'], ['6295630', '6255149', '6252001', '5332921', '5368381', '5360529']]",,1.0,locality,2019-12-09 08:00:00+00:00,active,America/Los_Angeles,Fall Exams,2020-09-03 22:03:39+00:00,,,"[{'entity_id': '36Ni6bFidX2bME3rKyW8m8R', 'name': 'Los Angeles Trade Technical College', 'type': 'venue', 'formatted_address': '400 West Washington Boulevard\nLos Angeles, CA 90015\nUnited States of America'}]",,10263.0,,False,70,Los Angeles Trade Technical College,-118.269695,34.032848,exam,in-person,not_estimated,True
,academic,US,,,,431999,2019-12-14 07:59:59+00:00,2020-08-27 22:39:27+00:00,MdyReX6syB4SVCpsQV,"['academic', 'exam']","[-118.416611, 33.970163]","[['6295630', '6255149', '6252001', '5332921', '5368381', '5323452'], ['6295630', '6255149', '6252001', '5332921', '5368381', '5368361']]",,1.0,locality,2019-12-09 08:00:00+00:00,active,America/Los_Angeles,Fall Exams,2020-09-03 22:17:05+00:00,,,"[{'entity_id': 'w5KkFLAQnvrWF8nDe4PKWQ', 'name': 'Loyola Marymount University', 'type': 'venue', 'formatted_address': '1 Loyola Marymount University Drive\nLos Angeles, CA 90045\nUnited States of America'}]",,6584.0,,False,66,Loyola Marymount University,-118.416611,33.970163,exam,in-person,not_estimated,True
,academic,US,,,,431999,2019-12-14 07:59:59+00:00,2020-08-27 22:35:22+00:00,d2vPygEVLaoC9MAvB5,"['academic', 'exam']","[-118.292473, 34.087269]","[['6295630', '6255149', '6252001', '5332921', '5368381', '5368361'], ['6295630', '6255149', '6252001', '5332921', '5368381', '8062691']]",,1.0,locality,2019-12-09 08:00:00+00:00,active,America/Los_Angeles,Fall Exams,2020-09-03 22:25:14+00:00,,,"[{'entity_id': 'htkLSUCJvJffjDUhU7cfeC', 'name': 'Los Angeles City College', 'type': 'venue', 'formatted_address': '855 North Vermont Avenue\nLos Angeles, CA 90029\nUnited States of America'}]",,10646.0,,False,71,Los Angeles City College,-118.292473,34.087269,exam,in-person,not_estimated,True
,academic,US,,,,431999,2019-12-14 07:59:59+00:00,2020-08-27 23:06:15+00:00,dNb8Kb6NEcKFAzuQyu,"['academic', 'exam']","[-118.445181, 34.068921]","[['6295630', '6255149', '6252001', '5332921', '5368381', '5408545'], ['6295630', '6255149', '6252001', '5332921', '5368381', '5368361']]",,1.0,locality,2019-12-09 08:00:00+00:00,active,America/Los_Angeles,Fall Exams,2020-09-03 22:27:37+00:00,,,"[{'entity_id': '32afGxjEeXh84pfVwWY9qUk', 'name': 'University of California - Los Angeles', 'type': 'venue', 'formatted_address': 'Los Angeles, CA 90095\nUnited States of America'}]",,31543.0,,False,80,University of California - Los Angeles,-118.445181,34.068921,exam,in-person,not_estimated,True
,academic,US,,,,431999,2019-12-14 07:59:59+00:00,2020-08-27 23:11:48+00:00,ewjkT3J8vHVF3RCaxo,"['academic', 'exam']","[-118.387156, 34.004228]","[['6295630', '6255149', '6252001', '5332921', '5368381', '5364195'], ['6295630', '6255149', '6252001', '5332921', '5368381', '5368361']]",,1.0,locality,2019-12-09 08:00:00+00:00,active,America/Los_Angeles,Fall Exams,2020-09-03 22:11:37+00:00,,,"[{'entity_id': 'aZtwEWCRc8nfX4CcFksdip', 'name': 'West Los Angeles College', 'type': 'venue', 'formatted_address': '9000 Overland Avenue\nCulver City, CA 90230\nUnited States of America'}]",,2478.0,,False,58,West Los Angeles College,-118.387156,34.004228,exam,in-person,not_estimated,True
,academic,US,,,,431999,2019-12-14 07:59:59+00:00,2020-08-27 22:38:29+00:00,mJM535KTkeAp4KPSps,"['academic', 'exam']","[-118.421718, 34.175568]","[['6295630', '6255149', '6252001', '5332921', '5368381', '5368361'], ['6295630', '6255149', '6252001', '5332921', '5368381', '5363024']]",,1.0,locality,2019-12-09 08:00:00+00:00,active,America/Los_Angeles,Fall Exams,2021-03-23 20:58:57+00:00,,,"[{'entity_id': 'vveYakrX9C6U3CBvFSZSNQ', 'name': 'Los Angeles Valley College', 'type': 'venue', 'formatted_address': '5800 Fulton Avenue\nLos Angeles, CA 91401\nUnited States of America'}]",,11917.0,,False,72,Los Angeles Valley College,-118.421718,34.175568,exam,in-person,not_estimated,True
,academic,US,,,,345599,2019-12-02 07:59:59+00:00,2020-08-27 23:11:46+00:00,2B8xZ2YiiuWdTCsnoZ,"['academic', 'holiday']","[-118.387156, 34.004228]","[['6295630', '6255149', '6252001', '5332921', '5368381', '5364195'], ['6295630', '6255149', '6252001', '5332921', '5368381', '5368361']]",,1.0,locality,2019-11-28 08:00:00+00:00,active,America/Los_Angeles,Thanksgiving Break,2020-09-03 22:21:39+00:00,,,"[{'entity_id': 'aZtwEWCRc8nfX4CcFksdip', 'name': 'West Los Angeles College', 'type': 'venue', 'formatted_address': '9000 Overland Avenue\nCulver City, CA 90230\nUnited States of America'}]",,2478.0,,False,58,West Los Angeles College,-118.387156,34.004228,holiday,in-person,not_estimated,False
,academic,US,,,,345599,2019-12-02 07:59:59+00:00,2020-08-27 22:37:58+00:00,6iqcWi9H6DpwH7gA3F,"['academic', 'holiday']","[-118.269695, 34.032848]","[['6295630', '6255149', '6252001', '5332921', '5368381', '5368361'], ['6295630', '6255149', '6252001', '5332921', '5368381', '5360529']]",,1.0,locality,2019-11-28 08:00:00+00:00,active,America/Los_Angeles,Thanksgiving Break,2020-09-03 22:16:12+00:00,,,"[{'entity_id': '36Ni6bFidX2bME3rKyW8m8R', 'name': 'Los Angeles Trade Technical College', 'type': 'venue', 'formatted_address': '400 West Washington Boulevard\nLos Angeles, CA 90015\nUnited States of America'}]",,10263.0,,False,70,Los Angeles Trade Technical College,-118.269695,34.032848,holiday,in-person,not_estimated,False
,academic,US,,,,345599,2019-12-02 07:59:59+00:00,2020-08-27 22:59:27+00:00,85dbuYqJv8tiJMz6aJ,"['academic', 'holiday']","[-118.470395, 34.016557]","[['6295630', '6255149', '6252001', '5332921', '5368381', '5393701'], ['6295630', '6255149', '6252001', '5332921', '5368381', '5368361']]",,1.0,locality,2019-11-28 08:00:00+00:00,active,America/Los_Angeles,Thanksgiving Break,2020-09-03 22:18:23+00:00,,,"[{'entity_id': 'PzFqeGx7V5zPwb2zemvXTB', 'name': 'Santa Monica College', 'type': 'venue', 'formatted_address': '1900 Pico Boulevard\nSanta Monica, CA 90405\nUnited States of America'}]",,24153.0,,False,78,Santa Monica College,-118.470395,34.016557,holiday,in-person,not_estimated,False
,academic,US,,,,345599,2019-12-02 07:59:59+00:00,2020-08-27 22:30:20+00:00,EVeWN6KpfovFLceUaA,"['academic', 'holiday']","[-118.227919, 34.16658]","[['6295630', '6255149', '6252001', '5332921', '5368381', '5344624'], ['6295630', '6255149', '6252001', '5332921', '5368381', '5368361']]",,1.0,locality,2019-11-28 08:00:00+00:00,active,America/Los_Angeles,Thanksgiving Break,2020-09-03 22:15:30+00:00,,,"[{'entity_id': '37Kjv45jpCD2iLBByC83iUW', 'name': 'Glendale Community College', 'type': 'venue', 'formatted_address': '1500 North Verdugo Road\nGlendale, CA 91208\nUnited States of America'}]",,14781.0,,False,73,Glendale Community College,-118.227919,34.16658,holiday,in-person,not_estimated,False
,academic,US,,,,345599,2019-12-02 07:59:59+00:00,2020-08-27 22:35:21+00:00,aSANXpSai5SYCqw7Wb,"['academic', 'holiday']","[-118.292473, 34.087269]","[['6295630', '6255149', '6252001', '5332921', '5368381', '5368361'], ['6295630', '6255149', '6252001', '5332921', '5368381', '8062691']]",,1.0,locality,2019-11-28 08:00:00+00:00,active,America/Los_Angeles,Thanksgiving Break,2020-09-03 22:27:09+00:00,,,"[{'entity_id': 'htkLSUCJvJffjDUhU7cfeC', 'name': 'Los Angeles City College', 'type': 'venue', 'formatted_address': '855 North Vermont Avenue\nLos Angeles, CA 90029\nUnited States of America'}]",,10646.0,,False,71,Los Angeles City College,-118.292473,34.087269,holiday,in-person,not_estimated,False
,academic,US,,,,345599,2019-12-02 07:59:59+00:00,2020-08-27 22:38:28+00:00,df9TuhiuCDQqyN3AMC,"['academic', 'holiday']","[-118.421718, 34.175568]","[['6295630', '6255149', '6252001', '5332921', '5368381', '5368361'], ['6295630', '6255149', '6252001', '5332921', '5368381', '5363024']]",,1.0,locality,2019-11-28 08:00:00+00:00,active,America/Los_Angeles,Thanksgiving Break,2021-03-23 19:59:21+00:00,,,"[{'entity_id': 'vveYakrX9C6U3CBvFSZSNQ', 'name': 'Los Angeles Valley College', 'type': 'venue', 'formatted_address': '5800 Fulton Avenue\nLos Angeles, CA 91401\nUnited States of America'}]",,11917.0,,False,72,Los Angeles Valley College,-118.421718,34.175568,holiday,in-person,not_estimated,False
,academic,US,,,,345599,2019-12-02 07:59:59+00:00,2020-08-27 23:06:59+00:00,znTkc6S55GU7nWkpP8,"['academic', 'holiday']","[-118.445181, 34.068921]","[['6295630', '6255149', '6252001', '5332921', '5368381', '5408545'], ['6295630', '6255149', '6252001', '5332921', '5368381', '5368361']]",,1.0,locality,2019-11-28 08:00:00+00:00,active,America/Los_Angeles,Thanksgiving Break,2020-09-03 22:26:47+00:00,,,"[{'entity_id': '32afGxjEeXh84pfVwWY9qUk', 'name': 'University of California - Los Angeles', 'type': 'venue', 'formatted_address': 'Los Angeles, CA 90095\nUnited States of America'}]",,31543.0,,False,80,University of California - Los Angeles,-118.445181,34.068921,holiday,in-person,not_estimated,False
,academic,US,,,,431999,2019-12-02 07:59:59+00:00,2020-08-27 23:09:45+00:00,PBxUA5kYmb2w2aGBFX,"['academic', 'holiday']","[-118.285117, 34.022352]","[['6295630', '6255149', '6252001', '5332921', '5368381', '5368361'], ['6295630', '6255149', '6252001', '5332921', '5368381', '5360529']]",,1.0,locality,2019-11-27 08:00:00+00:00,active,America/Los_Angeles,Thanksgiving Break,2020-09-03 22:23:47+00:00,,,"[{'entity_id': 'LD5w4M9KxZgSmmhvgbYdYz', 'name': 'University of Southern California', 'type': 'venue', 'formatted_address': 'Los Angeles, CA 90007\nUnited States of America'}]",,19535.0,,False,76,University of Southern California,-118.285117,34.022352,holiday,in-person,not_estimated,False
,academic,US,,,,431999,2019-12-02 07:59:59+00:00,2020-08-27 22:39:27+00:00,hqBB7qqxro38Trn3nA,"['academic', 'holiday']","[-118.416611, 33.970163]","[['6295630', '6255149', '6252001', '5332921', '5368381', '5323452'], ['6295630', '6255149', '6252001', '5332921', '5368381', '5368361']]",,1.0,locality,2019-11-27 08:00:00+00:00,active,America/Los_Angeles,Thanksgiving Break,2020-09-03 22:24:55+00:00,,,"[{'entity_id': 'w5KkFLAQnvrWF8nDe4PKWQ', 'name': 'Loyola Marymount University', 'type': 'venue', 'formatted_address': '1 Loyola Marymount University Drive\nLos Angeles, CA 90045\nUnited States of America'}]",,6584.0,,False,66,Loyola Marymount University,-118.416611,33.970163,holiday,in-person,not_estimated,False
,academic,US,,,,86399,2019-10-27 06:59:59+00:00,2020-08-27 23:06:20+00:00,r8RCCNQJzhTJZxdTzB,"['academic', 'social']","[-118.445181, 34.068921]","[['6295630', '6255149', '6252001', '5332921', '5368381', '5408545'], ['6295630', '6255149', '6252001', '5332921', '5368381', '5368361']]",,1.0,locality,2019-10-26 07:00:00+00:00,active,America/Los_Angeles,Homecoming,2020-08-28 00:30:26+00:00,,,"[{'entity_id': '32afGxjEeXh84pfVwWY9qUk', 'name': 'University of California - Los Angeles', 'type': 'venue', 'formatted_address': 'Los Angeles, CA 90095\nUnited States of America'}]",,0.0,,False,0,University of California - Los Angeles,-118.445181,34.068921,social,in-person,not_estimated,True
,academic,US,,,,86399,2019-10-20 06:59:59+00:00,2020-08-27 23:09:45+00:00,9H7Gf7WB3BCw26yHPv,"['academic', 'social']","[-118.285117, 34.022352]","[['6295630', '6255149', '6252001', '5332921', '5368381', '5368361'], ['6295630', '6255149', '6252001', '5332921', '5368381', '5360529']]",,1.0,locality,2019-10-19 07:00:00+00:00,active,America/Los_Angeles,Homecoming,2020-08-27 23:55:12+00:00,,,"[{'entity_id': 'LD5w4M9KxZgSmmhvgbYdYz', 'name': 'University of Southern California', 'type': 'venue', 'formatted_address': 'Los Angeles, CA 90007\nUnited States of America'}]",,0.0,,False,0,University of Southern California,-118.285117,34.022352,social,in-person,not_estimated,True
,academic,US,,,,345599,2019-10-21 06:59:59+00:00,2020-08-27 23:09:44+00:00,XCJywcsuZDEufrEUWe,"['academic', 'holiday']","[-118.285117, 34.022352]","[['6295630', '6255149', '6252001', '5332921', '5368381', '5368361'], ['6295630', '6255149', '6252001', '5332921', '5368381', '5360529']]",,1.0,locality,2019-10-17 07:00:00+00:00,active,America/Los_Angeles,Fall Break,2020-09-03 22:18:16+00:00,,,"[{'entity_id': 'LD5w4M9KxZgSmmhvgbYdYz', 'name': 'University of Southern California', 'type': 'venue', 'formatted_address': 'Los Angeles, CA 90007\nUnited States of America'}]",,19535.0,,False,76,University of Southern California,-118.285117,34.022352,holiday,in-person,not_estimated,False
,academic,US,,,,518399,2019-10-20 06:59:59+00:00,2020-08-27 22:59:27+00:00,eYiUprTeNpjYnZADWU,"['academic', 'social']","[-118.470395, 34.016557]","[['6295630', '6255149', '6252001', '5332921', '5368381', '5393701'], ['6295630', '6255149', '6252001', '5332921', '5368381', '5368361']]",,1.0,locality,2019-10-14 07:00:00+00:00,active,America/Los_Angeles,Homecoming,2020-08-27 23:13:27+00:00,,,"[{'entity_id': 'PzFqeGx7V5zPwb2zemvXTB', 'name': 'Santa Monica College', 'type': 'venue', 'formatted_address': '1900 Pico Boulevard\nSanta Monica, CA 90405\nUnited States of America'}]",,0.0,,False,0,Santa Monica College,-118.470395,34.016557,social,in-person,not_estimated,True
,academic,US,,,,6224399,2019-12-07 07:59:59+00:00,2020-08-27 23:05:45+00:00,MJJBs5pef2tMdYWE9b,"['academic', 'academic-session']","[-118.445181, 34.068921]","[['6295630', '6255149', '6252001', '5332921', '5368381', '5408545'], ['6295630', '6255149', '6252001', '5332921', '5368381', '5368361']]",,1.0,locality,2019-09-26 07:00:00+00:00,active,America/Los_Angeles,Fall Session,2020-09-03 22:24:12+00:00,,,"[{'entity_id': '32afGxjEeXh84pfVwWY9qUk', 'name': 'University of California - Los Angeles', 'type': 'venue', 'formatted_address': 'Los Angeles, CA 90095\nUnited States of America'}]",,31543.0,,False,80,University of California - Los Angeles,-118.445181,34.068921,academic-session,in-person,not_estimated,True
,academic,US,,,,8557199,2019-12-11 07:59:59+00:00,2020-08-27 22:30:21+00:00,xKWGqutnNATZ7atdNk,"['academic', 'academic-session']","[-118.227919, 34.16658]","[['6295630', '6255149', '6252001', '5332921', '5368381', '5344624'], ['6295630', '6255149', '6252001', '5332921', '5368381', '5368361']]",,1.0,locality,2019-09-03 07:00:00+00:00,active,America/Los_Angeles,Fall Session,2020-09-03 22:19:39+00:00,,,"[{'entity_id': '37Kjv45jpCD2iLBByC83iUW', 'name': 'Glendale Community College', 'type': 'venue', 'formatted_address': '1500 North Verdugo Road\nGlendale, CA 91208\nUnited States of America'}]",,14781.0,,False,73,Glendale Community College,-118.227919,34.16658,academic-session,in-person,not_estimated,True
,academic,US,,,,8902799,2019-12-07 07:59:59+00:00,2020-08-27 22:35:21+00:00,WavWt9y9h3b3bW44s5,"['academic', 'academic-session']","[-118.292473, 34.087269]","[['6295630', '6255149', '6252001', '5332921', '5368381', '5368361'], ['6295630', '6255149', '6252001', '5332921', '5368381', '8062691']]",,1.0,locality,2019-08-26 07:00:00+00:00,active,America/Los_Angeles,Fall Session,2020-09-03 22:22:04+00:00,,,"[{'entity_id': 'htkLSUCJvJffjDUhU7cfeC', 'name': 'Los Angeles City College', 'type': 'venue', 'formatted_address': '855 North Vermont Avenue\nLos Angeles, CA 90029\nUnited States of America'}]",,10646.0,,False,71,Los Angeles City College,-118.292473,34.087269,academic-session,in-person,not_estimated,True
,academic,US,,,,8902799,2019-12-07 07:59:59+00:00,2020-08-27 23:09:43+00:00,X3PYgPoJzfs8ByPest,"['academic', 'academic-session']","[-118.285117, 34.022352]","[['6295630', '6255149', '6252001', '5332921', '5368381', '5368361'], ['6295630', '6255149', '6252001', '5332921', '5368381', '5360529']]",,1.0,locality,2019-08-26 07:00:00+00:00,active,America/Los_Angeles,Fall Session,2020-09-03 22:29:14+00:00,,,"[{'entity_id': 'LD5w4M9KxZgSmmhvgbYdYz', 'name': 'University of Southern California', 'type': 'venue', 'formatted_address': 'Los Angeles, CA 90007\nUnited States of America'}]",,19535.0,,False,76,University of Southern California,-118.285117,34.022352,academic-session,in-person,not_estimated,True
,academic,US,,,,8902799,2019-12-07 07:59:59+00:00,2020-08-27 22:38:29+00:00,gNYtArNYKeGaEZ8YRj,"['academic', 'academic-session']","[-118.421718, 34.175568]","[['6295630', '6255149', '6252001', '5332921', '5368381', '5368361'], ['6295630', '6255149', '6252001', '5332921', '5368381', '5363024']]",,1.0,locality,2019-08-26 07:00:00+00:00,active,America/Los_Angeles,Fall Session,2021-03-23 21:15:32+00:00,,,"[{'entity_id': 'vveYakrX9C6U3CBvFSZSNQ', 'name': 'Los Angeles Valley College', 'type': 'venue', 'formatted_address': '5800 Fulton Avenue\nLos Angeles, CA 91401\nUnited States of America'}]",,11917.0,,False,72,Los Angeles Valley College,-118.421718,34.175568,academic-session,in-person,not_estimated,True
,academic,US,,,,8902799,2019-12-07 07:59:59+00:00,2020-08-27 22:39:26+00:00,ifpuPwEgx4CgSuf8Qr,"['academic', 'academic-session']","[-118.416611, 33.970163]","[['6295630', '6255149', '6252001', '5332921', '5368381', '5323452'], ['6295630', '6255149', '6252001', '5332921', '5368381', '5368361']]",,1.0,locality,2019-08-26 07:00:00+00:00,active,America/Los_Angeles,Fall Session,2020-09-03 22:19:24+00:00,,,"[{'entity_id': 'w5KkFLAQnvrWF8nDe4PKWQ', 'name': 'Loyola Marymount University', 'type': 'venue', 'formatted_address': '1 Loyola Marymount University Drive\nLos Angeles, CA 90045\nUnited States of America'}]",,6584.0,,False,66,Loyola Marymount University,-118.416611,33.970163,academic-session,in-person,not_estimated,True
,academic,US,,,,8902799,2019-12-07 07:59:59+00:00,2020-08-27 23:11:41+00:00,jctQMnKrgje8rM3sMe,"['academic', 'academic-session']","[-118.387156, 34.004228]","[['6295630', '6255149', '6252001', '5332921', '5368381', '5364195'], ['6295630', '6255149', '6252001', '5332921', '5368381', '5368361']]",,1.0,locality,2019-08-26 07:00:00+00:00,active,America/Los_Angeles,Fall Session,2020-09-03 22:20:02+00:00,,,"[{'entity_id': 'aZtwEWCRc8nfX4CcFksdip', 'name': 'West Los Angeles College', 'type': 'venue', 'formatted_address': '9000 Overland Avenue\nCulver City, CA 90230\nUnited States of America'}]",,2478.0,,False,58,West Los Angeles College,-118.387156,34.004228,academic-session,in-person,not_estimated,True
,academic,US,,,,8902799,2019-12-07 07:59:59+00:00,2020-08-27 22:37:57+00:00,t2RHqCwBgtrhs7Ej76,"['academic', 'academic-session']","[-118.269695, 34.032848]","[['6295630', '6255149', '6252001', '5332921', '5368381', '5368361'], ['6295630', '6255149', '6252001', '5332921', '5368381', '5360529']]",,1.0,locality,2019-08-26 07:00:00+00:00,active,America/Los_Angeles,Fall Session,2020-09-03 22:31:07+00:00,,,"[{'entity_id': '36Ni6bFidX2bME3rKyW8m8R', 'name': 'Los Angeles Trade Technical College', 'type': 'venue', 'formatted_address': '400 West Washington Boulevard\nLos Angeles, CA 90015\nUnited States of America'}]",,10263.0,,False,70,Los Angeles Trade Technical College,-118.269695,34.032848,academic-session,in-person,not_estimated,True
,academic,US,,,,9161999,2019-12-10 07:59:59+00:00,2020-08-27 22:59:26+00:00,y23EpHA3TFDsiALrQo,"['academic', 'academic-session']","[-118.470395, 34.016557]","[['6295630', '6255149', '6252001', '5332921', '5368381', '5393701'], ['6295630', '6255149', '6252001', '5332921', '5368381', '5368361']]",,1.0,locality,2019-08-26 07:00:00+00:00,active,America/Los_Angeles,Fall Session,2020-09-03 22:27:42+00:00,,,"[{'entity_id': 'PzFqeGx7V5zPwb2zemvXTB', 'name': 'Santa Monica College', 'type': 'venue', 'formatted_address': '1900 Pico Boulevard\nSanta Monica, CA 90405\nUnited States of America'}]",,24153.0,,False,78,Santa Monica College,-118.470395,34.016557,academic-session,in-person,not_estimated,True
,academic,US,,,,7084799,2019-09-14 06:59:59+00:00,2020-08-27 23:06:57+00:00,xo6twUHPqkwf9VP5WB,"['academic', 'academic-session']","[-118.445181, 34.068921]","[['6295630', '6255149', '6252001', '5332921', '5368381', '5408545'], ['6295630', '6255149', '6252001', '5332921', '5368381', '5368361']]",,1.0,locality,2019-06-24 07:00:00+00:00,active,America/Los_Angeles,Summer Session,2020-09-03 22:23:25+00:00,,,"[{'entity_id': '32afGxjEeXh84pfVwWY9qUk', 'name': 'University of California - Los Angeles', 'type': 'venue', 'formatted_address': 'Los Angeles, CA 90095\nUnited States of America'}]",,9462.0,,False,70,University of California - Los Angeles,-118.445181,34.068921,academic-session,in-person,not_estimated,True
,academic,US,,,,5875199,2019-08-24 06:59:59+00:00,2020-08-27 22:30:17+00:00,55SJgCGZokpM4CbAQy,"['academic', 'academic-session']","[-118.227919, 34.16658]","[['6295630', '6255149', '6252001', '5332921', '5368381', '5344624'], ['6295630', '6255149', '6252001', '5332921', '5368381', '5368361']]",,1.0,locality,2019-06-17 07:00:00+00:00,active,America/Los_Angeles,Summer Session,2020-09-03 22:24:06+00:00,,,"[{'entity_id': '37Kjv45jpCD2iLBByC83iUW', 'name': 'Glendale Community College', 'type': 'venue', 'formatted_address': '1500 North Verdugo Road\nGlendale, CA 91208\nUnited States of America'}]",,14781.0,,False,73,Glendale Community College,-118.227919,34.16658,academic-session,in-person,not_estimated,True
,academic,US,,,,4665599,2019-08-10 06:59:59+00:00,2020-08-27 22:59:24+00:00,eVbhztKE28fjbiZRaH,"['academic', 'academic-session']","[-118.470395, 34.016557]","[['6295630', '6255149', '6252001', '5332921', '5368381', '5393701'], ['6295630', '6255149', '6252001', '5332921', '5368381', '5368361']]",,1.0,locality,2019-06-17 07:00:00+00:00,active,America/Los_Angeles,Summer Session,2020-09-03 22:18:03+00:00,,,"[{'entity_id': 'PzFqeGx7V5zPwb2zemvXTB', 'name': 'Santa Monica College', 'type': 'venue', 'formatted_address': '1900 Pico Boulevard\nSanta Monica, CA 90405\nUnited States of America'}]",,24153.0,,False,78,Santa Monica College,-118.470395,34.016557,academic-session,in-person,not_estimated,True
,academic,US,,,,8899199,2019-09-26 06:59:59+00:00,2020-08-27 23:06:57+00:00,6JKdzuR67KZrUCmh6d,"['academic', 'holiday']","[-118.445181, 34.068921]","[['6295630', '6255149', '6252001', '5332921', '5368381', '5408545'], ['6295630', '6255149', '6252001', '5332921', '5368381', '5368361']]",,1.0,locality,2019-06-15 07:00:00+00:00,active,America/Los_Angeles,Summer Break,2020-09-03 22:31:23+00:00,,,"[{'entity_id': '32afGxjEeXh84pfVwWY9qUk', 'name': 'University of California - Los Angeles', 'type': 'venue', 'formatted_address': 'Los Angeles, CA 90095\nUnited States of America'}]",,31543.0,,False,80,University of California - Los Angeles,-118.445181,34.068921,holiday,in-person,not_estimated,False
,academic,US,,,,172799,2019-06-16 06:59:59+00:00,2020-08-27 23:06:31+00:00,kGkPy63EDCaAhUdC5k,"['academic', 'graduation']","[-118.446929, 34.070342]","[['6295630', '6255149', '6252001', '5332921', '5368381', '5408545'], ['6295630', '6255149', '6252001', '5332921', '5368381', '5368361']]",,1.0,locality,2019-06-14 07:00:00+00:00,active,America/Los_Angeles,University of California-Los Angeles - Spring Graduation,2021-03-19 14:54:07+00:00,,,"[{'entity_id': 'KZp2taYVtGhQpZuwJC2gM7', 'name': 'Pauley Pavilion', 'type': 'venue', 'formatted_address': '301 Westwood Plaza\nLos Angeles, CA 90095\nUnited States of America'}]",,39800.0,,False,82,Pauley Pavilion,-118.446929,34.070342,graduation,in-person,not_estimated,True
,academic,US,,,,7084799,2019-09-03 06:59:59+00:00,2020-08-27 22:30:19+00:00,WpJGroM6PWetH5L5ds,"['academic', 'holiday']","[-118.227919, 34.16658]","[['6295630', '6255149', '6252001', '5332921', '5368381', '5344624'], ['6295630', '6255149', '6252001', '5332921', '5368381', '5368361']]",,1.0,locality,2019-06-13 07:00:00+00:00,active,America/Los_Angeles,Summer Break,2020-09-03 22:20:14+00:00,,,"[{'entity_id': '37Kjv45jpCD2iLBByC83iUW', 'name': 'Glendale Community College', 'type': 'venue', 'formatted_address': '1500 North Verdugo Road\nGlendale, CA 91208\nUnited States of America'}]",,14781.0,,False,73,Glendale Community College,-118.227919,34.16658,holiday,in-person,not_estimated,False
,academic,US,,,,0,2019-06-13 02:00:00+00:00,2020-08-27 22:30:16+00:00,9fN6HweK3dDNfuBTon,"['academic', 'graduation']","[-118.230368, 34.165671]","[['6295630', '6255149', '6252001', '5332921', '5368381', '5377613'], ['6295630', '6255149', '6252001', '5332921', '5368381', '5368361']]",,1.0,locality,2019-06-13 02:00:00+00:00,active,America/Los_Angeles,Glendale Community College - Spring Graduation,2020-09-03 22:19:06+00:00,,,"[{'entity_id': 'mtsuyqLrehzqY78GHAHuqc', 'name': 'Sartoris Field', 'type': 'venue', 'formatted_address': '1500 North Verdugo Road\nGlendale, CA 91208\nUnited States of America'}]",,7740.0,,False,68,Sartoris Field,-118.230368,34.165671,graduation,in-person,not_estimated,True
,academic,US,,,,6479999,2019-08-26 06:59:59+00:00,2020-08-27 22:59:24+00:00,Bti4ovYZx6bshRK7RE,"['academic', 'holiday']","[-118.470395, 34.016557]","[['6295630', '6255149', '6252001', '5332921', '5368381', '5393701'], ['6295630', '6255149', '6252001', '5332921', '5368381', '5368361']]",,1.0,locality,2019-06-12 07:00:00+00:00,active,America/Los_Angeles,Summer Break,2020-09-03 22:19:39+00:00,,,"[{'entity_id': 'PzFqeGx7V5zPwb2zemvXTB', 'name': 'Santa Monica College', 'type': 'venue', 'formatted_address': '1900 Pico Boulevard\nSanta Monica, CA 90405\nUnited States of America'}]",,24153.0,,False,78,Santa Monica College,-118.470395,34.016557,holiday,in-person,not_estimated,False
,academic,US,,,,0,2019-06-12 01:00:00+00:00,2020-08-27 22:59:23+00:00,HhtpUGYx2zjzk4hsdu,"['academic', 'graduation']","[-118.471615, 34.015521]","[['6295630', '6255149', '6252001', '5332921', '5368381', '5393701'], ['6295630', '6255149', '6252001', '5332921', '5368381', '5368361']]",,1.0,locality,2019-06-12 01:00:00+00:00,active,America/Los_Angeles,Santa Monica College - Spring Graduation,2020-09-03 22:19:59+00:00,,,"[{'entity_id': 'aFHqTvXFn2PGwVab9bYzu4', 'name': 'Corsair Field', 'type': 'venue', 'formatted_address': '1900 Pico Boulevard\nSanta Monica, CA 90405\nUnited States of America'}]",,8000.0,,False,68,Corsair Field,-118.471615,34.015521,graduation,in-person,not_estimated,True
,academic,US,,,,431999,2019-06-15 06:59:59+00:00,2020-08-27 23:06:31+00:00,9aWXXE9CW7rd6xkUyA,"['academic', 'exam']","[-118.445181, 34.068921]","[['6295630', '6255149', '6252001', '5332921', '5368381', '5408545'], ['6295630', '6255149', '6252001', '5332921', '5368381', '5368361']]",,1.0,locality,2019-06-10 07:00:00+00:00,active,America/Los_Angeles,Spring Exams,2020-09-03 22:19:47+00:00,,,"[{'entity_id': '32afGxjEeXh84pfVwWY9qUk', 'name': 'University of California - Los Angeles', 'type': 'venue', 'formatted_address': 'Los Angeles, CA 90095\nUnited States of America'}]",,31543.0,,False,80,University of California - Los Angeles,-118.445181,34.068921,exam,in-person,not_estimated,True
,academic,US,,,,6047999,2019-08-19 06:59:59+00:00,2020-08-27 23:11:39+00:00,EBFhea5nDm6YjPtXXM,"['academic', 'academic-session', 'estimated']","[-118.387156, 34.004228]","[['6295630', '6255149', '6252001', '5332921', '5368381', '5364195'], ['6295630', '6255149', '6252001', '5332921', '5368381', '5368361']]",,1.0,locality,2019-06-10 07:00:00+00:00,active,America/Los_Angeles,Summer Session,2020-09-03 22:22:25+00:00,,,"[{'entity_id': 'aZtwEWCRc8nfX4CcFksdip', 'name': 'West Los Angeles College', 'type': 'venue', 'formatted_address': '9000 Overland Avenue\nCulver City, CA 90230\nUnited States of America'}]",,2478.0,,False,58,West Los Angeles College,-118.387156,34.004228,academic-session,in-person,estimated,True
,academic,US,,,,6047999,2019-08-19 06:59:59+00:00,2020-08-27 22:37:56+00:00,Fa29rBndT6czGKrDDn,"['academic', 'academic-session']","[-118.269695, 34.032848]","[['6295630', '6255149', '6252001', '5332921', '5368381', '5368361'], ['6295630', '6255149', '6252001', '5332921', '5368381', '5360529']]",,1.0,locality,2019-06-10 07:00:00+00:00,active,America/Los_Angeles,Summer Session,2020-09-03 22:16:43+00:00,,,"[{'entity_id': '36Ni6bFidX2bME3rKyW8m8R', 'name': 'Los Angeles Trade Technical College', 'type': 'venue', 'formatted_address': '400 West Washington Boulevard\nLos Angeles, CA 90015\nUnited States of America'}]",,10263.0,,False,70,Los Angeles Trade Technical College,-118.269695,34.032848,academic-session,in-person,not_estimated,True
,academic,US,,,,6652799,2019-08-26 06:59:59+00:00,2020-08-27 22:35:19+00:00,Vh6YH6DrjsZZ3f5vjS,"['academic', 'academic-session']","[-118.292473, 34.087269]","[['6295630', '6255149', '6252001', '5332921', '5368381', '5368361'], ['6295630', '6255149', '6252001', '5332921', '5368381', '8062691']]",,1.0,locality,2019-06-10 07:00:00+00:00,active,America/Los_Angeles,Summer Session,2020-09-03 22:18:22+00:00,,,"[{'entity_id': 'htkLSUCJvJffjDUhU7cfeC', 'name': 'Los Angeles City College', 'type': 'venue', 'formatted_address': '855 North Vermont Avenue\nLos Angeles, CA 90029\nUnited States of America'}]",,3193.0,,False,60,Los Angeles City College,-118.292473,34.087269,academic-session,in-person,not_estimated,True
,academic,US,,,,6047999,2019-08-19 06:59:59+00:00,2020-08-27 22:38:25+00:00,tK8qKP7BzvqmPYyeBd,"['academic', 'academic-session']","[-118.421718, 34.175568]","[['6295630', '6255149', '6252001', '5332921', '5368381', '5368361'], ['6295630', '6255149', '6252001', '5332921', '5368381', '5363024']]",,1.0,locality,2019-06-10 07:00:00+00:00,active,America/Los_Angeles,Summer Session,2021-03-23 20:07:38+00:00,,,"[{'entity_id': 'vveYakrX9C6U3CBvFSZSNQ', 'name': 'Los Angeles Valley College', 'type': 'venue', 'formatted_address': '5800 Fulton Avenue\nLos Angeles, CA 91401\nUnited States of America'}]",,11917.0,,False,72,Los Angeles Valley College,-118.421718,34.175568,academic-session,in-person,not_estimated,True
,academic,US,,,,691199,2019-06-13 06:59:59+00:00,2020-08-27 22:30:15+00:00,SknjofDp57NgbwPWyB,"['academic', 'exam']","[-118.227919, 34.16658]","[['6295630', '6255149', '6252001', '5332921', '5368381', '5344624'], ['6295630', '6255149', '6252001', '5332921', '5368381', '5368361']]",,1.0,locality,2019-06-05 07:00:00+00:00,active,America/Los_Angeles,Spring Exams,2020-09-03 22:31:29+00:00,,,"[{'entity_id': '37Kjv45jpCD2iLBByC83iUW', 'name': 'Glendale Community College', 'type': 'venue', 'formatted_address': '1500 North Verdugo Road\nGlendale, CA 91208\nUnited States of America'}]",,14781.0,,False,73,Glendale Community College,-118.227919,34.16658,exam,in-person,not_estimated,True
,academic,US,,,,0,2019-06-05 01:00:00+00:00,2020-08-27 22:37:54+00:00,AKw8SYiRZqKdPsypNB,"['academic', 'graduation']","[-118.279864, 34.021007]","[['6295630', '6255149', '6252001', '5332921', '5368381', '5368361'], ['6295630', '6255149', '6252001', '5332921', '5368381', '5360529']]",,1.0,locality,2019-06-05 01:00:00+00:00,active,America/Los_Angeles,Los Angeles Trade Technical College - Spring Graduation,2020-09-03 22:19:15+00:00,,,"[{'entity_id': 'iE6WAPTQMrEm4tyUHbgCDM', 'name': 'Galen Center', 'type': 'venue', 'formatted_address': '3400 S Figueroa St\nLos Angeles, CA 90089\nUnited States of America'}]",,10258.0,,False,70,Galen Center,-118.279864,34.021007,graduation,in-person,not_estimated,True
,academic,US,,,,0,2019-06-05 00:00:00+00:00,2020-08-27 22:35:18+00:00,mmqmYuPQKKess9Qf6g,"['academic', 'graduation']","[-118.29629, 34.119532]","[['6295630', '6255149', '6252001', '5332921', '6285747'], ['6295630', '6255149', '6252001', '5332921', '5368381', '5368361']]",,1.0,locality,2019-06-05 00:00:00+00:00,active,America/Los_Angeles,Los Angeles City College - Spring Graduation,2021-03-19 14:14:18+00:00,,,"[{'entity_id': '8KXHXYRMMCtb5MvwZrhkkW', 'name': 'The Greek Theatre', 'type': 'venue', 'formatted_address': '2700 North Vermont Avenue\nLos Angeles, CA 90027\nUnited States of America'}]",,5900.0,,False,65,The Greek Theatre,-118.29629,34.119532,graduation,in-person,not_estimated,True
,academic,US,,,,0,2019-06-05 00:00:00+00:00,2020-08-27 23:11:38+00:00,yMKE9S5F9E6kRFfUkV,"['academic', 'graduation']","[-118.387156, 34.004228]","[['6295630', '6255149', '6252001', '5332921', '5368381', '5364195'], ['6295630', '6255149', '6252001', '5332921', '5368381', '5368361']]",,1.0,locality,2019-06-05 00:00:00+00:00,active,America/Los_Angeles,West Los Angeles College - Spring Graduation,2021-03-19 13:45:36+00:00,,,"[{'entity_id': 'aZtwEWCRc8nfX4CcFksdip', 'name': 'West Los Angeles College', 'type': 'venue', 'formatted_address': '9000 Overland Avenue\nCulver City, CA 90230\nUnited States of America'}]",,9000.0,,False,69,West Los Angeles College,-118.387156,34.004228,graduation,in-person,not_estimated,True
,academic,US,,,,0,2019-06-04 16:00:00+00:00,2020-08-27 22:38:24+00:00,97WX5x9AyMuQ8z8ryq,"['academic', 'graduation']","[-118.415945, 34.174813]","[['6295630', '6255149', '6252001', '5332921', '5368381', '5368361'], ['6295630', '6255149', '6252001', '5332921', '5368381', '5363024']]",,1.0,locality,2019-06-04 16:00:00+00:00,active,America/Los_Angeles,Los Angeles Valley College - Spring Graduation,2021-03-19 12:37:41+00:00,,,"[{'entity_id': 'WALz5Eg3u5wmMrz4eBpVu8', 'name': 'Monarch Stadium', 'type': 'venue', 'formatted_address': '5800 Fulton Avenue\nLos Angeles, CA 91401\nUnited States of America'}]",,9000.0,,False,69,Monarch Stadium,-118.415945,34.174813,graduation,in-person,not_estimated,True
,academic,US,,,,7171199,2019-08-26 06:59:59+00:00,2020-08-27 22:38:26+00:00,3bvgc2zt3CkWqzMHg5,"['academic', 'holiday']","[-118.421718, 34.175568]","[['6295630', '6255149', '6252001', '5332921', '5368381', '5368361'], ['6295630', '6255149', '6252001', '5332921', '5368381', '5363024']]",,1.0,locality,2019-06-04 07:00:00+00:00,active,America/Los_Angeles,Summer Break,2021-03-23 20:52:00+00:00,,,"[{'entity_id': 'vveYakrX9C6U3CBvFSZSNQ', 'name': 'Los Angeles Valley College', 'type': 'venue', 'formatted_address': '5800 Fulton Avenue\nLos Angeles, CA 91401\nUnited States of America'}]",,11917.0,,False,72,Los Angeles Valley College,-118.421718,34.175568,holiday,in-person,not_estimated,False
,academic,US,,,,7171199,2019-08-26 06:59:59+00:00,2020-08-27 23:11:40+00:00,M8UG6uGdfs7TEx7VWy,"['academic', 'estimated', 'holiday']","[-118.387156, 34.004228]","[['6295630', '6255149', '6252001', '5332921', '5368381', '5364195'], ['6295630', '6255149', '6252001', '5332921', '5368381', '5368361']]",,1.0,locality,2019-06-04 07:00:00+00:00,active,America/Los_Angeles,Summer Break,2020-09-03 22:20:30+00:00,,,"[{'entity_id': 'aZtwEWCRc8nfX4CcFksdip', 'name': 'West Los Angeles College', 'type': 'venue', 'formatted_address': '9000 Overland Avenue\nCulver City, CA 90230\nUnited States of America'}]",,2478.0,,False,58,West Los Angeles College,-118.387156,34.004228,holiday,in-person,estimated,False
,academic,US,,,,7171199,2019-08-26 06:59:59+00:00,2020-08-27 22:37:56+00:00,WdY6CTkNBFpV4AXxLg,"['academic', 'holiday']","[-118.269695, 34.032848]","[['6295630', '6255149', '6252001', '5332921', '5368381', '5368361'], ['6295630', '6255149', '6252001', '5332921', '5368381', '5360529']]",,1.0,locality,2019-06-04 07:00:00+00:00,active,America/Los_Angeles,Summer Break,2020-09-03 22:12:55+00:00,,,"[{'entity_id': '36Ni6bFidX2bME3rKyW8m8R', 'name': 'Los Angeles Trade Technical College', 'type': 'venue', 'formatted_address': '400 West Washington Boulevard\nLos Angeles, CA 90015\nUnited States of America'}]",,10263.0,,False,70,Los Angeles Trade Technical College,-118.269695,34.032848,holiday,in-person,not_estimated,False
,academic,US,,,,7171199,2019-08-26 06:59:59+00:00,2020-08-27 22:35:21+00:00,dn2Thh7aeVJ2kxvpL3,"['academic', 'holiday']","[-118.292473, 34.087269]","[['6295630', '6255149', '6252001', '5332921', '5368381', '5368361'], ['6295630', '6255149', '6252001', '5332921', '5368381', '8062691']]",,1.0,locality,2019-06-04 07:00:00+00:00,active,America/Los_Angeles,Summer Break,2020-09-03 22:15:29+00:00,,,"[{'entity_id': 'htkLSUCJvJffjDUhU7cfeC', 'name': 'Los Angeles City College', 'type': 'venue', 'formatted_address': '855 North Vermont Avenue\nLos Angeles, CA 90029\nUnited States of America'}]",,10646.0,,False,71,Los Angeles City College,-118.292473,34.087269,holiday,in-person,not_estimated,False
,academic,US,,,,691199,2019-06-12 06:59:59+00:00,2020-08-27 22:59:22+00:00,rhE8eG8ZXwZdXFLyYW,"['academic', 'exam']","[-118.470395, 34.016557]","[['6295630', '6255149', '6252001', '5332921', '5368381', '5393701'], ['6295630', '6255149', '6252001', '5332921', '5368381', '5368361']]",,1.0,locality,2019-06-04 07:00:00+00:00,active,America/Los_Angeles,Spring Exams,2020-09-03 22:17:26+00:00,,,"[{'entity_id': 'PzFqeGx7V5zPwb2zemvXTB', 'name': 'Santa Monica College', 'type': 'venue', 'formatted_address': '1900 Pico Boulevard\nSanta Monica, CA 90405\nUnited States of America'}]",,24153.0,,False,78,Santa Monica College,-118.470395,34.016557,exam,in-person,not_estimated,True
,academic,US,,,,604799,2019-06-04 06:59:59+00:00,2020-08-27 22:35:17+00:00,PUbaGbHg54Tvh8sbbW,"['academic', 'estimated', 'exam']","[-118.292473, 34.087269]","[['6295630', '6255149', '6252001', '5332921', '5368381', '5368361'], ['6295630', '6255149', '6252001', '5332921', '5368381', '8062691']]",,1.0,locality,2019-05-28 07:00:00+00:00,active,America/Los_Angeles,Spring Exams,2020-09-03 22:20:29+00:00,,,"[{'entity_id': 'htkLSUCJvJffjDUhU7cfeC', 'name': 'Los Angeles City College', 'type': 'venue', 'formatted_address': '855 North Vermont Avenue\nLos Angeles, CA 90029\nUnited States of America'}]",,10646.0,,False,71,Los Angeles City College,-118.292473,34.087269,exam,in-person,estimated,True
,academic,US,,,,604799,2019-06-04 06:59:59+00:00,2020-08-27 22:37:54+00:00,YutJ5T6FbMahQcGE3F,"['academic', 'exam']","[-118.269695, 34.032848]","[['6295630', '6255149', '6252001', '5332921', '5368381', '5368361'], ['6295630', '6255149', '6252001', '5332921', '5368381', '5360529']]",,1.0,locality,2019-05-28 07:00:00+00:00,active,America/Los_Angeles,Spring Exams,2020-09-03 22:26:55+00:00,,,"[{'entity_id': '36Ni6bFidX2bME3rKyW8m8R', 'name': 'Los Angeles Trade Technical College', 'type': 'venue', 'formatted_address': '400 West Washington Boulevard\nLos Angeles, CA 90015\nUnited States of America'}]",,10263.0,,False,70,Los Angeles Trade Technical College,-118.269695,34.032848,exam,in-person,not_estimated,True
,academic,US,,,,604799,2019-06-04 06:59:59+00:00,2020-08-27 22:38:24+00:00,dssGXhTb6gXRJgcFZ3,"['academic', 'exam']","[-118.421718, 34.175568]","[['6295630', '6255149', '6252001', '5332921', '5368381', '5368361'], ['6295630', '6255149', '6252001', '5332921', '5368381', '5363024']]",,1.0,locality,2019-05-28 07:00:00+00:00,active,America/Los_Angeles,Spring Exams,2021-03-23 19:45:28+00:00,,,"[{'entity_id': 'vveYakrX9C6U3CBvFSZSNQ', 'name': 'Los Angeles Valley College', 'type': 'venue', 'formatted_address': '5800 Fulton Avenue\nLos Angeles, CA 91401\nUnited States of America'}]",,11917.0,,False,72,Los Angeles Valley College,-118.421718,34.175568,exam,in-person,not_estimated,True
,academic,US,,,,604799,2019-06-04 06:59:59+00:00,2020-08-27 23:11:37+00:00,eRugyhTET5RGuwJBHy,"['academic', 'estimated', 'exam']","[-118.387156, 34.004228]","[['6295630', '6255149', '6252001', '5332921', '5368381', '5364195'], ['6295630', '6255149', '6252001', '5332921', '5368381', '5368361']]",,1.0,locality,2019-05-28 07:00:00+00:00,active,America/Los_Angeles,Spring Exams,2020-09-03 22:02:50+00:00,,,"[{'entity_id': 'aZtwEWCRc8nfX4CcFksdip', 'name': 'West Los Angeles College', 'type': 'venue', 'formatted_address': '9000 Overland Avenue\nCulver City, CA 90230\nUnited States of America'}]",,2478.0,,False,58,West Los Angeles College,-118.387156,34.004228,exam,in-person,estimated,True
,academic,US,,,,7084799,2019-08-10 06:59:59+00:00,2020-08-27 22:39:25+00:00,J8yvoef5WNTyEyj5pw,"['academic', 'academic-session']","[-118.416611, 33.970163]","[['6295630', '6255149', '6252001', '5332921', '5368381', '5323452'], ['6295630', '6255149', '6252001', '5332921', '5368381', '5368361']]",,1.0,locality,2019-05-20 07:00:00+00:00,active,America/Los_Angeles,Summer Session,2020-09-03 22:20:53+00:00,,,"[{'entity_id': 'w5KkFLAQnvrWF8nDe4PKWQ', 'name': 'Loyola Marymount University', 'type': 'venue', 'formatted_address': '1 Loyola Marymount University Drive\nLos Angeles, CA 90045\nUnited States of America'}]",,1975.0,,False,56,Loyola Marymount University,-118.416611,33.970163,academic-session,in-person,not_estimated,True
,academic,US,,,,7257599,2019-08-07 06:59:59+00:00,2020-08-27 23:09:40+00:00,Edz4jb2ZEFVcqmSzp5,"['academic', 'academic-session']","[-118.285117, 34.022352]","[['6295630', '6255149', '6252001', '5332921', '5368381', '5368361'], ['6295630', '6255149', '6252001', '5332921', '5368381', '5360529']]",,1.0,locality,2019-05-15 07:00:00+00:00,active,America/Los_Angeles,Summer Session,2020-09-03 22:25:13+00:00,,,"[{'entity_id': 'LD5w4M9KxZgSmmhvgbYdYz', 'name': 'University of Southern California', 'type': 'venue', 'formatted_address': 'Los Angeles, CA 90007\nUnited States of America'}]",,5860.0,,False,65,University of Southern California,-118.285117,34.022352,academic-session,in-person,not_estimated,True
,academic,US,,,,9244799,2019-08-26 06:59:59+00:00,2020-08-27 22:39:26+00:00,McCinUHoV6GddeguQZ,"['academic', 'holiday']","[-118.416611, 33.970163]","[['6295630', '6255149', '6252001', '5332921', '5368381', '5323452'], ['6295630', '6255149', '6252001', '5332921', '5368381', '5368361']]",,1.0,locality,2019-05-11 07:00:00+00:00,active,America/Los_Angeles,Summer Break,2020-09-03 22:22:56+00:00,,,"[{'entity_id': 'w5KkFLAQnvrWF8nDe4PKWQ', 'name': 'Loyola Marymount University', 'type': 'venue', 'formatted_address': '1 Loyola Marymount University Drive\nLos Angeles, CA 90045\nUnited States of America'}]",,6584.0,,False,66,Loyola Marymount University,-118.416611,33.970163,holiday,in-person,not_estimated,False
,academic,US,,,,86399,2019-05-12 06:59:59+00:00,2020-08-27 22:39:23+00:00,rJep3VqVdtxHkH8aU4,"['academic', 'graduation']","[-118.416611, 33.970163]","[['6295630', '6255149', '6252001', '5332921', '5368381', '5323452'], ['6295630', '6255149', '6252001', '5332921', '5368381', '5368361']]",,1.0,locality,2019-05-11 07:00:00+00:00,active,America/Los_Angeles,Loyola Marymount University - Spring Graduation,2020-09-03 22:13:58+00:00,,,"[{'entity_id': 'w5KkFLAQnvrWF8nDe4PKWQ', 'name': 'Loyola Marymount University', 'type': 'venue', 'formatted_address': '1 Loyola Marymount University Drive\nLos Angeles, CA 90045\nUnited States of America'}]",,6000.0,,False,66,Loyola Marymount University,-118.416611,33.970163,graduation,in-person,not_estimated,True
,academic,US,,,,0,2019-05-10 15:30:00+00:00,2020-08-27 23:09:39+00:00,ecefdS5cjoZ2SkoJpe,"['academic', 'graduation']","[-118.284637, 34.020431]","[['6295630', '6255149', '6252001', '5332921', '5368381', '5360529'], ['6295630', '6255149', '6252001', '5332921', '5368381', '5368361']]",,1.0,locality,2019-05-10 15:30:00+00:00,active,America/Los_Angeles,University of Southern California - Spring Graduation,2020-09-03 22:23:06+00:00,,,"[{'entity_id': '39cwERM83Vr6zMgH5kJs8Nu', 'name': 'Alumni Memorial Park - USC', 'type': 'venue', 'formatted_address': 'Los Angeles, CA 90089\nUnited States of America'}]",,60000.0,,False,86,Alumni Memorial Park - USC,-118.284637,34.020431,graduation,in-person,not_estimated,True
,academic,US,,,,9417599,2019-08-26 06:59:59+00:00,2020-08-27 23:09:41+00:00,rPuyKpy8FX6q6GLMg3,"['academic', 'holiday']","[-118.285117, 34.022352]","[['6295630', '6255149', '6252001', '5332921', '5368381', '5368361'], ['6295630', '6255149', '6252001', '5332921', '5368381', '5360529']]",,1.0,locality,2019-05-09 07:00:00+00:00,active,America/Los_Angeles,Summer Break,2020-09-03 22:18:43+00:00,,,"[{'entity_id': 'LD5w4M9KxZgSmmhvgbYdYz', 'name': 'University of Southern California', 'type': 'venue', 'formatted_address': 'Los Angeles, CA 90007\nUnited States of America'}]",,19535.0,,False,76,University of Southern California,-118.285117,34.022352,holiday,in-person,not_estimated,False
,academic,US,,,,431999,2019-05-11 06:59:59+00:00,2020-08-27 22:39:23+00:00,AjpArbkisRnNB3dnhp,"['academic', 'exam']","[-118.416611, 33.970163]","[['6295630', '6255149', '6252001', '5332921', '5368381', '5323452'], ['6295630', '6255149', '6252001', '5332921', '5368381', '5368361']]",,1.0,locality,2019-05-06 07:00:00+00:00,active,America/Los_Angeles,Spring Exams,2020-09-03 22:23:19+00:00,,,"[{'entity_id': 'w5KkFLAQnvrWF8nDe4PKWQ', 'name': 'Loyola Marymount University', 'type': 'venue', 'formatted_address': '1 Loyola Marymount University Drive\nLos Angeles, CA 90045\nUnited States of America'}]",,6584.0,,False,66,Loyola Marymount University,-118.416611,33.970163,exam,in-person,not_estimated,True
,academic,US,,,,691199,2019-05-09 06:59:59+00:00,2020-08-27 23:09:38+00:00,QBqLyRdJvXLbpkQvwc,"['academic', 'exam']","[-118.285117, 34.022352]","[['6295630', '6255149', '6252001', '5332921', '5368381', '5368361'], ['6295630', '6255149', '6252001', '5332921', '5368381', '5360529']]",,1.0,locality,2019-05-01 07:00:00+00:00,active,America/Los_Angeles,Spring Exams,2020-09-03 22:26:09+00:00,,,"[{'entity_id': 'LD5w4M9KxZgSmmhvgbYdYz', 'name': 'University of Southern California', 'type': 'venue', 'formatted_address': 'Los Angeles, CA 90007\nUnited States of America'}]",,19535.0,,False,76,University of Southern California,-118.285117,34.022352,exam,in-person,not_estimated,True
,academic,US,,,,777599,2019-04-22 06:59:59+00:00,2020-08-27 22:30:14+00:00,Y2gxsASpvbbVRM8LcT,"['academic', 'holiday']","[-118.227919, 34.16658]","[['6295630', '6255149', '6252001', '5332921', '5368381', '5344624'], ['6295630', '6255149', '6252001', '5332921', '5368381', '5368361']]",,1.0,locality,2019-04-13 07:00:00+00:00,active,America/Los_Angeles,Spring Break,2020-09-03 22:21:14+00:00,,,"[{'entity_id': '37Kjv45jpCD2iLBByC83iUW', 'name': 'Glendale Community College', 'type': 'venue', 'formatted_address': '1500 North Verdugo Road\nGlendale, CA 91208\nUnited States of America'}]",,14781.0,,False,73,Glendale Community College,-118.227919,34.16658,holiday,in-person,not_estimated,False
,academic,US,,,,777599,2019-04-15 06:59:59+00:00,2020-08-27 23:11:37+00:00,PvJUhNcWvTxvb4dCap,"['academic', 'estimated', 'holiday']","[-118.387156, 34.004228]","[['6295630', '6255149', '6252001', '5332921', '5368381', '5364195'], ['6295630', '6255149', '6252001', '5332921', '5368381', '5368361']]",,1.0,locality,2019-04-06 07:00:00+00:00,active,America/Los_Angeles,Spring Break,2020-09-03 22:29:16+00:00,,,"[{'entity_id': 'aZtwEWCRc8nfX4CcFksdip', 'name': 'West Los Angeles College', 'type': 'venue', 'formatted_address': '9000 Overland Avenue\nCulver City, CA 90230\nUnited States of America'}]",,2478.0,,False,58,West Los Angeles College,-118.387156,34.004228,holiday,in-person,estimated,False
,academic,US,,,,777599,2019-04-15 06:59:59+00:00,2020-08-27 22:59:21+00:00,kvMBHx5gKWunbCT8Pa,"['academic', 'holiday']","[-118.470395, 34.016557]","[['6295630', '6255149', '6252001', '5332921', '5368381', '5393701'], ['6295630', '6255149', '6252001', '5332921', '5368381', '5368361']]",,1.0,locality,2019-04-06 07:00:00+00:00,active,America/Los_Angeles,Spring Break,2020-09-03 22:28:32+00:00,,,"[{'entity_id': 'PzFqeGx7V5zPwb2zemvXTB', 'name': 'Santa Monica College', 'type': 'venue', 'formatted_address': '1900 Pico Boulevard\nSanta Monica, CA 90405\nUnited States of America'}]",,24153.0,,False,78,Santa Monica College,-118.470395,34.016557,holiday,in-person,not_estimated,False
,academic,US,,,,5875199,2019-06-08 06:59:59+00:00,2020-08-27 23:06:00+00:00,XcNzTdf7yfo9Ue9WNz,"['academic', 'academic-session']","[-118.445181, 34.068921]","[['6295630', '6255149', '6252001', '5332921', '5368381', '5408545'], ['6295630', '6255149', '6252001', '5332921', '5368381', '5368361']]",,1.0,locality,2019-04-01 07:00:00+00:00,active,America/Los_Angeles,Spring Session,2020-09-03 22:24:06+00:00,,,"[{'entity_id': '32afGxjEeXh84pfVwWY9qUk', 'name': 'University of California - Los Angeles', 'type': 'venue', 'formatted_address': 'Los Angeles, CA 90095\nUnited States of America'}]",,31543.0,,False,80,University of California - Los Angeles,-118.445181,34.068921,academic-session,in-person,not_estimated,True
,academic,US,,,,863999,2019-04-08 06:59:59+00:00,2020-08-27 22:37:53+00:00,TpPXsxoTngj9cfBZoi,"['academic', 'holiday']","[-118.269695, 34.032848]","[['6295630', '6255149', '6252001', '5332921', '5368381', '5368361'], ['6295630', '6255149', '6252001', '5332921', '5368381', '5360529']]",,1.0,locality,2019-03-29 07:00:00+00:00,active,America/Los_Angeles,Spring Break,2020-09-03 22:21:10+00:00,,,"[{'entity_id': '36Ni6bFidX2bME3rKyW8m8R', 'name': 'Los Angeles Trade Technical College', 'type': 'venue', 'formatted_address': '400 West Washington Boulevard\nLos Angeles, CA 90015\nUnited States of America'}]",,10263.0,,False,70,Los Angeles Trade Technical College,-118.269695,34.032848,holiday,in-person,not_estimated,False
,academic,US,,,,950399,2019-04-08 06:59:59+00:00,2020-08-27 22:38:23+00:00,5QAEjUarB7wgb4H7GR,"['academic', 'holiday']","[-118.421718, 34.175568]","[['6295630', '6255149', '6252001', '5332921', '5368381', '5368361'], ['6295630', '6255149', '6252001', '5332921', '5368381', '5363024']]",,1.0,locality,2019-03-28 07:00:00+00:00,active,America/Los_Angeles,Spring Break,2021-03-23 21:12:06+00:00,,,"[{'entity_id': 'vveYakrX9C6U3CBvFSZSNQ', 'name': 'Los Angeles Valley College', 'type': 'venue', 'formatted_address': '5800 Fulton Avenue\nLos Angeles, CA 91401\nUnited States of America'}]",,11917.0,,False,72,Los Angeles Valley College,-118.421718,34.175568,holiday,in-person,not_estimated,False
,academic,US,,,,950399,2019-04-08 06:59:59+00:00,2020-08-27 22:35:16+00:00,yjkk6ZA3oFMjH3sJEy,"['academic', 'holiday']","[-118.292473, 34.087269]","[['6295630', '6255149', '6252001', '5332921', '5368381', '5368361'], ['6295630', '6255149', '6252001', '5332921', '5368381', '8062691']]",,1.0,locality,2019-03-28 07:00:00+00:00,active,America/Los_Angeles,Spring Break,2020-09-03 22:24:04+00:00,,,"[{'entity_id': 'htkLSUCJvJffjDUhU7cfeC', 'name': 'Los Angeles City College', 'type': 'venue', 'formatted_address': '855 North Vermont Avenue\nLos Angeles, CA 90029\nUnited States of America'}]",,10646.0,,False,71,Los Angeles City College,-118.292473,34.087269,holiday,in-person,not_estimated,False
,academic,US,,,,777599,2019-04-01 06:59:59+00:00,2020-08-27 23:06:07+00:00,jgZ9e6nVEgVe97Qa3H,"['academic', 'holiday']","[-118.445181, 34.068921]","[['6295630', '6255149', '6252001', '5332921', '5368381', '5408545'], ['6295630', '6255149', '6252001', '5332921', '5368381', '5368361']]",,1.0,locality,2019-03-23 07:00:00+00:00,active,America/Los_Angeles,Spring Break,2020-09-03 22:29:23+00:00,,,"[{'entity_id': '32afGxjEeXh84pfVwWY9qUk', 'name': 'University of California - Los Angeles', 'type': 'venue', 'formatted_address': 'Los Angeles, CA 90095\nUnited States of America'}]",,31543.0,,False,80,University of California - Los Angeles,-118.445181,34.068921,holiday,in-person,not_estimated,False
,academic,US,,,,431999,2019-03-23 06:59:59+00:00,2020-08-27 23:06:17+00:00,Dhp6rhQvinmZ9JmyA7,"['academic', 'exam']","[-118.445181, 34.068921]","[['6295630', '6255149', '6252001', '5332921', '5368381', '5408545'], ['6295630', '6255149', '6252001', '5332921', '5368381', '5368361']]",,1.0,locality,2019-03-18 07:00:00+00:00,active,America/Los_Angeles,Winter Exams,2020-09-03 22:23:33+00:00,,,"[{'entity_id': '32afGxjEeXh84pfVwWY9qUk', 'name': 'University of California - Los Angeles', 'type': 'venue', 'formatted_address': 'Los Angeles, CA 90095\nUnited States of America'}]",,31543.0,,False,80,University of California - Los Angeles,-118.445181,34.068921,exam,in-person,not_estimated,True
,academic,US,,,,773999,2019-03-18 06:59:59+00:00,2020-08-27 22:39:21+00:00,jF74iqYKgiD2nDP7WP,"['academic', 'holiday']","[-118.416611, 33.970163]","[['6295630', '6255149', '6252001', '5332921', '5368381', '5323452'], ['6295630', '6255149', '6252001', '5332921', '5368381', '5368361']]",,1.0,locality,2019-03-09 08:00:00+00:00,active,America/Los_Angeles,Spring Break,2020-09-03 22:16:06+00:00,,,"[{'entity_id': 'w5KkFLAQnvrWF8nDe4PKWQ', 'name': 'Loyola Marymount University', 'type': 'venue', 'formatted_address': '1 Loyola Marymount University Drive\nLos Angeles, CA 90045\nUnited States of America'}]",,6584.0,,False,66,Loyola Marymount University,-118.416611,33.970163,holiday,in-person,not_estimated,False
,academic,US,,,,773999,2019-03-18 06:59:59+00:00,2020-08-27 23:09:38+00:00,wHdhYpUAKkjqtosk85,"['academic', 'holiday']","[-118.285117, 34.022352]","[['6295630', '6255149', '6252001', '5332921', '5368381', '5368361'], ['6295630', '6255149', '6252001', '5332921', '5368381', '5360529']]",,1.0,locality,2019-03-09 08:00:00+00:00,active,America/Los_Angeles,Spring Break,2020-09-03 22:21:26+00:00,,,"[{'entity_id': 'LD5w4M9KxZgSmmhvgbYdYz', 'name': 'University of Southern California', 'type': 'venue', 'formatted_address': 'Los Angeles, CA 90007\nUnited States of America'}]",,19535.0,,False,76,University of Southern California,-118.285117,34.022352,holiday,in-person,not_estimated,False
,academic,US,,,,9154799,2019-06-05 06:59:59+00:00,2020-08-27 22:30:12+00:00,THU4gTQc8YXQM693BG,"['academic', 'academic-session']","[-118.227919, 34.16658]","[['6295630', '6255149', '6252001', '5332921', '5368381', '5344624'], ['6295630', '6255149', '6252001', '5332921', '5368381', '5368361']]",,1.0,locality,2019-02-19 08:00:00+00:00,active,America/Los_Angeles,Spring Session,2020-09-03 22:13:46+00:00,,,"[{'entity_id': '37Kjv45jpCD2iLBByC83iUW', 'name': 'Glendale Community College', 'type': 'venue', 'formatted_address': '1500 North Verdugo Road\nGlendale, CA 91208\nUnited States of America'}]",,14781.0,,False,73,Glendale Community College,-118.227919,34.16658,academic-session,in-person,not_estimated,True
,academic,US,,,,9759599,2019-06-04 06:59:59+00:00,2020-08-27 22:59:20+00:00,VAL64gpHnxULryYLFL,"['academic', 'academic-session']","[-118.470395, 34.016557]","[['6295630', '6255149', '6252001', '5332921', '5368381', '5393701'], ['6295630', '6255149', '6252001', '5332921', '5368381', '5368361']]",,1.0,locality,2019-02-11 08:00:00+00:00,active,America/Los_Angeles,Spring Session,2020-09-03 22:10:31+00:00,,,"[{'entity_id': 'PzFqeGx7V5zPwb2zemvXTB', 'name': 'Santa Monica College', 'type': 'venue', 'formatted_address': '1900 Pico Boulevard\nSanta Monica, CA 90405\nUnited States of America'}]",,24153.0,,False,78,Santa Monica College,-118.470395,34.016557,academic-session,in-person,not_estimated,True
,academic,US,,,,9759599,2019-05-28 06:59:59+00:00,2020-08-27 23:11:36+00:00,GnmasZWTFiJnPWDMgs,"['academic', 'academic-session', 'estimated']","[-118.387156, 34.004228]","[['6295630', '6255149', '6252001', '5332921', '5368381', '5364195'], ['6295630', '6255149', '6252001', '5332921', '5368381', '5368361']]",,1.0,locality,2019-02-04 08:00:00+00:00,active,America/Los_Angeles,Spring Session,2020-09-03 22:20:01+00:00,,,"[{'entity_id': 'aZtwEWCRc8nfX4CcFksdip', 'name': 'West Los Angeles College', 'type': 'venue', 'formatted_address': '9000 Overland Avenue\nCulver City, CA 90230\nUnited States of America'}]",,2478.0,,False,58,West Los Angeles College,-118.387156,34.004228,academic-session,in-person,estimated,True
,academic,US,,,,9500399,2019-05-25 06:59:59+00:00,2020-08-27 22:38:21+00:00,eTwB5rh39dmUTAzxY4,"['academic', 'academic-session']","[-118.421718, 34.175568]","[['6295630', '6255149', '6252001', '5332921', '5368381', '5368361'], ['6295630', '6255149', '6252001', '5332921', '5368381', '5363024']]",,1.0,locality,2019-02-04 08:00:00+00:00,active,America/Los_Angeles,Spring Session,2021-03-23 22:07:19+00:00,,,"[{'entity_id': 'vveYakrX9C6U3CBvFSZSNQ', 'name': 'Los Angeles Valley College', 'type': 'venue', 'formatted_address': '5800 Fulton Avenue\nLos Angeles, CA 91401\nUnited States of America'}]",,11917.0,,False,72,Los Angeles Valley College,-118.421718,34.175568,academic-session,in-person,not_estimated,True
,academic,US,,,,9759599,2019-05-28 06:59:59+00:00,2020-08-27 22:35:15+00:00,nH663mtqeBe6UpQxho,"['academic', 'academic-session', 'estimated']","[-118.292473, 34.087269]","[['6295630', '6255149', '6252001', '5332921', '5368381', '5368361'], ['6295630', '6255149', '6252001', '5332921', '5368381', '8062691']]",,1.0,locality,2019-02-04 08:00:00+00:00,active,America/Los_Angeles,Spring Session,2020-09-03 22:21:39+00:00,,,"[{'entity_id': 'htkLSUCJvJffjDUhU7cfeC', 'name': 'Los Angeles City College', 'type': 'venue', 'formatted_address': '855 North Vermont Avenue\nLos Angeles, CA 90029\nUnited States of America'}]",,10646.0,,False,71,Los Angeles City College,-118.292473,34.087269,academic-session,in-person,estimated,True
,academic,US,,,,9500399,2019-05-25 06:59:59+00:00,2020-08-27 22:37:53+00:00,wE5432bRPfNQBcLMsQ,"['academic', 'academic-session']","[-118.269695, 34.032848]","[['6295630', '6255149', '6252001', '5332921', '5368381', '5368361'], ['6295630', '6255149', '6252001', '5332921', '5368381', '5360529']]",,1.0,locality,2019-02-04 08:00:00+00:00,active,America/Los_Angeles,Spring Session,2020-09-03 22:19:40+00:00,,,"[{'entity_id': '36Ni6bFidX2bME3rKyW8m8R', 'name': 'Los Angeles Trade Technical College', 'type': 'venue', 'formatted_address': '400 West Washington Boulevard\nLos Angeles, CA 90015\nUnited States of America'}]",,10263.0,,False,70,Los Angeles Trade Technical College,-118.269695,34.032848,academic-session,in-person,not_estimated,True
,academic,US,,,,9500399,2019-05-04 06:59:59+00:00,2020-08-27 22:39:20+00:00,gT8JJyFMe8PyELDPT8,"['academic', 'academic-session']","[-118.416611, 33.970163]","[['6295630', '6255149', '6252001', '5332921', '5368381', '5323452'], ['6295630', '6255149', '6252001', '5332921', '5368381', '5368361']]",,1.0,locality,2019-01-14 08:00:00+00:00,active,America/Los_Angeles,Spring Session,2020-09-03 22:18:52+00:00,,,"[{'entity_id': 'w5KkFLAQnvrWF8nDe4PKWQ', 'name': 'Loyola Marymount University', 'type': 'venue', 'formatted_address': '1 Loyola Marymount University Drive\nLos Angeles, CA 90045\nUnited States of America'}]",,6584.0,,False,66,Loyola Marymount University,-118.416611,33.970163,academic-session,in-person,not_estimated,True
,academic,US,,,,9500399,2019-04-27 06:59:59+00:00,2020-08-27 23:09:38+00:00,YHsAp7qgDvUqpqaQ5x,"['academic', 'academic-session']","[-118.285117, 34.022352]","[['6295630', '6255149', '6252001', '5332921', '5368381', '5368361'], ['6295630', '6255149', '6252001', '5332921', '5368381', '5360529']]",,1.0,locality,2019-01-07 08:00:00+00:00,active,America/Los_Angeles,Spring Session,2020-09-03 22:29:02+00:00,,,"[{'entity_id': 'LD5w4M9KxZgSmmhvgbYdYz', 'name': 'University of Southern California', 'type': 'venue', 'formatted_address': 'Los Angeles, CA 90007\nUnited States of America'}]",,19535.0,,False,76,University of Southern California,-118.285117,34.022352,academic-session,in-person,not_estimated,True
,academic,US,,,,3369599,2019-02-15 07:59:59+00:00,2020-08-27 22:30:11+00:00,aBX3kuh2nLposVHms4,"['academic', 'academic-session']","[-118.227919, 34.16658]","[['6295630', '6255149', '6252001', '5332921', '5368381', '5344624'], ['6295630', '6255149', '6252001', '5332921', '5368381', '5368361']]",,1.0,locality,2019-01-07 08:00:00+00:00,active,America/Los_Angeles,Winter Session,2020-09-03 22:17:05+00:00,,,"[{'entity_id': '37Kjv45jpCD2iLBByC83iUW', 'name': 'Glendale Community College', 'type': 'venue', 'formatted_address': '1500 North Verdugo Road\nGlendale, CA 91208\nUnited States of America'}]",,4434.0,,False,63,Glendale Community College,-118.227919,34.16658,academic-session,in-person,not_estimated,True
,academic,US,,,,5871599,2019-03-16 06:59:59+00:00,2020-08-27 23:05:43+00:00,gfyAiMGDX9J9TB6hro,"['academic', 'academic-session']","[-118.445181, 34.068921]","[['6295630', '6255149', '6252001', '5332921', '5368381', '5408545'], ['6295630', '6255149', '6252001', '5332921', '5368381', '5368361']]",,1.0,locality,2019-01-07 08:00:00+00:00,active,America/Los_Angeles,Winter Session,2020-09-03 22:31:14+00:00,,,"[{'entity_id': '32afGxjEeXh84pfVwWY9qUk', 'name': 'University of California - Los Angeles', 'type': 'venue', 'formatted_address': 'Los Angeles, CA 90095\nUnited States of America'}]",,31543.0,,False,80,University of California - Los Angeles,-118.445181,34.068921,academic-session,in-person,not_estimated,True
,academic,US,,,,2851199,2019-02-04 07:59:59+00:00,2020-08-27 22:38:20+00:00,78XnDB5GQgrDTxDCzq,"['academic', 'academic-session']","[-118.421718, 34.175568]","[['6295630', '6255149', '6252001', '5332921', '5368381', '5368361'], ['6295630', '6255149', '6252001', '5332921', '5368381', '5363024']]",,1.0,locality,2019-01-02 08:00:00+00:00,active,America/Los_Angeles,Winter Session,2020-09-03 22:23:11+00:00,,,"[{'entity_id': 'vveYakrX9C6U3CBvFSZSNQ', 'name': 'Los Angeles Valley College', 'type': 'venue', 'formatted_address': '5800 Fulton Avenue\nLos Angeles, CA 91401\nUnited States of America'}]",,3575.0,,False,61,Los Angeles Valley College,-118.421718,34.175568,academic-session,in-person,not_estimated,True
,academic,US,,,,3196799,2019-02-08 07:59:59+00:00,2020-08-27 22:59:20+00:00,GRJFBYK2Q8pobwsaha,"['academic', 'academic-session']","[-118.470395, 34.016557]","[['6295630', '6255149', '6252001', '5332921', '5368381', '5393701'], ['6295630', '6255149', '6252001', '5332921', '5368381', '5368361']]",,1.0,locality,2019-01-02 08:00:00+00:00,active,America/Los_Angeles,Winter Session,2020-09-03 22:26:30+00:00,,,"[{'entity_id': 'PzFqeGx7V5zPwb2zemvXTB', 'name': 'Santa Monica College', 'type': 'venue', 'formatted_address': '1900 Pico Boulevard\nSanta Monica, CA 90405\nUnited States of America'}]",,7246.0,,False,67,Santa Monica College,-118.470395,34.016557,academic-session,in-person,not_estimated,True
,academic,US,,,,2851199,2019-02-04 07:59:59+00:00,2020-08-27 23:11:35+00:00,NXmg3KLr6zASrMjWxZ,"['academic', 'academic-session', 'estimated']","[-118.387156, 34.004228]","[['6295630', '6255149', '6252001', '5332921', '5368381', '5364195'], ['6295630', '6255149', '6252001', '5332921', '5368381', '5368361']]",,1.0,locality,2019-01-02 08:00:00+00:00,active,America/Los_Angeles,Winter Session,2020-09-03 22:12:02+00:00,,,"[{'entity_id': 'aZtwEWCRc8nfX4CcFksdip', 'name': 'West Los Angeles College', 'type': 'venue', 'formatted_address': '9000 Overland Avenue\nCulver City, CA 90230\nUnited States of America'}]",,743.0,,False,47,West Los Angeles College,-118.387156,34.004228,academic-session,in-person,estimated,True
,academic,US,,,,2851199,2019-02-04 07:59:59+00:00,2020-08-27 22:37:51+00:00,hDVd5qHnouJPhVvxPN,"['academic', 'academic-session']","[-118.269695, 34.032848]","[['6295630', '6255149', '6252001', '5332921', '5368381', '5368361'], ['6295630', '6255149', '6252001', '5332921', '5368381', '5360529']]",,1.0,locality,2019-01-02 08:00:00+00:00,active,America/Los_Angeles,Winter Session,2020-09-03 22:18:54+00:00,,,"[{'entity_id': '36Ni6bFidX2bME3rKyW8m8R', 'name': 'Los Angeles Trade Technical College', 'type': 'venue', 'formatted_address': '400 West Washington Boulevard\nLos Angeles, CA 90015\nUnited States of America'}]",,3078.0,,False,60,Los Angeles Trade Technical College,-118.269695,34.032848,academic-session,in-person,not_estimated,True
,academic,US,,,,2851199,2019-02-04 07:59:59+00:00,2020-08-27 22:35:14+00:00,qBtDu2Vi5MHZK7aMMN,"['academic', 'academic-session']","[-118.292473, 34.087269]","[['6295630', '6255149', '6252001', '5332921', '5368381', '5368361'], ['6295630', '6255149', '6252001', '5332921', '5368381', '8062691']]",,1.0,locality,2019-01-02 08:00:00+00:00,active,America/Los_Angeles,Winter Session,2020-09-03 22:18:43+00:00,,,"[{'entity_id': 'htkLSUCJvJffjDUhU7cfeC', 'name': 'Los Angeles City College', 'type': 'venue', 'formatted_address': '855 North Vermont Avenue\nLos Angeles, CA 90029\nUnited States of America'}]",,3193.0,,False,60,Los Angeles City College,-118.292473,34.087269,academic-session,in-person,not_estimated,True
,academic,US,,,,4665599,2019-02-11 07:59:59+00:00,2020-08-27 22:59:18+00:00,fuhbuLFN2vUvnYcx79,"['academic', 'holiday']","[-118.470395, 34.016557]","[['6295630', '6255149', '6252001', '5332921', '5368381', '5393701'], ['6295630', '6255149', '6252001', '5332921', '5368381', '5368361']]",,1.0,locality,2018-12-19 08:00:00+00:00,active,America/Los_Angeles,Winter Break,2020-09-03 22:15:48+00:00,,,"[{'entity_id': 'PzFqeGx7V5zPwb2zemvXTB', 'name': 'Santa Monica College', 'type': 'venue', 'formatted_address': '1900 Pico Boulevard\nSanta Monica, CA 90405\nUnited States of America'}]",,24153.0,,False,78,Santa Monica College,-118.470395,34.016557,holiday,in-person,not_estimated,False
,academic,US,,,,4406399,2019-02-04 07:59:59+00:00,2020-08-27 22:35:13+00:00,4APtNA3AcGoEVfs2yu,"['academic', 'holiday']","[-118.292473, 34.087269]","[['6295630', '6255149', '6252001', '5332921', '5368381', '5368361'], ['6295630', '6255149', '6252001', '5332921', '5368381', '8062691']]",,1.0,locality,2018-12-15 08:00:00+00:00,active,America/Los_Angeles,Winter Break,2020-09-03 22:22:52+00:00,,,"[{'entity_id': 'htkLSUCJvJffjDUhU7cfeC', 'name': 'Los Angeles City College', 'type': 'venue', 'formatted_address': '855 North Vermont Avenue\nLos Angeles, CA 90029\nUnited States of America'}]",,10646.0,,False,71,Los Angeles City College,-118.292473,34.087269,holiday,in-person,not_estimated,False
,academic,US,,,,2591999,2019-01-14 07:59:59+00:00,2020-08-27 22:39:19+00:00,czSCJyKqzUGhBWjNyj,"['academic', 'holiday']","[-118.416611, 33.970163]","[['6295630', '6255149', '6252001', '5332921', '5368381', '5323452'], ['6295630', '6255149', '6252001', '5332921', '5368381', '5368361']]",,1.0,locality,2018-12-15 08:00:00+00:00,active,America/Los_Angeles,Winter Break,2020-09-03 22:19:23+00:00,,,"[{'entity_id': 'w5KkFLAQnvrWF8nDe4PKWQ', 'name': 'Loyola Marymount University', 'type': 'venue', 'formatted_address': '1 Loyola Marymount University Drive\nLos Angeles, CA 90045\nUnited States of America'}]",,6265.0,,False,66,Loyola Marymount University,-118.416611,33.970163,holiday,in-person,not_estimated,False
,academic,US,,,,1987199,2019-01-07 07:59:59+00:00,2020-08-27 23:06:53+00:00,ibbvwHtBNcynx27Deu,"['academic', 'holiday']","[-118.445181, 34.068921]","[['6295630', '6255149', '6252001', '5332921', '5368381', '5408545'], ['6295630', '6255149', '6252001', '5332921', '5368381', '5368361']]",,1.0,locality,2018-12-15 08:00:00+00:00,active,America/Los_Angeles,Winter Break,2020-09-03 22:24:12+00:00,,,"[{'entity_id': '32afGxjEeXh84pfVwWY9qUk', 'name': 'University of California - Los Angeles', 'type': 'venue', 'formatted_address': 'Los Angeles, CA 90095\nUnited States of America'}]",,31576.0,,False,80,University of California - Los Angeles,-118.445181,34.068921,holiday,in-person,not_estimated,False
,academic,US,,,,4406399,2019-02-04 07:59:59+00:00,2020-08-27 22:37:50+00:00,jozUYcJDcuocuPo4bo,"['academic', 'holiday']","[-118.269695, 34.032848]","[['6295630', '6255149', '6252001', '5332921', '5368381', '5368361'], ['6295630', '6255149', '6252001', '5332921', '5368381', '5360529']]",,1.0,locality,2018-12-15 08:00:00+00:00,active,America/Los_Angeles,Winter Break,2020-09-03 22:29:20+00:00,,,"[{'entity_id': '36Ni6bFidX2bME3rKyW8m8R', 'name': 'Los Angeles Trade Technical College', 'type': 'venue', 'formatted_address': '400 West Washington Boulevard\nLos Angeles, CA 90015\nUnited States of America'}]",,10727.0,,False,71,Los Angeles Trade Technical College,-118.269695,34.032848,holiday,in-person,not_estimated,False
,academic,US,,,,4406399,2019-02-04 07:59:59+00:00,2020-08-27 22:38:19+00:00,mZ8anac4uNUeDodGVA,"['academic', 'holiday']","[-118.421718, 34.175568]","[['6295630', '6255149', '6252001', '5332921', '5368381', '5368361'], ['6295630', '6255149', '6252001', '5332921', '5368381', '5363024']]",,1.0,locality,2018-12-15 08:00:00+00:00,active,America/Los_Angeles,Winter Break,2020-09-03 22:21:26+00:00,,,"[{'entity_id': 'vveYakrX9C6U3CBvFSZSNQ', 'name': 'Los Angeles Valley College', 'type': 'venue', 'formatted_address': '5800 Fulton Avenue\nLos Angeles, CA 91401\nUnited States of America'}]",,12115.0,,False,72,Los Angeles Valley College,-118.421718,34.175568,holiday,in-person,not_estimated,False
,academic,US,,,,4406399,2019-02-04 07:59:59+00:00,2020-08-27 23:11:34+00:00,wNhEnyvFj4eqp6QqEZ,"['academic', 'estimated', 'holiday']","[-118.387156, 34.004228]","[['6295630', '6255149', '6252001', '5332921', '5368381', '5364195'], ['6295630', '6255149', '6252001', '5332921', '5368381', '5368361']]",,1.0,locality,2018-12-15 08:00:00+00:00,active,America/Los_Angeles,Winter Break,2020-09-03 22:29:08+00:00,,,"[{'entity_id': 'aZtwEWCRc8nfX4CcFksdip', 'name': 'West Los Angeles College', 'type': 'venue', 'formatted_address': '9000 Overland Avenue\nCulver City, CA 90230\nUnited States of America'}]",,2699.0,,False,59,West Los Angeles College,-118.387156,34.004228,holiday,in-person,estimated,False
,academic,US,,,,2159999,2019-01-07 07:59:59+00:00,2020-08-27 23:09:36+00:00,SUESYZhsQ4UeBsJvGY,"['academic', 'holiday']","[-118.285117, 34.022352]","[['6295630', '6255149', '6252001', '5332921', '5368381', '5368361'], ['6295630', '6255149', '6252001', '5332921', '5368381', '5360529']]",,1.0,locality,2018-12-13 08:00:00+00:00,active,America/Los_Angeles,Winter Break,2020-09-03 22:17:49+00:00,,,"[{'entity_id': 'LD5w4M9KxZgSmmhvgbYdYz', 'name': 'University of Southern California', 'type': 'venue', 'formatted_address': 'Los Angeles, CA 90007\nUnited States of America'}]",,19907.0,,False,76,University of Southern California,-118.285117,34.022352,holiday,in-person,not_estimated,False
,academic,US,,,,5875199,2019-02-19 07:59:59+00:00,2020-08-27 22:30:10+00:00,wxCXgoQfQg573daxZK,"['academic', 'holiday']","[-118.227919, 34.16658]","[['6295630', '6255149', '6252001', '5332921', '5368381', '5344624'], ['6295630', '6255149', '6252001', '5332921', '5368381', '5368361']]",,1.0,locality,2018-12-13 08:00:00+00:00,active,America/Los_Angeles,Winter Break,2020-09-03 22:32:35+00:00,,,"[{'entity_id': '37Kjv45jpCD2iLBByC83iUW', 'name': 'Glendale Community College', 'type': 'venue', 'formatted_address': '1500 North Verdugo Road\nGlendale, CA 91208\nUnited States of America'}]",,14781.0,,False,73,Glendale Community College,-118.227919,34.16658,holiday,in-person,not_estimated,False
