id,title,description,start,end,timezone,duration,category,labels,country,rank,local_rank,aviation_rank,phq_attendance,entities,location,place_hierarchies,scope,relevance,state,first_seen,updated,deleted_reason,duplicate_of_id,entity_name,longitude,latitude,sub_category,session_type,estimated,on_campus
3dyVvrURR9EkZcFPkX,Summer Session,,2021-06-14 07:00:00+00:00,2021-08-30 06:59:59+00:00,America/Los_Angeles,6652799,academic,"['academic', 'academic-session', 'estimated', 'hybrid-session']",US,52,,,1287.0,"[{'entity_id': '36Ni6bFidX2bME3rKyW8m8R', 'name': 'Los Angeles Trade Technical College', 'type': 'venue', 'formatted_address': '400 West Washington Boulevard\nLos Angeles, CA 90015\nUnited States of America'}]","[-118.269695, 34.032848]","[['6295630', '6255149', '6252001', '5332921', '5368381', '5368361'], ['6295630', '6255149', '6252001', '5332921', '5368381', '5360529']]",locality,1.0,active,2020-08-27 22:38:15+00:00,2021-01-26 04:14:10+00:00,,,Los Angeles Trade Technical College,-118.269695,34.032848,academic-session,hybrid-session,estimated,True
Vu6eGWssw8rG2aBsxz,Summer Session,,2021-06-14 07:00:00+00:00,2021-08-30 06:59:59+00:00,America/Los_Angeles,6652799,academic,"['academic', 'academic-session', 'estimated', 'online-session']",US,0,,,0.0,"[{'entity_id': 'htkLSUCJvJffjDUhU7cfeC', 'name': 'Los Angeles City College', 'type': 'venue', 'formatted_address': '855 North Vermont Avenue\nLos Angeles, CA 90029\nUnited States of America'}]","[-118.292473, 34.087269]","[['6295630', '6255149', '6252001', '5332921', '5368381', '5368361'], ['6295630', '6255149', '6252001', '5332921', '5368381', '8062691']]",locality,1.0,active,2020-08-27 22:35:39+00:00,2021-01-26 04:10:50+00:00,,,Los Angeles City College,-118.292473,34.087269,academic-session,online-session,estimated,True
oiUGqtJcPVRZpWMhF6,Summer Session,,2021-06-14 07:00:00+00:00,2021-08-23 06:59:59+00:00,America/Los_Angeles,6047999,academic,"['academic', 'academic-session', 'estimated']",US,58,,,2478.0,"[{'entity_id': 'aZtwEWCRc8nfX4CcFksdip', 'name': 'West Los Angeles College', 'type': 'venue', 'formatted_address': '9000 Overland Avenue\nCulver City, CA 90230\nUnited States of America'}]","[-118.387156, 34.004228]","[['6295630', '6255149', '6252001', '5332921', '5368381', '5364195'], ['6295630', '6255149', '6252001', '5332921', '5368381', '5368361']]",locality,1.0,active,2020-08-27 23:12:02+00:00,2020-09-03 22:21:49+00:00,,,West Los Angeles College,-118.387156,34.004228,academic-session,in-person,estimated,True
SAvNmTYUZWbicKEQqh,Summer Break,,2021-06-12 07:00:00+00:00,2021-09-23 06:59:59+00:00,America/Los_Angeles,8899199,academic,"['academic', 'holiday']",US,80,,,31543.0,"[{'entity_id': '32afGxjEeXh84pfVwWY9qUk', 'name': 'University of California - Los Angeles', 'type': 'venue', 'formatted_address': 'Los Angeles, CA 90095\nUnited States of America'}]","[-118.445181, 34.068921]","[['6295630', '6255149', '6252001', '5332921', '5368381', '5408545'], ['6295630', '6255149', '6252001', '5332921', '5368381', '5368361']]",locality,1.0,active,2020-08-27 23:06:09+00:00,2020-09-03 22:14:20+00:00,,,University of California - Los Angeles,-118.445181,34.068921,holiday,in-person,not_estimated,False
fBv7dBjX6whHmvX9aG,University of California-Los Angeles - Spring Graduation,,2021-06-11 07:00:00+00:00,2021-06-13 06:59:59+00:00,America/Los_Angeles,172799,academic,"['academic', 'estimated', 'graduation']",US,82,,,39800.0,"[{'entity_id': 'KZp2taYVtGhQpZuwJC2gM7', 'name': 'Pauley Pavilion', 'type': 'venue', 'formatted_address': '301 Westwood Plaza\nLos Angeles, CA 90095\nUnited States of America'}]","[-118.446929, 34.070342]","[['6295630', '6255149', '6252001', '5332921', '5368381', '5408545'], ['6295630', '6255149', '6252001', '5332921', '5368381', '5368361']]",locality,1.0,active,2020-08-27 23:05:59+00:00,2021-03-19 13:22:39+00:00,,,Pauley Pavilion,-118.446929,34.070342,graduation,in-person,estimated,True
kspc6jrRhjEaiNtn7P,West Los Angeles College - Spring Graduation,,2021-06-10 07:00:00+00:00,2021-06-11 06:59:59+00:00,America/Los_Angeles,86399,academic,"['academic', 'estimated', 'graduation']",US,69,,,9000.0,"[{'entity_id': 'aZtwEWCRc8nfX4CcFksdip', 'name': 'West Los Angeles College', 'type': 'venue', 'formatted_address': '9000 Overland Avenue\nCulver City, CA 90230\nUnited States of America'}]","[-118.387156, 34.004228]","[['6295630', '6255149', '6252001', '5332921', '5368381', '5364195'], ['6295630', '6255149', '6252001', '5332921', '5368381', '5368361']]",locality,1.0,active,2020-08-27 23:12:01+00:00,2021-03-19 11:45:13+00:00,,,West Los Angeles College,-118.387156,34.004228,graduation,in-person,estimated,True
deGcBg3eu4D5M9y3Qo,Los Angeles City College - Spring Graduation,,2021-06-09 00:00:00+00:00,2021-06-09 00:00:00+00:00,America/Los_Angeles,0,academic,"['academic', 'graduation']",US,65,,,5900.0,"[{'entity_id': '8KXHXYRMMCtb5MvwZrhkkW', 'name': 'The Greek Theatre', 'type': 'venue', 'formatted_address': '2700 North Vermont Avenue\nLos Angeles, CA 90027\nUnited States of America'}]","[-118.29629, 34.119532]","[['6295630', '6255149', '6252001', '5332921', '6285747'], ['6295630', '6255149', '6252001', '5332921', '5368381', '5368361']]",locality,1.0,active,2020-08-27 22:35:38+00:00,2021-03-19 13:45:33+00:00,,,The Greek Theatre,-118.29629,34.119532,graduation,in-person,not_estimated,True
5cq6TBCHvAyJEZKxkR,Summer Break,,2021-06-08 07:00:00+00:00,2021-08-30 06:59:59+00:00,America/Los_Angeles,7171199,academic,"['academic', 'estimated', 'holiday']",US,58,,,2478.0,"[{'entity_id': 'aZtwEWCRc8nfX4CcFksdip', 'name': 'West Los Angeles College', 'type': 'venue', 'formatted_address': '9000 Overland Avenue\nCulver City, CA 90230\nUnited States of America'}]","[-118.387156, 34.004228]","[['6295630', '6255149', '6252001', '5332921', '5368381', '5364195'], ['6295630', '6255149', '6252001', '5332921', '5368381', '5368361']]",locality,1.0,active,2020-08-27 23:12:03+00:00,2020-09-03 22:31:23+00:00,,,West Los Angeles College,-118.387156,34.004228,holiday,in-person,estimated,False
WtXLybyVJuz8TaeXQS,Los Angeles Trade Technical College - Spring Graduation,,2021-06-08 07:00:00+00:00,2021-06-09 06:59:59+00:00,America/Los_Angeles,86399,academic,"['academic', 'estimated', 'graduation']",US,70,,,10258.0,"[{'entity_id': 'iE6WAPTQMrEm4tyUHbgCDM', 'name': 'Galen Center', 'type': 'venue', 'formatted_address': '3400 S Figueroa St\nLos Angeles, CA 90089\nUnited States of America'}]","[-118.279864, 34.021007]","[['6295630', '6255149', '6252001', '5332921', '5368381', '5368361'], ['6295630', '6255149', '6252001', '5332921', '5368381', '5360529']]",locality,1.0,active,2020-08-27 22:38:14+00:00,2020-09-03 22:29:07+00:00,,,Galen Center,-118.279864,34.021007,graduation,in-person,estimated,True
XJMbBfUZtcbTnPpydy,Summer Break,,2021-06-08 07:00:00+00:00,2021-08-30 06:59:59+00:00,America/Los_Angeles,7171199,academic,"['academic', 'estimated', 'holiday']",US,71,,,10646.0,"[{'entity_id': 'htkLSUCJvJffjDUhU7cfeC', 'name': 'Los Angeles City College', 'type': 'venue', 'formatted_address': '855 North Vermont Avenue\nLos Angeles, CA 90029\nUnited States of America'}]","[-118.292473, 34.087269]","[['6295630', '6255149', '6252001', '5332921', '5368381', '5368361'], ['6295630', '6255149', '6252001', '5332921', '5368381', '8062691']]",locality,1.0,active,2020-08-27 22:35:40+00:00,2020-09-03 22:23:35+00:00,,,Los Angeles City College,-118.292473,34.087269,holiday,in-person,estimated,False
qnfd4aqteZ9P8GY9GE,Summer Break,,2021-06-08 07:00:00+00:00,2021-08-30 06:59:59+00:00,America/Los_Angeles,7171199,academic,"['academic', 'estimated', 'holiday']",US,70,,,10263.0,"[{'entity_id': '36Ni6bFidX2bME3rKyW8m8R', 'name': 'Los Angeles Trade Technical College', 'type': 'venue', 'formatted_address': '400 West Washington Boulevard\nLos Angeles, CA 90015\nUnited States of America'}]","[-118.269695, 34.032848]","[['6295630', '6255149', '6252001', '5332921', '5368381', '5368361'], ['6295630', '6255149', '6252001', '5332921', '5368381', '5360529']]",locality,1.0,active,2020-08-27 22:38:15+00:00,2020-09-03 22:15:48+00:00,,,Los Angeles Trade Technical College,-118.269695,34.032848,holiday,in-person,estimated,False
54krHGKjfhJKp3wmz4,Spring Exams,,2021-06-07 07:00:00+00:00,2021-06-12 06:59:59+00:00,America/Los_Angeles,431999,academic,"['academic', 'exam', 'online-session']",US,60,,,3157.0,"[{'entity_id': '32afGxjEeXh84pfVwWY9qUk', 'name': 'University of California - Los Angeles', 'type': 'venue', 'formatted_address': 'Los Angeles, CA 90095\nUnited States of America'}]","[-118.445181, 34.068921]","[['6295630', '6255149', '6252001', '5332921', '5368381', '5408545'], ['6295630', '6255149', '6252001', '5332921', '5368381', '5368361']]",locality,1.0,active,2020-08-27 23:05:59+00:00,2021-01-11 23:51:15+00:00,,,University of California - Los Angeles,-118.445181,34.068921,exam,online-session,not_estimated,True
CVNATeAVGMzZYjkJe5,Spring Exams,,2021-06-01 07:00:00+00:00,2021-06-08 06:59:59+00:00,America/Los_Angeles,604799,academic,"['academic', 'estimated', 'exam', 'online-session']",US,39,,,270.0,"[{'entity_id': 'aZtwEWCRc8nfX4CcFksdip', 'name': 'West Los Angeles College', 'type': 'venue', 'formatted_address': '9000 Overland Avenue\nCulver City, CA 90230\nUnited States of America'}]","[-118.387156, 34.004228]","[['6295630', '6255149', '6252001', '5332921', '5368381', '5364195'], ['6295630', '6255149', '6252001', '5332921', '5368381', '5368361']]",locality,1.0,active,2020-08-27 23:12:00+00:00,2021-02-22 03:37:42+00:00,,,West Los Angeles College,-118.387156,34.004228,exam,online-session,estimated,True
PJwNJoyDgtC3q7ofNT,Spring Exams,,2021-06-01 07:00:00+00:00,2021-06-08 06:59:59+00:00,America/Los_Angeles,604799,academic,"['academic', 'estimated', 'exam', 'online-session']",US,51,,,1073.0,"[{'entity_id': '36Ni6bFidX2bME3rKyW8m8R', 'name': 'Los Angeles Trade Technical College', 'type': 'venue', 'formatted_address': '400 West Washington Boulevard\nLos Angeles, CA 90015\nUnited States of America'}]","[-118.269695, 34.032848]","[['6295630', '6255149', '6252001', '5332921', '5368381', '5368361'], ['6295630', '6255149', '6252001', '5332921', '5368381', '5360529']]",locality,1.0,active,2020-08-27 22:38:13+00:00,2021-02-22 03:31:19+00:00,,,Los Angeles Trade Technical College,-118.269695,34.032848,exam,online-session,estimated,True
iqVufKWymojr4NBJwT,Spring Exams,,2021-06-01 07:00:00+00:00,2021-06-08 06:59:59+00:00,America/Los_Angeles,604799,academic,"['academic', 'exam', 'online-session']",US,51,,,1064.0,"[{'entity_id': 'htkLSUCJvJffjDUhU7cfeC', 'name': 'Los Angeles City College', 'type': 'venue', 'formatted_address': '855 North Vermont Avenue\nLos Angeles, CA 90029\nUnited States of America'}]","[-118.292473, 34.087269]","[['6295630', '6255149', '6252001', '5332921', '5368381', '5368361'], ['6295630', '6255149', '6252001', '5332921', '5368381', '8062691']]",locality,1.0,active,2020-08-27 22:35:38+00:00,2021-02-22 03:38:03+00:00,,,Los Angeles City College,-118.292473,34.087269,exam,online-session,not_estimated,True
jRwadKz9mG5mheGFDb,Summer Session,,2021-05-19 07:00:00+00:00,2021-08-11 06:59:59+00:00,America/Los_Angeles,7257599,academic,"['academic', 'academic-session', 'online-session']",US,46,,,615.0,"[{'entity_id': 'LD5w4M9KxZgSmmhvgbYdYz', 'name': 'University of Southern California', 'type': 'venue', 'formatted_address': 'Los Angeles, CA 90007\nUnited States of America'}]","[-118.285117, 34.022352]","[['6295630', '6255149', '6252001', '5332921', '5368381', '5368361'], ['6295630', '6255149', '6252001', '5332921', '5368381', '5360529']]",locality,1.0,active,2020-08-27 23:10:01+00:00,2021-01-26 04:13:24+00:00,,,University of Southern California,-118.285117,34.022352,academic-session,online-session,not_estimated,True
3biErmuMVQXgaSR3kG,University of Southern California - Spring Graduation,,2021-05-14 15:30:00+00:00,2021-05-14 15:30:00+00:00,America/Los_Angeles,0,academic,"['academic', 'graduation']",US,86,,,60000.0,"[{'entity_id': '39cwERM83Vr6zMgH5kJs8Nu', 'name': 'Alumni Memorial Park - USC', 'type': 'venue', 'formatted_address': 'Los Angeles, CA 90089\nUnited States of America'}]","[-118.284637, 34.020431]","[['6295630', '6255149', '6252001', '5332921', '5368381', '5360529'], ['6295630', '6255149', '6252001', '5332921', '5368381', '5368361']]",locality,1.0,active,2020-08-27 23:10:00+00:00,2020-09-03 22:23:09+00:00,,,Alumni Memorial Park - USC,-118.284637,34.020431,graduation,in-person,not_estimated,True
jk9Y7LEDp7nUA3hdUB,Summer Break,,2021-05-13 07:00:00+00:00,2021-08-23 06:59:59+00:00,America/Los_Angeles,8812799,academic,"['academic', 'holiday']",US,76,,,20499.0,"[{'entity_id': 'LD5w4M9KxZgSmmhvgbYdYz', 'name': 'University of Southern California', 'type': 'venue', 'formatted_address': 'Los Angeles, CA 90007\nUnited States of America'}]","[-118.285117, 34.022352]","[['6295630', '6255149', '6252001', '5332921', '5368381', '5368361'], ['6295630', '6255149', '6252001', '5332921', '5368381', '5360529']]",locality,1.0,active,2020-08-27 23:10:01+00:00,2020-09-03 22:26:26+00:00,,,University of Southern California,-118.285117,34.022352,holiday,in-person,not_estimated,False
CCPh8MVLt7K7amgWBK,Spring Exams,,2021-05-05 07:00:00+00:00,2021-05-13 06:59:59+00:00,America/Los_Angeles,691199,academic,"['academic', 'exam', 'online-session']",US,56,,,2050.0,"[{'entity_id': 'LD5w4M9KxZgSmmhvgbYdYz', 'name': 'University of Southern California', 'type': 'venue', 'formatted_address': 'Los Angeles, CA 90007\nUnited States of America'}]","[-118.285117, 34.022352]","[['6295630', '6255149', '6252001', '5332921', '5368381', '5368361'], ['6295630', '6255149', '6252001', '5332921', '5368381', '5360529']]",locality,1.0,active,2020-08-27 23:09:59+00:00,2021-01-26 04:14:08+00:00,,,University of Southern California,-118.285117,34.022352,exam,online-session,not_estimated,True
Hs5NTVz4kUNjNYHCYH,Spring Break,,2021-04-03 07:00:00+00:00,2021-04-12 06:59:59+00:00,America/Los_Angeles,777599,academic,"['academic', 'holiday']",US,71,,,10646.0,"[{'entity_id': 'htkLSUCJvJffjDUhU7cfeC', 'name': 'Los Angeles City College', 'type': 'venue', 'formatted_address': '855 North Vermont Avenue\nLos Angeles, CA 90029\nUnited States of America'}]","[-118.292473, 34.087269]","[['6295630', '6255149', '6252001', '5332921', '5368381', '5368361'], ['6295630', '6255149', '6252001', '5332921', '5368381', '8062691']]",locality,1.0,active,2020-08-27 22:35:37+00:00,2020-09-03 22:14:23+00:00,,,Los Angeles City College,-118.292473,34.087269,holiday,in-person,not_estimated,False
PzK6WCDb6aSUxQaKUR,Spring Break,,2021-04-03 07:00:00+00:00,2021-04-12 06:59:59+00:00,America/Los_Angeles,777599,academic,"['academic', 'holiday']",US,58,,,2478.0,"[{'entity_id': 'aZtwEWCRc8nfX4CcFksdip', 'name': 'West Los Angeles College', 'type': 'venue', 'formatted_address': '9000 Overland Avenue\nCulver City, CA 90230\nUnited States of America'}]","[-118.387156, 34.004228]","[['6295630', '6255149', '6252001', '5332921', '5368381', '5364195'], ['6295630', '6255149', '6252001', '5332921', '5368381', '5368361']]",locality,1.0,active,2020-08-27 23:11:59+00:00,2020-09-03 22:29:28+00:00,,,West Los Angeles College,-118.387156,34.004228,holiday,in-person,not_estimated,False
TiuPiWpb5eH9mf5in5,Spring Break,,2021-04-03 07:00:00+00:00,2021-04-12 06:59:59+00:00,America/Los_Angeles,777599,academic,"['academic', 'estimated', 'holiday']",US,70,,,10263.0,"[{'entity_id': '36Ni6bFidX2bME3rKyW8m8R', 'name': 'Los Angeles Trade Technical College', 'type': 'venue', 'formatted_address': '400 West Washington Boulevard\nLos Angeles, CA 90015\nUnited States of America'}]","[-118.269695, 34.032848]","[['6295630', '6255149', '6252001', '5332921', '5368381', '5368361'], ['6295630', '6255149', '6252001', '5332921', '5368381', '5360529']]",locality,1.0,active,2020-08-27 22:38:12+00:00,2020-09-03 22:19:38+00:00,,,Los Angeles Trade Technical College,-118.269695,34.032848,holiday,in-person,estimated,False
G7mj88xpv5BUxyWMLZ,Spring Session,,2021-03-29 07:00:00+00:00,2021-06-05 06:59:59+00:00,America/Los_Angeles,5875199,academic,"['academic', 'academic-session', 'online-session']",US,60,,,3157.0,"[{'entity_id': '32afGxjEeXh84pfVwWY9qUk', 'name': 'University of California - Los Angeles', 'type': 'venue', 'formatted_address': 'Los Angeles, CA 90095\nUnited States of America'}]","[-118.445181, 34.068921]","[['6295630', '6255149', '6252001', '5332921', '5368381', '5408545'], ['6295630', '6255149', '6252001', '5332921', '5368381', '5368361']]",locality,1.0,active,2020-08-27 23:06:16+00:00,2021-01-11 23:51:22+00:00,,,University of California - Los Angeles,-118.445181,34.068921,academic-session,online-session,not_estimated,True
7CpzUpypTwwQThxeHj,Spring Break,,2021-03-20 07:00:00+00:00,2021-03-29 06:59:59+00:00,America/Los_Angeles,777599,academic,"['academic', 'holiday']",US,80,,,31543.0,"[{'entity_id': '32afGxjEeXh84pfVwWY9qUk', 'name': 'University of California - Los Angeles', 'type': 'venue', 'formatted_address': 'Los Angeles, CA 90095\nUnited States of America'}]","[-118.445181, 34.068921]","[['6295630', '6255149', '6252001', '5332921', '5368381', '5408545'], ['6295630', '6255149', '6252001', '5332921', '5368381', '5368361']]",locality,1.0,active,2020-08-27 23:06:08+00:00,2020-09-03 22:19:24+00:00,,,University of California - Los Angeles,-118.445181,34.068921,holiday,in-person,not_estimated,False
ShTEKB7zQZVKCg6W4F,Winter Exams,,2021-03-15 07:00:00+00:00,2021-03-20 06:59:59+00:00,America/Los_Angeles,431999,academic,"['academic', 'exam', 'online-session']",US,60,,,3157.0,"[{'entity_id': '32afGxjEeXh84pfVwWY9qUk', 'name': 'University of California - Los Angeles', 'type': 'venue', 'formatted_address': 'Los Angeles, CA 90095\nUnited States of America'}]","[-118.445181, 34.068921]","[['6295630', '6255149', '6252001', '5332921', '5368381', '5408545'], ['6295630', '6255149', '6252001', '5332921', '5368381', '5368361']]",locality,1.0,active,2020-08-27 23:06:14+00:00,2021-01-11 23:53:04+00:00,,,University of California - Los Angeles,-118.445181,34.068921,exam,online-session,not_estimated,True
VGKrZ87RAJHQnEdThk,Spring Session,,2021-02-08 08:00:00+00:00,2021-06-01 06:59:59+00:00,America/Los_Angeles,9759599,academic,"['academic', 'academic-session', 'estimated', 'online-session']",US,39,,,270.0,"[{'entity_id': 'aZtwEWCRc8nfX4CcFksdip', 'name': 'West Los Angeles College', 'type': 'venue', 'formatted_address': '9000 Overland Avenue\nCulver City, CA 90230\nUnited States of America'}]","[-118.387156, 34.004228]","[['6295630', '6255149', '6252001', '5332921', '5368381', '5364195'], ['6295630', '6255149', '6252001', '5332921', '5368381', '5368361']]",locality,1.0,active,2020-08-27 23:11:59+00:00,2021-02-22 03:38:17+00:00,,,West Los Angeles College,-118.387156,34.004228,academic-session,online-session,estimated,True
i3YFbyxij2eNkYqZd5,Spring Session,,2021-02-08 08:00:00+00:00,2021-05-29 06:59:59+00:00,America/Los_Angeles,9500399,academic,"['academic', 'academic-session', 'estimated', 'online-session']",US,51,,,1073.0,"[{'entity_id': '36Ni6bFidX2bME3rKyW8m8R', 'name': 'Los Angeles Trade Technical College', 'type': 'venue', 'formatted_address': '400 West Washington Boulevard\nLos Angeles, CA 90015\nUnited States of America'}]","[-118.269695, 34.032848]","[['6295630', '6255149', '6252001', '5332921', '5368381', '5368361'], ['6295630', '6255149', '6252001', '5332921', '5368381', '5360529']]",locality,1.0,active,2020-08-27 22:38:11+00:00,2021-03-01 21:32:57+00:00,,,Los Angeles Trade Technical College,-118.269695,34.032848,academic-session,online-session,estimated,True
iFyERktHTVNKpRR4QB,Spring Session,,2021-02-08 08:00:00+00:00,2021-05-29 06:59:59+00:00,America/Los_Angeles,9500399,academic,"['academic', 'academic-session', 'online-session']",US,51,,,1064.0,"[{'entity_id': 'htkLSUCJvJffjDUhU7cfeC', 'name': 'Los Angeles City College', 'type': 'venue', 'formatted_address': '855 North Vermont Avenue\nLos Angeles, CA 90029\nUnited States of America'}]","[-118.292473, 34.087269]","[['6295630', '6255149', '6252001', '5332921', '5368381', '5368361'], ['6295630', '6255149', '6252001', '5332921', '5368381', '8062691']]",locality,1.0,active,2020-08-27 22:35:34+00:00,2021-03-01 21:53:39+00:00,,,Los Angeles City College,-118.292473,34.087269,academic-session,online-session,not_estimated,True
92MLmXUeNB2f2R7DNL,Spring Session,,2021-01-15 08:00:00+00:00,2021-05-01 06:59:59+00:00,America/Los_Angeles,9154799,academic,"['academic', 'academic-session', 'online-session']",US,56,,,2050.0,"[{'entity_id': 'LD5w4M9KxZgSmmhvgbYdYz', 'name': 'University of Southern California', 'type': 'venue', 'formatted_address': 'Los Angeles, CA 90007\nUnited States of America'}]","[-118.285117, 34.022352]","[['6295630', '6255149', '6252001', '5332921', '5368381', '5368361'], ['6295630', '6255149', '6252001', '5332921', '5368381', '5360529']]",locality,1.0,active,2020-08-27 23:09:57+00:00,2021-01-26 04:11:42+00:00,,,University of Southern California,-118.285117,34.022352,academic-session,online-session,not_estimated,True
7ah83imm3qDGscNgvB,Winter Session,,2021-01-04 08:00:00+00:00,2021-02-08 07:59:59+00:00,America/Los_Angeles,3023999,academic,"['academic', 'academic-session', 'online-session']",US,40,,,319.0,"[{'entity_id': 'htkLSUCJvJffjDUhU7cfeC', 'name': 'Los Angeles City College', 'type': 'venue', 'formatted_address': '855 North Vermont Avenue\nLos Angeles, CA 90029\nUnited States of America'}]","[-118.292473, 34.087269]","[['6295630', '6255149', '6252001', '5332921', '5368381', '5368361'], ['6295630', '6255149', '6252001', '5332921', '5368381', '8062691']]",locality,1.0,active,2020-08-27 22:35:33+00:00,2021-02-22 03:37:47+00:00,,,Los Angeles City College,-118.292473,34.087269,academic-session,online-session,not_estimated,True
Gxis25riUCRLGnFXAB,Winter Session,,2021-01-04 08:00:00+00:00,2021-02-08 07:59:59+00:00,America/Los_Angeles,3023999,academic,"['academic', 'academic-session', 'online-session']",US,28,,,81.0,"[{'entity_id': 'aZtwEWCRc8nfX4CcFksdip', 'name': 'West Los Angeles College', 'type': 'venue', 'formatted_address': '9000 Overland Avenue\nCulver City, CA 90230\nUnited States of America'}]","[-118.387156, 34.004228]","[['6295630', '6255149', '6252001', '5332921', '5368381', '5364195'], ['6295630', '6255149', '6252001', '5332921', '5368381', '5368361']]",locality,1.0,active,2020-08-27 23:11:58+00:00,2021-03-01 22:24:27+00:00,,,West Los Angeles College,-118.387156,34.004228,academic-session,online-session,not_estimated,True
txENJ2XeSF5QVGYCZW,Winter Session,,2021-01-04 08:00:00+00:00,2021-02-08 07:59:59+00:00,America/Los_Angeles,3023999,academic,"['academic', 'academic-session', 'estimated', 'online-session']",US,40,,,321.0,"[{'entity_id': '36Ni6bFidX2bME3rKyW8m8R', 'name': 'Los Angeles Trade Technical College', 'type': 'venue', 'formatted_address': '400 West Washington Boulevard\nLos Angeles, CA 90015\nUnited States of America'}]","[-118.269695, 34.032848]","[['6295630', '6255149', '6252001', '5332921', '5368381', '5368361'], ['6295630', '6255149', '6252001', '5332921', '5368381', '5360529']]",locality,1.0,active,2020-08-27 22:38:10+00:00,2021-02-22 03:34:35+00:00,,,Los Angeles Trade Technical College,-118.269695,34.032848,academic-session,online-session,estimated,True
uZf7Zz47HS8sW4HcEd,Winter Session,,2021-01-04 08:00:00+00:00,2021-03-13 07:59:59+00:00,America/Los_Angeles,5875199,academic,"['academic', 'academic-session', 'online-session']",US,60,,,3157.0,"[{'entity_id': '32afGxjEeXh84pfVwWY9qUk', 'name': 'University of California - Los Angeles', 'type': 'venue', 'formatted_address': 'Los Angeles, CA 90095\nUnited States of America'}]","[-118.445181, 34.068921]","[['6295630', '6255149', '6252001', '5332921', '5368381', '5408545'], ['6295630', '6255149', '6252001', '5332921', '5368381', '5368361']]",locality,1.0,active,2020-08-27 23:06:14+00:00,2020-10-21 02:14:32+00:00,,,University of California - Los Angeles,-118.445181,34.068921,academic-session,online-session,not_estimated,True
ELJQRjQ9sEksGjrnhX,Winter Break,,2020-12-19 08:00:00+00:00,2021-01-04 07:59:59+00:00,America/Los_Angeles,1382399,academic,"['academic', 'holiday']",US,80,,,31543.0,"[{'entity_id': '32afGxjEeXh84pfVwWY9qUk', 'name': 'University of California - Los Angeles', 'type': 'venue', 'formatted_address': 'Los Angeles, CA 90095\nUnited States of America'}]","[-118.445181, 34.068921]","[['6295630', '6255149', '6252001', '5332921', '5368381', '5408545'], ['6295630', '6255149', '6252001', '5332921', '5368381', '5368361']]",locality,1.0,active,2020-08-27 23:06:19+00:00,2020-09-03 22:29:16+00:00,,,University of California - Los Angeles,-118.445181,34.068921,holiday,in-person,not_estimated,False
JLzRJHLjwztuQXc8dS,Winter Break,,2020-12-19 08:00:00+00:00,2021-02-08 07:59:59+00:00,America/Los_Angeles,4406399,academic,"['academic', 'holiday']",US,71,,,10646.0,"[{'entity_id': 'htkLSUCJvJffjDUhU7cfeC', 'name': 'Los Angeles City College', 'type': 'venue', 'formatted_address': '855 North Vermont Avenue\nLos Angeles, CA 90029\nUnited States of America'}]","[-118.292473, 34.087269]","[['6295630', '6255149', '6252001', '5332921', '5368381', '5368361'], ['6295630', '6255149', '6252001', '5332921', '5368381', '8062691']]",locality,1.0,active,2020-08-27 22:35:32+00:00,2020-09-03 22:19:04+00:00,,,Los Angeles City College,-118.292473,34.087269,holiday,in-person,not_estimated,False
JoDK82KppSPCHafpJ3,Winter Break,,2020-12-19 08:00:00+00:00,2021-02-08 07:59:59+00:00,America/Los_Angeles,4406399,academic,"['academic', 'holiday']",US,58,,,2478.0,"[{'entity_id': 'aZtwEWCRc8nfX4CcFksdip', 'name': 'West Los Angeles College', 'type': 'venue', 'formatted_address': '9000 Overland Avenue\nCulver City, CA 90230\nUnited States of America'}]","[-118.387156, 34.004228]","[['6295630', '6255149', '6252001', '5332921', '5368381', '5364195'], ['6295630', '6255149', '6252001', '5332921', '5368381', '5368361']]",locality,1.0,active,2020-08-27 23:11:57+00:00,2020-09-03 22:21:12+00:00,,,West Los Angeles College,-118.387156,34.004228,holiday,in-person,not_estimated,False
pJHKKLgcW2fcHniQkZ,Winter Break,,2020-12-19 08:00:00+00:00,2021-02-08 07:59:59+00:00,America/Los_Angeles,4406399,academic,"['academic', 'estimated', 'holiday']",US,70,,,10263.0,"[{'entity_id': '36Ni6bFidX2bME3rKyW8m8R', 'name': 'Los Angeles Trade Technical College', 'type': 'venue', 'formatted_address': '400 West Washington Boulevard\nLos Angeles, CA 90015\nUnited States of America'}]","[-118.269695, 34.032848]","[['6295630', '6255149', '6252001', '5332921', '5368381', '5368361'], ['6295630', '6255149', '6252001', '5332921', '5368381', '5360529']]",locality,1.0,active,2020-08-27 22:38:10+00:00,2020-09-03 22:19:55+00:00,,,Los Angeles Trade Technical College,-118.269695,34.032848,holiday,in-person,estimated,False
8cLvpUsixHkqRRYQ4a,Fall Exams,,2020-12-14 08:00:00+00:00,2020-12-19 07:59:59+00:00,America/Los_Angeles,431999,academic,"['academic', 'exam', 'online-session']",US,0,,,0.0,"[{'entity_id': 'aZtwEWCRc8nfX4CcFksdip', 'name': 'West Los Angeles College', 'type': 'venue', 'formatted_address': '9000 Overland Avenue\nCulver City, CA 90230\nUnited States of America'}]","[-118.387156, 34.004228]","[['6295630', '6255149', '6252001', '5332921', '5368381', '5364195'], ['6295630', '6255149', '6252001', '5332921', '5368381', '5368361']]",locality,1.0,active,2020-08-27 23:11:56+00:00,2020-10-21 02:12:37+00:00,,,West Los Angeles College,-118.387156,34.004228,exam,online-session,not_estimated,True
D9JoRUVfJ9YJDFiFNC,Fall Exams,,2020-12-14 08:00:00+00:00,2020-12-19 07:59:59+00:00,America/Los_Angeles,431999,academic,"['academic', 'exam', 'online-session']",US,60,,,3157.0,"[{'entity_id': '32afGxjEeXh84pfVwWY9qUk', 'name': 'University of California - Los Angeles', 'type': 'venue', 'formatted_address': 'Los Angeles, CA 90095\nUnited States of America'}]","[-118.445181, 34.068921]","[['6295630', '6255149', '6252001', '5332921', '5368381', '5408545'], ['6295630', '6255149', '6252001', '5332921', '5368381', '5368361']]",locality,1.0,active,2020-08-27 23:07:01+00:00,2020-10-21 02:08:39+00:00,,,University of California - Los Angeles,-118.445181,34.068921,exam,online-session,not_estimated,True
PsX5mjJTQx9xN8eU25,Fall Exams,,2020-12-14 08:00:00+00:00,2020-12-19 07:59:59+00:00,America/Los_Angeles,431999,academic,"['academic', 'exam', 'online-session']",US,0,,,0.0,"[{'entity_id': 'htkLSUCJvJffjDUhU7cfeC', 'name': 'Los Angeles City College', 'type': 'venue', 'formatted_address': '855 North Vermont Avenue\nLos Angeles, CA 90029\nUnited States of America'}]","[-118.292473, 34.087269]","[['6295630', '6255149', '6252001', '5332921', '5368381', '5368361'], ['6295630', '6255149', '6252001', '5332921', '5368381', '8062691']]",locality,1.0,active,2020-08-27 22:35:31+00:00,2020-10-21 02:14:15+00:00,,,Los Angeles City College,-118.292473,34.087269,exam,online-session,not_estimated,True
uedyXru7Q4urBNmYoa,Fall Exams,,2020-12-14 08:00:00+00:00,2020-12-19 07:59:59+00:00,America/Los_Angeles,431999,academic,"['academic', 'exam', 'hybrid-session']",US,63,,,4291.0,"[{'entity_id': '36Ni6bFidX2bME3rKyW8m8R', 'name': 'Los Angeles Trade Technical College', 'type': 'venue', 'formatted_address': '400 West Washington Boulevard\nLos Angeles, CA 90015\nUnited States of America'}]","[-118.269695, 34.032848]","[['6295630', '6255149', '6252001', '5332921', '5368381', '5368361'], ['6295630', '6255149', '6252001', '5332921', '5368381', '5360529']]",locality,1.0,active,2020-08-27 22:38:09+00:00,2020-10-21 02:11:54+00:00,,,Los Angeles Trade Technical College,-118.269695,34.032848,exam,hybrid-session,not_estimated,True
4BYRanvphRTy388uQv,Thanksgiving Break,,2020-11-26 08:00:00+00:00,2020-11-30 07:59:59+00:00,America/Los_Angeles,345599,academic,"['academic', 'holiday']",US,58,,,2478.0,"[{'entity_id': 'aZtwEWCRc8nfX4CcFksdip', 'name': 'West Los Angeles College', 'type': 'venue', 'formatted_address': '9000 Overland Avenue\nCulver City, CA 90230\nUnited States of America'}]","[-118.387156, 34.004228]","[['6295630', '6255149', '6252001', '5332921', '5368381', '5364195'], ['6295630', '6255149', '6252001', '5332921', '5368381', '5368361']]",locality,1.0,active,2020-08-27 23:11:56+00:00,2020-09-03 22:28:45+00:00,,,West Los Angeles College,-118.387156,34.004228,holiday,in-person,not_estimated,False
Uk7vki4n89RdUSnbWW,Thanksgiving Break,,2020-11-26 08:00:00+00:00,2020-11-30 07:59:59+00:00,America/Los_Angeles,345599,academic,"['academic', 'holiday']",US,70,,,10263.0,"[{'entity_id': '36Ni6bFidX2bME3rKyW8m8R', 'name': 'Los Angeles Trade Technical College', 'type': 'venue', 'formatted_address': '400 West Washington Boulevard\nLos Angeles, CA 90015\nUnited States of America'}]","[-118.269695, 34.032848]","[['6295630', '6255149', '6252001', '5332921', '5368381', '5368361'], ['6295630', '6255149', '6252001', '5332921', '5368381', '5360529']]",locality,1.0,active,2020-08-27 22:38:07+00:00,2020-09-03 22:19:45+00:00,,,Los Angeles Trade Technical College,-118.269695,34.032848,holiday,in-person,not_estimated,False
aKWiC7Acdbihb44fUt,Thanksgiving Break,,2020-11-26 08:00:00+00:00,2020-11-30 07:59:59+00:00,America/Los_Angeles,345599,academic,"['academic', 'holiday']",US,71,,,10646.0,"[{'entity_id': 'htkLSUCJvJffjDUhU7cfeC', 'name': 'Los Angeles City College', 'type': 'venue', 'formatted_address': '855 North Vermont Avenue\nLos Angeles, CA 90029\nUnited States of America'}]","[-118.292473, 34.087269]","[['6295630', '6255149', '6252001', '5332921', '5368381', '5368361'], ['6295630', '6255149', '6252001', '5332921', '5368381', '8062691']]",locality,1.0,active,2020-08-27 22:35:30+00:00,2020-09-03 22:27:30+00:00,,,Los Angeles City College,-118.292473,34.087269,holiday,in-person,not_estimated,False
fvrzyabmm2bZQQyfQT,Thanksgiving Break,,2020-11-26 08:00:00+00:00,2020-11-30 07:59:59+00:00,America/Los_Angeles,345599,academic,"['academic', 'holiday']",US,80,,,31543.0,"[{'entity_id': '32afGxjEeXh84pfVwWY9qUk', 'name': 'University of California - Los Angeles', 'type': 'venue', 'formatted_address': 'Los Angeles, CA 90095\nUnited States of America'}]","[-118.445181, 34.068921]","[['6295630', '6255149', '6252001', '5332921', '5368381', '5408545'], ['6295630', '6255149', '6252001', '5332921', '5368381', '5368361']]",locality,1.0,active,2020-08-27 23:06:14+00:00,2020-09-03 22:17:47+00:00,,,University of California - Los Angeles,-118.445181,34.068921,holiday,in-person,not_estimated,False
tMSyYGva5wuuVyMzVW,Winter Break,,2020-11-25 08:00:00+00:00,2021-01-11 07:59:59+00:00,America/Los_Angeles,4060799,academic,"['academic', 'holiday']",US,76,,,20499.0,"[{'entity_id': 'LD5w4M9KxZgSmmhvgbYdYz', 'name': 'University of Southern California', 'type': 'venue', 'formatted_address': 'Los Angeles, CA 90007\nUnited States of America'}]","[-118.285117, 34.022352]","[['6295630', '6255149', '6252001', '5332921', '5368381', '5368361'], ['6295630', '6255149', '6252001', '5332921', '5368381', '5360529']]",locality,1.0,active,2020-08-27 23:09:56+00:00,2020-09-03 22:28:00+00:00,,,University of Southern California,-118.285117,34.022352,holiday,in-person,not_estimated,False
QSc3Rg5Qcrpd37DQRq,Fall Exams,,2020-11-17 08:00:00+00:00,2020-11-25 07:59:59+00:00,America/Los_Angeles,691199,academic,"['academic', 'exam', 'online-session']",US,56,,,2050.0,"[{'entity_id': 'LD5w4M9KxZgSmmhvgbYdYz', 'name': 'University of Southern California', 'type': 'venue', 'formatted_address': 'Los Angeles, CA 90007\nUnited States of America'}]","[-118.285117, 34.022352]","[['6295630', '6255149', '6252001', '5332921', '5368381', '5368361'], ['6295630', '6255149', '6252001', '5332921', '5368381', '5360529']]",locality,1.0,active,2020-08-27 23:09:55+00:00,2020-10-21 02:09:48+00:00,,,University of Southern California,-118.285117,34.022352,exam,online-session,not_estimated,True
4gcMhcMhtjffLL4F7p,Homecoming,,2020-11-14 08:00:00+00:00,2020-11-15 07:59:59+00:00,America/Los_Angeles,86399,academic,"['academic', 'social']",US,0,,,0.0,"[{'entity_id': 'LD5w4M9KxZgSmmhvgbYdYz', 'name': 'University of Southern California', 'type': 'venue', 'formatted_address': 'Los Angeles, CA 90007\nUnited States of America'}]","[-118.285117, 34.022352]","[['6295630', '6255149', '6252001', '5332921', '5368381', '5368361'], ['6295630', '6255149', '6252001', '5332921', '5368381', '5360529']]",locality,1.0,active,2020-08-27 23:09:54+00:00,2020-08-27 23:38:35+00:00,,,University of Southern California,-118.285117,34.022352,social,in-person,not_estimated,True
drz4LGojez5cQY9QBt,Fall Session,,2020-10-01 07:00:00+00:00,2020-12-12 07:59:59+00:00,America/Los_Angeles,6224399,academic,"['academic', 'academic-session', 'online-session']",US,60,,,3157.0,"[{'entity_id': '32afGxjEeXh84pfVwWY9qUk', 'name': 'University of California - Los Angeles', 'type': 'venue', 'formatted_address': 'Los Angeles, CA 90095\nUnited States of America'}]","[-118.445181, 34.068921]","[['6295630', '6255149', '6252001', '5332921', '5368381', '5408545'], ['6295630', '6255149', '6252001', '5332921', '5368381', '5368361']]",locality,1.0,active,2020-08-27 23:06:14+00:00,2020-10-21 02:13:13+00:00,,,University of California - Los Angeles,-118.445181,34.068921,academic-session,online-session,not_estimated,True
4G9yJCPgUNL53HzD4R,Fall Session,,2020-08-31 07:00:00+00:00,2020-12-12 07:59:59+00:00,America/Los_Angeles,8902799,academic,"['academic', 'academic-session', 'online-session']",US,0,,,0.0,"[{'entity_id': 'htkLSUCJvJffjDUhU7cfeC', 'name': 'Los Angeles City College', 'type': 'venue', 'formatted_address': '855 North Vermont Avenue\nLos Angeles, CA 90029\nUnited States of America'}]","[-118.292473, 34.087269]","[['6295630', '6255149', '6252001', '5332921', '5368381', '5368361'], ['6295630', '6255149', '6252001', '5332921', '5368381', '8062691']]",locality,1.0,active,2020-08-27 22:35:29+00:00,2020-10-21 01:55:18+00:00,,,Los Angeles City College,-118.292473,34.087269,academic-session,online-session,not_estimated,True
TXba4nkiCHSZcj8Pf3,Fall Session,,2020-08-31 07:00:00+00:00,2020-12-12 07:59:59+00:00,America/Los_Angeles,8902799,academic,"['academic', 'academic-session', 'online-session']",US,0,,,0.0,"[{'entity_id': 'aZtwEWCRc8nfX4CcFksdip', 'name': 'West Los Angeles College', 'type': 'venue', 'formatted_address': '9000 Overland Avenue\nCulver City, CA 90230\nUnited States of America'}]","[-118.387156, 34.004228]","[['6295630', '6255149', '6252001', '5332921', '5368381', '5364195'], ['6295630', '6255149', '6252001', '5332921', '5368381', '5368361']]",locality,1.0,active,2020-08-27 23:11:55+00:00,2020-10-21 02:02:30+00:00,,,West Los Angeles College,-118.387156,34.004228,academic-session,online-session,not_estimated,True
csygmxWmEz7kYnF2MT,Fall Session,,2020-08-31 07:00:00+00:00,2020-12-12 07:59:59+00:00,America/Los_Angeles,8902799,academic,"['academic', 'academic-session', 'hybrid-session']",US,63,,,4291.0,"[{'entity_id': '36Ni6bFidX2bME3rKyW8m8R', 'name': 'Los Angeles Trade Technical College', 'type': 'venue', 'formatted_address': '400 West Washington Boulevard\nLos Angeles, CA 90015\nUnited States of America'}]","[-118.269695, 34.032848]","[['6295630', '6255149', '6252001', '5332921', '5368381', '5368361'], ['6295630', '6255149', '6252001', '5332921', '5368381', '5360529']]",locality,1.0,active,2020-08-27 22:38:06+00:00,2020-10-21 02:13:10+00:00,,,Los Angeles Trade Technical College,-118.269695,34.032848,academic-session,hybrid-session,not_estimated,True
MqXG5JLJvWmhbrbfvo,Fall Session,,2020-08-17 07:00:00+00:00,2020-11-14 07:59:59+00:00,America/Los_Angeles,7693199,academic,"['academic', 'academic-session', 'online-session']",US,56,,,2050.0,"[{'entity_id': 'LD5w4M9KxZgSmmhvgbYdYz', 'name': 'University of Southern California', 'type': 'venue', 'formatted_address': 'Los Angeles, CA 90007\nUnited States of America'}]","[-118.285117, 34.022352]","[['6295630', '6255149', '6252001', '5332921', '5368381', '5368361'], ['6295630', '6255149', '6252001', '5332921', '5368381', '5360529']]",locality,1.0,active,2020-08-27 23:09:54+00:00,2020-10-21 02:04:49+00:00,,,University of Southern California,-118.285117,34.022352,academic-session,online-session,not_estimated,True
PHSQCLVUFdVUNZaJ5d,Summer Session,,2020-06-22 07:00:00+00:00,2020-09-12 06:59:59+00:00,America/Los_Angeles,7084799,academic,"['academic', 'academic-session']",US,70,,,9462.0,"[{'entity_id': '32afGxjEeXh84pfVwWY9qUk', 'name': 'University of California - Los Angeles', 'type': 'venue', 'formatted_address': 'Los Angeles, CA 90095\nUnited States of America'}]","[-118.445181, 34.068921]","[['6295630', '6255149', '6252001', '5332921', '5368381', '5408545'], ['6295630', '6255149', '6252001', '5332921', '5368381', '5368361']]",locality,1.0,active,2020-08-27 23:06:36+00:00,2020-09-03 22:21:08+00:00,,,University of California - Los Angeles,-118.445181,34.068921,academic-session,in-person,not_estimated,True
PWnDBNizzgduEPmzp7,Summer Session,,2020-06-15 07:00:00+00:00,2020-08-31 06:59:59+00:00,America/Los_Angeles,6652799,academic,"['academic', 'academic-session']",US,60,,,3193.0,"[{'entity_id': 'htkLSUCJvJffjDUhU7cfeC', 'name': 'Los Angeles City College', 'type': 'venue', 'formatted_address': '855 North Vermont Avenue\nLos Angeles, CA 90029\nUnited States of America'}]","[-118.292473, 34.087269]","[['6295630', '6255149', '6252001', '5332921', '5368381', '5368361'], ['6295630', '6255149', '6252001', '5332921', '5368381', '8062691']]",locality,1.0,active,2020-08-27 22:35:28+00:00,2020-09-03 22:26:25+00:00,,,Los Angeles City College,-118.292473,34.087269,academic-session,in-person,not_estimated,True
cEbnuhrCEJcJPUMExR,Summer Session,,2020-06-15 07:00:00+00:00,2020-08-31 06:59:59+00:00,America/Los_Angeles,6652799,academic,"['academic', 'academic-session']",US,60,,,3078.0,"[{'entity_id': '36Ni6bFidX2bME3rKyW8m8R', 'name': 'Los Angeles Trade Technical College', 'type': 'venue', 'formatted_address': '400 West Washington Boulevard\nLos Angeles, CA 90015\nUnited States of America'}]","[-118.269695, 34.032848]","[['6295630', '6255149', '6252001', '5332921', '5368381', '5368361'], ['6295630', '6255149', '6252001', '5332921', '5368381', '5360529']]",locality,1.0,active,2020-08-27 22:38:05+00:00,2020-09-03 22:27:32+00:00,,,Los Angeles Trade Technical College,-118.269695,34.032848,academic-session,in-person,not_estimated,True
ykhu2VAKnkitE4KcRP,Summer Session,,2020-06-15 07:00:00+00:00,2020-08-24 06:59:59+00:00,America/Los_Angeles,6047999,academic,"['academic', 'academic-session']",US,58,,,2478.0,"[{'entity_id': 'aZtwEWCRc8nfX4CcFksdip', 'name': 'West Los Angeles College', 'type': 'venue', 'formatted_address': '9000 Overland Avenue\nCulver City, CA 90230\nUnited States of America'}]","[-118.387156, 34.004228]","[['6295630', '6255149', '6252001', '5332921', '5368381', '5364195'], ['6295630', '6255149', '6252001', '5332921', '5368381', '5368361']]",locality,1.0,active,2020-08-27 23:11:53+00:00,2020-09-03 22:10:18+00:00,,,West Los Angeles College,-118.387156,34.004228,academic-session,in-person,not_estimated,True
vzhimty86WM2Y3NuFK,Summer Break,,2020-06-13 07:00:00+00:00,2020-10-01 06:59:59+00:00,America/Los_Angeles,9503999,academic,"['academic', 'holiday']",US,80,,,31543.0,"[{'entity_id': '32afGxjEeXh84pfVwWY9qUk', 'name': 'University of California - Los Angeles', 'type': 'venue', 'formatted_address': 'Los Angeles, CA 90095\nUnited States of America'}]","[-118.445181, 34.068921]","[['6295630', '6255149', '6252001', '5332921', '5368381', '5408545'], ['6295630', '6255149', '6252001', '5332921', '5368381', '5368361']]",locality,1.0,active,2020-08-27 23:05:49+00:00,2020-09-03 22:20:25+00:00,,,University of California - Los Angeles,-118.445181,34.068921,holiday,in-person,not_estimated,False
LHQ5SQgpBSQJHqcmpL,Summer Break,,2020-06-09 07:00:00+00:00,2020-08-31 06:59:59+00:00,America/Los_Angeles,7171199,academic,"['academic', 'holiday']",US,58,,,2478.0,"[{'entity_id': 'aZtwEWCRc8nfX4CcFksdip', 'name': 'West Los Angeles College', 'type': 'venue', 'formatted_address': '9000 Overland Avenue\nCulver City, CA 90230\nUnited States of America'}]","[-118.387156, 34.004228]","[['6295630', '6255149', '6252001', '5332921', '5368381', '5364195'], ['6295630', '6255149', '6252001', '5332921', '5368381', '5368361']]",locality,1.0,active,2020-08-27 23:11:54+00:00,2020-09-03 22:20:48+00:00,,,West Los Angeles College,-118.387156,34.004228,holiday,in-person,not_estimated,False
rvcmeCzyQDUF5KndS6,Summer Break,,2020-06-09 07:00:00+00:00,2020-08-31 06:59:59+00:00,America/Los_Angeles,7171199,academic,"['academic', 'holiday']",US,71,,,10646.0,"[{'entity_id': 'htkLSUCJvJffjDUhU7cfeC', 'name': 'Los Angeles City College', 'type': 'venue', 'formatted_address': '855 North Vermont Avenue\nLos Angeles, CA 90029\nUnited States of America'}]","[-118.292473, 34.087269]","[['6295630', '6255149', '6252001', '5332921', '5368381', '5368361'], ['6295630', '6255149', '6252001', '5332921', '5368381', '8062691']]",locality,1.0,active,2020-08-27 22:35:28+00:00,2020-09-03 22:15:58+00:00,,,Los Angeles City College,-118.292473,34.087269,holiday,in-person,not_estimated,False
uaz2RqnJq6YVBeBzfa,Summer Break,,2020-06-09 07:00:00+00:00,2020-08-31 06:59:59+00:00,America/Los_Angeles,7171199,academic,"['academic', 'holiday']",US,70,,,10263.0,"[{'entity_id': '36Ni6bFidX2bME3rKyW8m8R', 'name': 'Los Angeles Trade Technical College', 'type': 'venue', 'formatted_address': '400 West Washington Boulevard\nLos Angeles, CA 90015\nUnited States of America'}]","[-118.269695, 34.032848]","[['6295630', '6255149', '6252001', '5332921', '5368381', '5368361'], ['6295630', '6255149', '6252001', '5332921', '5368381', '5360529']]",locality,1.0,active,2020-08-27 22:38:06+00:00,2020-09-03 22:29:27+00:00,,,Los Angeles Trade Technical College,-118.269695,34.032848,holiday,in-person,not_estimated,False
dpD8DRHz4uteBHh8gs,Spring Exams,,2020-06-08 07:00:00+00:00,2020-06-13 06:59:59+00:00,America/Los_Angeles,431999,academic,"['academic', 'exam']",US,80,,,31543.0,"[{'entity_id': '32afGxjEeXh84pfVwWY9qUk', 'name': 'University of California - Los Angeles', 'type': 'venue', 'formatted_address': 'Los Angeles, CA 90095\nUnited States of America'}]","[-118.445181, 34.068921]","[['6295630', '6255149', '6252001', '5332921', '5368381', '5408545'], ['6295630', '6255149', '6252001', '5332921', '5368381', '5368361']]",locality,1.0,active,2020-08-27 23:06:12+00:00,2020-09-03 22:21:23+00:00,,,University of California - Los Angeles,-118.445181,34.068921,exam,in-person,not_estimated,True
3pK34wCdGyCNb5vbEk,Spring Exams,,2020-06-02 07:00:00+00:00,2020-06-09 06:59:59+00:00,America/Los_Angeles,604799,academic,"['academic', 'exam']",US,58,,,2478.0,"[{'entity_id': 'aZtwEWCRc8nfX4CcFksdip', 'name': 'West Los Angeles College', 'type': 'venue', 'formatted_address': '9000 Overland Avenue\nCulver City, CA 90230\nUnited States of America'}]","[-118.387156, 34.004228]","[['6295630', '6255149', '6252001', '5332921', '5368381', '5364195'], ['6295630', '6255149', '6252001', '5332921', '5368381', '5368361']]",locality,1.0,active,2020-08-27 23:11:51+00:00,2020-09-03 22:14:47+00:00,,,West Los Angeles College,-118.387156,34.004228,exam,in-person,not_estimated,True
3t29crbxzr57EDn6bo,Spring Exams,,2020-06-02 07:00:00+00:00,2020-06-09 06:59:59+00:00,America/Los_Angeles,604799,academic,"['academic', 'exam']",US,71,,,10646.0,"[{'entity_id': 'htkLSUCJvJffjDUhU7cfeC', 'name': 'Los Angeles City College', 'type': 'venue', 'formatted_address': '855 North Vermont Avenue\nLos Angeles, CA 90029\nUnited States of America'}]","[-118.292473, 34.087269]","[['6295630', '6255149', '6252001', '5332921', '5368381', '5368361'], ['6295630', '6255149', '6252001', '5332921', '5368381', '8062691']]",locality,1.0,active,2020-08-27 22:35:26+00:00,2020-09-03 22:21:08+00:00,,,Los Angeles City College,-118.292473,34.087269,exam,in-person,not_estimated,True
P2HrT3Y8VPEghxvqSm,Spring Exams,,2020-06-02 07:00:00+00:00,2020-06-09 06:59:59+00:00,America/Los_Angeles,604799,academic,"['academic', 'exam']",US,70,,,10263.0,"[{'entity_id': '36Ni6bFidX2bME3rKyW8m8R', 'name': 'Los Angeles Trade Technical College', 'type': 'venue', 'formatted_address': '400 West Washington Boulevard\nLos Angeles, CA 90015\nUnited States of America'}]","[-118.269695, 34.032848]","[['6295630', '6255149', '6252001', '5332921', '5368381', '5368361'], ['6295630', '6255149', '6252001', '5332921', '5368381', '5360529']]",locality,1.0,active,2020-08-27 22:38:03+00:00,2020-09-03 22:21:45+00:00,,,Los Angeles Trade Technical College,-118.269695,34.032848,exam,in-person,not_estimated,True
oaAbXFKsbJbQbmbgVK,Summer Session,,2020-05-20 07:00:00+00:00,2020-08-12 06:59:59+00:00,America/Los_Angeles,7257599,academic,"['academic', 'academic-session']",US,66,,,6150.0,"[{'entity_id': 'LD5w4M9KxZgSmmhvgbYdYz', 'name': 'University of Southern California', 'type': 'venue', 'formatted_address': 'Los Angeles, CA 90007\nUnited States of America'}]","[-118.285117, 34.022352]","[['6295630', '6255149', '6252001', '5332921', '5368381', '5368361'], ['6295630', '6255149', '6252001', '5332921', '5368381', '5360529']]",locality,1.0,active,2020-08-27 23:09:52+00:00,2020-09-03 22:20:59+00:00,,,University of Southern California,-118.285117,34.022352,academic-session,in-person,not_estimated,True
6uhFwB2pBXf9WZjcAc,Summer Break,,2020-05-14 07:00:00+00:00,2020-08-17 06:59:59+00:00,America/Los_Angeles,8207999,academic,"['academic', 'holiday']",US,76,,,20499.0,"[{'entity_id': 'LD5w4M9KxZgSmmhvgbYdYz', 'name': 'University of Southern California', 'type': 'venue', 'formatted_address': 'Los Angeles, CA 90007\nUnited States of America'}]","[-118.285117, 34.022352]","[['6295630', '6255149', '6252001', '5332921', '5368381', '5368361'], ['6295630', '6255149', '6252001', '5332921', '5368381', '5360529']]",locality,1.0,active,2020-08-27 23:09:53+00:00,2020-09-03 22:21:07+00:00,,,University of Southern California,-118.285117,34.022352,holiday,in-person,not_estimated,False
QTHFq3ajw9Je35m5pB,Spring Exams,,2020-05-06 07:00:00+00:00,2020-05-14 06:59:59+00:00,America/Los_Angeles,691199,academic,"['academic', 'exam']",US,76,,,20499.0,"[{'entity_id': 'LD5w4M9KxZgSmmhvgbYdYz', 'name': 'University of Southern California', 'type': 'venue', 'formatted_address': 'Los Angeles, CA 90007\nUnited States of America'}]","[-118.285117, 34.022352]","[['6295630', '6255149', '6252001', '5332921', '5368381', '5368361'], ['6295630', '6255149', '6252001', '5332921', '5368381', '5360529']]",locality,1.0,active,2020-08-27 23:09:50+00:00,2020-09-03 22:21:07+00:00,,,University of Southern California,-118.285117,34.022352,exam,in-person,not_estimated,True
9VHq8iDXFdDhjNTtzh,Spring Break,,2020-04-04 07:00:00+00:00,2020-04-13 06:59:59+00:00,America/Los_Angeles,777599,academic,"['academic', 'holiday']",US,71,,,10646.0,"[{'entity_id': 'htkLSUCJvJffjDUhU7cfeC', 'name': 'Los Angeles City College', 'type': 'venue', 'formatted_address': '855 North Vermont Avenue\nLos Angeles, CA 90029\nUnited States of America'}]","[-118.292473, 34.087269]","[['6295630', '6255149', '6252001', '5332921', '5368381', '5368361'], ['6295630', '6255149', '6252001', '5332921', '5368381', '8062691']]",locality,1.0,active,2020-08-27 22:35:25+00:00,2020-09-03 22:28:19+00:00,,,Los Angeles City College,-118.292473,34.087269,holiday,in-person,not_estimated,False
sAFvTFvBLpDjPFXqqv,Spring Break,,2020-04-04 07:00:00+00:00,2020-04-14 06:59:59+00:00,America/Los_Angeles,863999,academic,"['academic', 'holiday']",US,70,,,10263.0,"[{'entity_id': '36Ni6bFidX2bME3rKyW8m8R', 'name': 'Los Angeles Trade Technical College', 'type': 'venue', 'formatted_address': '400 West Washington Boulevard\nLos Angeles, CA 90015\nUnited States of America'}]","[-118.269695, 34.032848]","[['6295630', '6255149', '6252001', '5332921', '5368381', '5368361'], ['6295630', '6255149', '6252001', '5332921', '5368381', '5360529']]",locality,1.0,active,2020-08-27 22:38:02+00:00,2020-09-03 22:20:02+00:00,,,Los Angeles Trade Technical College,-118.269695,34.032848,holiday,in-person,not_estimated,False
RVLSZTi8fVmK6M9g8H,Spring Session,,2020-03-30 07:00:00+00:00,2020-06-06 06:59:59+00:00,America/Los_Angeles,5875199,academic,"['academic', 'academic-session']",US,80,,,31543.0,"[{'entity_id': '32afGxjEeXh84pfVwWY9qUk', 'name': 'University of California - Los Angeles', 'type': 'venue', 'formatted_address': 'Los Angeles, CA 90095\nUnited States of America'}]","[-118.445181, 34.068921]","[['6295630', '6255149', '6252001', '5332921', '5368381', '5408545'], ['6295630', '6255149', '6252001', '5332921', '5368381', '5368361']]",locality,1.0,active,2020-08-27 23:06:12+00:00,2020-09-03 22:21:17+00:00,,,University of California - Los Angeles,-118.445181,34.068921,academic-session,in-person,not_estimated,True
GSnn226xE8F7ApBuLG,Spring Break,,2020-03-21 07:00:00+00:00,2020-03-30 06:59:59+00:00,America/Los_Angeles,777599,academic,"['academic', 'holiday']",US,58,,,2478.0,"[{'entity_id': 'aZtwEWCRc8nfX4CcFksdip', 'name': 'West Los Angeles College', 'type': 'venue', 'formatted_address': '9000 Overland Avenue\nCulver City, CA 90230\nUnited States of America'}]","[-118.387156, 34.004228]","[['6295630', '6255149', '6252001', '5332921', '5368381', '5364195'], ['6295630', '6255149', '6252001', '5332921', '5368381', '5368361']]",locality,1.0,active,2020-08-27 23:11:50+00:00,2020-09-03 22:24:08+00:00,,,West Los Angeles College,-118.387156,34.004228,holiday,in-person,not_estimated,False
bMdScMeT2799LMeVqx,Spring Break,,2020-03-21 07:00:00+00:00,2020-03-30 06:59:59+00:00,America/Los_Angeles,777599,academic,"['academic', 'holiday']",US,80,,,31543.0,"[{'entity_id': '32afGxjEeXh84pfVwWY9qUk', 'name': 'University of California - Los Angeles', 'type': 'venue', 'formatted_address': 'Los Angeles, CA 90095\nUnited States of America'}]","[-118.445181, 34.068921]","[['6295630', '6255149', '6252001', '5332921', '5368381', '5408545'], ['6295630', '6255149', '6252001', '5332921', '5368381', '5368361']]",locality,1.0,active,2020-08-27 23:06:21+00:00,2020-09-03 22:22:05+00:00,,,University of California - Los Angeles,-118.445181,34.068921,holiday,in-person,not_estimated,False
iAqAXLPPnVCSgXrr7A,Winter Exams,,2020-03-16 07:00:00+00:00,2020-03-21 06:59:59+00:00,America/Los_Angeles,431999,academic,"['academic', 'exam']",US,80,,,31543.0,"[{'entity_id': '32afGxjEeXh84pfVwWY9qUk', 'name': 'University of California - Los Angeles', 'type': 'venue', 'formatted_address': 'Los Angeles, CA 90095\nUnited States of America'}]","[-118.445181, 34.068921]","[['6295630', '6255149', '6252001', '5332921', '5368381', '5408545'], ['6295630', '6255149', '6252001', '5332921', '5368381', '5368361']]",locality,1.0,active,2020-08-27 23:06:32+00:00,2020-09-03 22:19:25+00:00,,,University of California - Los Angeles,-118.445181,34.068921,exam,in-person,not_estimated,True
pAffP6eiG42VFm5C8C,Spring Break,,2020-03-14 07:00:00+00:00,2020-03-23 06:59:59+00:00,America/Los_Angeles,777599,academic,"['academic', 'holiday']",US,76,,,20499.0,"[{'entity_id': 'LD5w4M9KxZgSmmhvgbYdYz', 'name': 'University of Southern California', 'type': 'venue', 'formatted_address': 'Los Angeles, CA 90007\nUnited States of America'}]","[-118.285117, 34.022352]","[['6295630', '6255149', '6252001', '5332921', '5368381', '5368361'], ['6295630', '6255149', '6252001', '5332921', '5368381', '5360529']]",locality,1.0,active,2020-08-27 23:09:49+00:00,2020-09-03 22:20:18+00:00,,,University of Southern California,-118.285117,34.022352,holiday,in-person,not_estimated,False
PAcFHT56WiKBiTMZgE,COVID-19 Class Cancellation,All classes being conducted remotely / suspended in response to COVID-19,2020-03-11 07:00:00+00:00,2020-08-31 06:59:59+00:00,America/Los_Angeles,14947199,academic,"['academic', 'holiday']",US,71,,,10646.0,"[{'entity_id': 'htkLSUCJvJffjDUhU7cfeC', 'name': 'Los Angeles City College', 'type': 'venue', 'formatted_address': '855 North Vermont Avenue\nLos Angeles, CA 90029\nUnited States of America'}]","[-118.292473, 34.087269]","[['6295630', '6255149', '6252001', '5332921', '5368381', '5368361'], ['6295630', '6255149', '6252001', '5332921', '5368381', '8062691']]",locality,1.0,active,2020-08-27 21:27:18+00:00,2020-09-03 22:21:11+00:00,,,Los Angeles City College,-118.292473,34.087269,holiday,in-person,not_estimated,False
QoT9jTAS2V5zLCRqXh,COVID-19 Class Cancellation,All classes being conducted remotely / suspended in response to COVID-19,2020-03-11 07:00:00+00:00,2020-08-17 06:59:59+00:00,America/Los_Angeles,13737599,academic,"['academic', 'holiday']",US,76,,,20499.0,"[{'entity_id': 'LD5w4M9KxZgSmmhvgbYdYz', 'name': 'University of Southern California', 'type': 'venue', 'formatted_address': 'Los Angeles, CA 90007\nUnited States of America'}]","[-118.285117, 34.022352]","[['6295630', '6255149', '6252001', '5332921', '5368381', '5368361'], ['6295630', '6255149', '6252001', '5332921', '5368381', '5360529']]",locality,1.0,active,2020-08-27 21:28:11+00:00,2020-09-03 22:21:12+00:00,,,University of Southern California,-118.285117,34.022352,holiday,in-person,not_estimated,False
gM8YsmrU9nZxCs8q3o,COVID-19 Class Cancellation,All classes being conducted remotely / suspended in response to COVID-19,2020-03-11 07:00:00+00:00,2020-08-31 06:59:59+00:00,America/Los_Angeles,14947199,academic,"['academic', 'holiday']",US,70,,,10263.0,"[{'entity_id': '36Ni6bFidX2bME3rKyW8m8R', 'name': 'Los Angeles Trade Technical College', 'type': 'venue', 'formatted_address': '400 West Washington Boulevard\nLos Angeles, CA 90015\nUnited States of America'}]","[-118.269695, 34.032848]","[['6295630', '6255149', '6252001', '5332921', '5368381', '5368361'], ['6295630', '6255149', '6252001', '5332921', '5368381', '5360529']]",locality,1.0,active,2020-08-27 21:27:23+00:00,2020-09-03 22:16:19+00:00,,,Los Angeles Trade Technical College,-118.269695,34.032848,holiday,in-person,not_estimated,False
pFwtiiVNQWxfpr3LDg,COVID-19 Class Cancellation,All classes being conducted remotely / suspended in response to COVID-19,2020-03-11 07:00:00+00:00,2020-08-31 06:59:59+00:00,America/Los_Angeles,14947199,academic,"['academic', 'holiday']",US,58,,,2478.0,"[{'entity_id': 'aZtwEWCRc8nfX4CcFksdip', 'name': 'West Los Angeles College', 'type': 'venue', 'formatted_address': '9000 Overland Avenue\nCulver City, CA 90230\nUnited States of America'}]","[-118.387156, 34.004228]","[['6295630', '6255149', '6252001', '5332921', '5368381', '5364195'], ['6295630', '6255149', '6252001', '5332921', '5368381', '5368361']]",locality,1.0,active,2020-08-27 21:28:14+00:00,2020-09-03 22:20:33+00:00,,,West Los Angeles College,-118.387156,34.004228,holiday,in-person,not_estimated,False
viKmy5rgLnsk23YLnz,COVID-19 Class Cancellation,All classes being conducted remotely / suspended in response to COVID-19,2020-03-11 07:00:00+00:00,2020-10-01 06:59:59+00:00,America/Los_Angeles,17625599,academic,"['academic', 'holiday']",US,80,,,31543.0,"[{'entity_id': '32afGxjEeXh84pfVwWY9qUk', 'name': 'University of California - Los Angeles', 'type': 'venue', 'formatted_address': 'Los Angeles, CA 90095\nUnited States of America'}]","[-118.445181, 34.068921]","[['6295630', '6255149', '6252001', '5332921', '5368381', '5408545'], ['6295630', '6255149', '6252001', '5332921', '5368381', '5368361']]",locality,1.0,active,2020-08-27 21:28:04+00:00,2020-09-03 22:27:28+00:00,,,University of California - Los Angeles,-118.445181,34.068921,holiday,in-person,not_estimated,False
ZwEJtcimCSTPegeChr,Spring Session,,2020-02-10 08:00:00+00:00,2020-06-02 06:59:59+00:00,America/Los_Angeles,9759599,academic,"['academic', 'academic-session']",US,58,,,2478.0,"[{'entity_id': 'aZtwEWCRc8nfX4CcFksdip', 'name': 'West Los Angeles College', 'type': 'venue', 'formatted_address': '9000 Overland Avenue\nCulver City, CA 90230\nUnited States of America'}]","[-118.387156, 34.004228]","[['6295630', '6255149', '6252001', '5332921', '5368381', '5364195'], ['6295630', '6255149', '6252001', '5332921', '5368381', '5368361']]",locality,1.0,active,2020-08-27 23:11:49+00:00,2020-09-03 22:16:58+00:00,,,West Los Angeles College,-118.387156,34.004228,academic-session,in-person,not_estimated,True
fqj3pcxY2ivTFDyFrN,Spring Session,,2020-02-10 08:00:00+00:00,2020-06-02 06:59:59+00:00,America/Los_Angeles,9759599,academic,"['academic', 'academic-session']",US,70,,,10263.0,"[{'entity_id': '36Ni6bFidX2bME3rKyW8m8R', 'name': 'Los Angeles Trade Technical College', 'type': 'venue', 'formatted_address': '400 West Washington Boulevard\nLos Angeles, CA 90015\nUnited States of America'}]","[-118.269695, 34.032848]","[['6295630', '6255149', '6252001', '5332921', '5368381', '5368361'], ['6295630', '6255149', '6252001', '5332921', '5368381', '5360529']]",locality,1.0,active,2020-08-27 22:38:01+00:00,2020-09-03 22:19:39+00:00,,,Los Angeles Trade Technical College,-118.269695,34.032848,academic-session,in-person,not_estimated,True
uua7MUQ4CX2DzbvtLB,Spring Session,,2020-02-10 08:00:00+00:00,2020-06-02 06:59:59+00:00,America/Los_Angeles,9759599,academic,"['academic', 'academic-session']",US,71,,,10646.0,"[{'entity_id': 'htkLSUCJvJffjDUhU7cfeC', 'name': 'Los Angeles City College', 'type': 'venue', 'formatted_address': '855 North Vermont Avenue\nLos Angeles, CA 90029\nUnited States of America'}]","[-118.292473, 34.087269]","[['6295630', '6255149', '6252001', '5332921', '5368381', '5368361'], ['6295630', '6255149', '6252001', '5332921', '5368381', '8062691']]",locality,1.0,active,2020-08-27 22:35:24+00:00,2020-09-03 22:12:59+00:00,,,Los Angeles City College,-118.292473,34.087269,academic-session,in-person,not_estimated,True
ud8yAwFhW5LDQkDV4U,Spring Session,,2020-01-13 08:00:00+00:00,2020-05-02 06:59:59+00:00,America/Los_Angeles,9500399,academic,"['academic', 'academic-session']",US,76,,,20499.0,"[{'entity_id': 'LD5w4M9KxZgSmmhvgbYdYz', 'name': 'University of Southern California', 'type': 'venue', 'formatted_address': 'Los Angeles, CA 90007\nUnited States of America'}]","[-118.285117, 34.022352]","[['6295630', '6255149', '6252001', '5332921', '5368381', '5368361'], ['6295630', '6255149', '6252001', '5332921', '5368381', '5360529']]",locality,1.0,active,2020-08-27 23:09:48+00:00,2020-09-03 22:02:32+00:00,,,University of Southern California,-118.285117,34.022352,academic-session,in-person,not_estimated,True
PnAqkPWfFyK3j8LwiG,Winter Session,,2020-01-06 08:00:00+00:00,2020-03-14 06:59:59+00:00,America/Los_Angeles,5871599,academic,"['academic', 'academic-session']",US,80,,,31543.0,"[{'entity_id': '32afGxjEeXh84pfVwWY9qUk', 'name': 'University of California - Los Angeles', 'type': 'venue', 'formatted_address': 'Los Angeles, CA 90095\nUnited States of America'}]","[-118.445181, 34.068921]","[['6295630', '6255149', '6252001', '5332921', '5368381', '5408545'], ['6295630', '6255149', '6252001', '5332921', '5368381', '5368361']]",locality,1.0,active,2020-08-27 23:06:23+00:00,2020-09-03 22:20:41+00:00,,,University of California - Los Angeles,-118.445181,34.068921,academic-session,in-person,not_estimated,True
Vqfetvjw2KVkEq9C3B,Winter Session,,2020-01-06 08:00:00+00:00,2020-02-10 07:59:59+00:00,America/Los_Angeles,3023999,academic,"['academic', 'academic-session']",US,47,,,743.0,"[{'entity_id': 'aZtwEWCRc8nfX4CcFksdip', 'name': 'West Los Angeles College', 'type': 'venue', 'formatted_address': '9000 Overland Avenue\nCulver City, CA 90230\nUnited States of America'}]","[-118.387156, 34.004228]","[['6295630', '6255149', '6252001', '5332921', '5368381', '5364195'], ['6295630', '6255149', '6252001', '5332921', '5368381', '5368361']]",locality,1.0,active,2020-08-27 23:11:49+00:00,2020-09-03 22:29:07+00:00,,,West Los Angeles College,-118.387156,34.004228,academic-session,in-person,not_estimated,True
YZfgvb5nrkghkGrWyM,Winter Session,,2020-01-06 08:00:00+00:00,2020-02-10 07:59:59+00:00,America/Los_Angeles,3023999,academic,"['academic', 'academic-session']",US,60,,,3193.0,"[{'entity_id': 'htkLSUCJvJffjDUhU7cfeC', 'name': 'Los Angeles City College', 'type': 'venue', 'formatted_address': '855 North Vermont Avenue\nLos Angeles, CA 90029\nUnited States of America'}]","[-118.292473, 34.087269]","[['6295630', '6255149', '6252001', '5332921', '5368381', '5368361'], ['6295630', '6255149', '6252001', '5332921', '5368381', '8062691']]",locality,1.0,active,2020-08-27 22:35:24+00:00,2020-09-03 22:23:55+00:00,,,Los Angeles City College,-118.292473,34.087269,academic-session,in-person,not_estimated,True
uchXZNC4S8CHMKV5AT,Winter Session,,2020-01-06 08:00:00+00:00,2020-02-10 07:59:59+00:00,America/Los_Angeles,3023999,academic,"['academic', 'academic-session']",US,60,,,3078.0,"[{'entity_id': '36Ni6bFidX2bME3rKyW8m8R', 'name': 'Los Angeles Trade Technical College', 'type': 'venue', 'formatted_address': '400 West Washington Boulevard\nLos Angeles, CA 90015\nUnited States of America'}]","[-118.269695, 34.032848]","[['6295630', '6255149', '6252001', '5332921', '5368381', '5368361'], ['6295630', '6255149', '6252001', '5332921', '5368381', '5360529']]",locality,1.0,active,2020-08-27 22:38:00+00:00,2020-09-03 22:19:26+00:00,,,Los Angeles Trade Technical College,-118.269695,34.032848,academic-session,in-person,not_estimated,True
4sEJTJkwTbsG3orp8y,Winter Break,,2019-12-19 08:00:00+00:00,2020-01-13 07:59:59+00:00,America/Los_Angeles,2159999,academic,"['academic', 'holiday']",US,76,,,19535.0,"[{'entity_id': 'LD5w4M9KxZgSmmhvgbYdYz', 'name': 'University of Southern California', 'type': 'venue', 'formatted_address': 'Los Angeles, CA 90007\nUnited States of America'}]","[-118.285117, 34.022352]","[['6295630', '6255149', '6252001', '5332921', '5368381', '5368361'], ['6295630', '6255149', '6252001', '5332921', '5368381', '5360529']]",locality,1.0,active,2020-08-27 23:09:47+00:00,2020-09-03 22:26:34+00:00,,,University of Southern California,-118.285117,34.022352,holiday,in-person,not_estimated,False
2hdQFiVEyyJWWsP8FG,Winter Break,,2019-12-14 08:00:00+00:00,2020-02-10 07:59:59+00:00,America/Los_Angeles,5011199,academic,"['academic', 'holiday']",US,71,,,10646.0,"[{'entity_id': 'htkLSUCJvJffjDUhU7cfeC', 'name': 'Los Angeles City College', 'type': 'venue', 'formatted_address': '855 North Vermont Avenue\nLos Angeles, CA 90029\nUnited States of America'}]","[-118.292473, 34.087269]","[['6295630', '6255149', '6252001', '5332921', '5368381', '5368361'], ['6295630', '6255149', '6252001', '5332921', '5368381', '8062691']]",locality,1.0,active,2020-08-27 22:35:23+00:00,2020-09-03 22:15:51+00:00,,,Los Angeles City College,-118.292473,34.087269,holiday,in-person,not_estimated,False
KeKrLfdfZmRy2Lu9iL,Winter Break,,2019-12-14 08:00:00+00:00,2020-01-06 07:59:59+00:00,America/Los_Angeles,1987199,academic,"['academic', 'holiday']",US,80,,,31543.0,"[{'entity_id': '32afGxjEeXh84pfVwWY9qUk', 'name': 'University of California - Los Angeles', 'type': 'venue', 'formatted_address': 'Los Angeles, CA 90095\nUnited States of America'}]","[-118.445181, 34.068921]","[['6295630', '6255149', '6252001', '5332921', '5368381', '5408545'], ['6295630', '6255149', '6252001', '5332921', '5368381', '5368361']]",locality,1.0,active,2020-08-27 23:06:15+00:00,2020-09-03 22:16:19+00:00,,,University of California - Los Angeles,-118.445181,34.068921,holiday,in-person,not_estimated,False
gCtixPQZm535pvcVpE,Winter Break,,2019-12-14 08:00:00+00:00,2020-02-10 07:59:59+00:00,America/Los_Angeles,5011199,academic,"['academic', 'holiday']",US,70,,,10263.0,"[{'entity_id': '36Ni6bFidX2bME3rKyW8m8R', 'name': 'Los Angeles Trade Technical College', 'type': 'venue', 'formatted_address': '400 West Washington Boulevard\nLos Angeles, CA 90015\nUnited States of America'}]","[-118.269695, 34.032848]","[['6295630', '6255149', '6252001', '5332921', '5368381', '5368361'], ['6295630', '6255149', '6252001', '5332921', '5368381', '5360529']]",locality,1.0,active,2020-08-27 22:37:59+00:00,2020-09-03 22:20:34+00:00,,,Los Angeles Trade Technical College,-118.269695,34.032848,holiday,in-person,not_estimated,False
ggrdMYWFB5JgputS8y,Winter Break,,2019-12-14 08:00:00+00:00,2020-02-10 07:59:59+00:00,America/Los_Angeles,5011199,academic,"['academic', 'holiday']",US,58,,,2478.0,"[{'entity_id': 'aZtwEWCRc8nfX4CcFksdip', 'name': 'West Los Angeles College', 'type': 'venue', 'formatted_address': '9000 Overland Avenue\nCulver City, CA 90230\nUnited States of America'}]","[-118.387156, 34.004228]","[['6295630', '6255149', '6252001', '5332921', '5368381', '5364195'], ['6295630', '6255149', '6252001', '5332921', '5368381', '5368361']]",locality,1.0,active,2020-08-27 23:11:49+00:00,2020-09-03 22:19:24+00:00,,,West Los Angeles College,-118.387156,34.004228,holiday,in-person,not_estimated,False
GxHotBmQYB7DrGmsri,Fall Exams,,2019-12-11 08:00:00+00:00,2019-12-19 07:59:59+00:00,America/Los_Angeles,691199,academic,"['academic', 'exam']",US,76,,,19535.0,"[{'entity_id': 'LD5w4M9KxZgSmmhvgbYdYz', 'name': 'University of Southern California', 'type': 'venue', 'formatted_address': 'Los Angeles, CA 90007\nUnited States of America'}]","[-118.285117, 34.022352]","[['6295630', '6255149', '6252001', '5332921', '5368381', '5368361'], ['6295630', '6255149', '6252001', '5332921', '5368381', '5360529']]",locality,1.0,active,2020-08-27 23:09:46+00:00,2020-09-03 22:25:19+00:00,,,University of Southern California,-118.285117,34.022352,exam,in-person,not_estimated,True
5sfA56AWT8jQDzUNxo,Fall Exams,,2019-12-09 08:00:00+00:00,2019-12-14 07:59:59+00:00,America/Los_Angeles,431999,academic,"['academic', 'exam']",US,70,,,10263.0,"[{'entity_id': '36Ni6bFidX2bME3rKyW8m8R', 'name': 'Los Angeles Trade Technical College', 'type': 'venue', 'formatted_address': '400 West Washington Boulevard\nLos Angeles, CA 90015\nUnited States of America'}]","[-118.269695, 34.032848]","[['6295630', '6255149', '6252001', '5332921', '5368381', '5368361'], ['6295630', '6255149', '6252001', '5332921', '5368381', '5360529']]",locality,1.0,active,2020-08-27 22:37:59+00:00,2020-09-03 22:03:39+00:00,,,Los Angeles Trade Technical College,-118.269695,34.032848,exam,in-person,not_estimated,True
d2vPygEVLaoC9MAvB5,Fall Exams,,2019-12-09 08:00:00+00:00,2019-12-14 07:59:59+00:00,America/Los_Angeles,431999,academic,"['academic', 'exam']",US,71,,,10646.0,"[{'entity_id': 'htkLSUCJvJffjDUhU7cfeC', 'name': 'Los Angeles City College', 'type': 'venue', 'formatted_address': '855 North Vermont Avenue\nLos Angeles, CA 90029\nUnited States of America'}]","[-118.292473, 34.087269]","[['6295630', '6255149', '6252001', '5332921', '5368381', '5368361'], ['6295630', '6255149', '6252001', '5332921', '5368381', '8062691']]",locality,1.0,active,2020-08-27 22:35:22+00:00,2020-09-03 22:25:14+00:00,,,Los Angeles City College,-118.292473,34.087269,exam,in-person,not_estimated,True
dNb8Kb6NEcKFAzuQyu,Fall Exams,,2019-12-09 08:00:00+00:00,2019-12-14 07:59:59+00:00,America/Los_Angeles,431999,academic,"['academic', 'exam']",US,80,,,31543.0,"[{'entity_id': '32afGxjEeXh84pfVwWY9qUk', 'name': 'University of California - Los Angeles', 'type': 'venue', 'formatted_address': 'Los Angeles, CA 90095\nUnited States of America'}]","[-118.445181, 34.068921]","[['6295630', '6255149', '6252001', '5332921', '5368381', '5408545'], ['6295630', '6255149', '6252001', '5332921', '5368381', '5368361']]",locality,1.0,active,2020-08-27 23:06:15+00:00,2020-09-03 22:27:37+00:00,,,University of California - Los Angeles,-118.445181,34.068921,exam,in-person,not_estimated,True
ewjkT3J8vHVF3RCaxo,Fall Exams,,2019-12-09 08:00:00+00:00,2019-12-14 07:59:59+00:00,America/Los_Angeles,431999,academic,"['academic', 'exam']",US,58,,,2478.0,"[{'entity_id': 'aZtwEWCRc8nfX4CcFksdip', 'name': 'West Los Angeles College', 'type': 'venue', 'formatted_address': '9000 Overland Avenue\nCulver City, CA 90230\nUnited States of America'}]","[-118.387156, 34.004228]","[['6295630', '6255149', '6252001', '5332921', '5368381', '5364195'], ['6295630', '6255149', '6252001', '5332921', '5368381', '5368361']]",locality,1.0,active,2020-08-27 23:11:48+00:00,2020-09-03 22:11:37+00:00,,,West Los Angeles College,-118.387156,34.004228,exam,in-person,not_estimated,True
2B8xZ2YiiuWdTCsnoZ,Thanksgiving Break,,2019-11-28 08:00:00+00:00,2019-12-02 07:59:59+00:00,America/Los_Angeles,345599,academic,"['academic', 'holiday']",US,58,,,2478.0,"[{'entity_id': 'aZtwEWCRc8nfX4CcFksdip', 'name': 'West Los Angeles College', 'type': 'venue', 'formatted_address': '9000 Overland Avenue\nCulver City, CA 90230\nUnited States of America'}]","[-118.387156, 34.004228]","[['6295630', '6255149', '6252001', '5332921', '5368381', '5364195'], ['6295630', '6255149', '6252001', '5332921', '5368381', '5368361']]",locality,1.0,active,2020-08-27 23:11:46+00:00,2020-09-03 22:21:39+00:00,,,West Los Angeles College,-118.387156,34.004228,holiday,in-person,not_estimated,False
6iqcWi9H6DpwH7gA3F,Thanksgiving Break,,2019-11-28 08:00:00+00:00,2019-12-02 07:59:59+00:00,America/Los_Angeles,345599,academic,"['academic', 'holiday']",US,70,,,10263.0,"[{'entity_id': '36Ni6bFidX2bME3rKyW8m8R', 'name': 'Los Angeles Trade Technical College', 'type': 'venue', 'formatted_address': '400 West Washington Boulevard\nLos Angeles, CA 90015\nUnited States of America'}]","[-118.269695, 34.032848]","[['6295630', '6255149', '6252001', '5332921', '5368381', '5368361'], ['6295630', '6255149', '6252001', '5332921', '5368381', '5360529']]",locality,1.0,active,2020-08-27 22:37:58+00:00,2020-09-03 22:16:12+00:00,,,Los Angeles Trade Technical College,-118.269695,34.032848,holiday,in-person,not_estimated,False
aSANXpSai5SYCqw7Wb,Thanksgiving Break,,2019-11-28 08:00:00+00:00,2019-12-02 07:59:59+00:00,America/Los_Angeles,345599,academic,"['academic', 'holiday']",US,71,,,10646.0,"[{'entity_id': 'htkLSUCJvJffjDUhU7cfeC', 'name': 'Los Angeles City College', 'type': 'venue', 'formatted_address': '855 North Vermont Avenue\nLos Angeles, CA 90029\nUnited States of America'}]","[-118.292473, 34.087269]","[['6295630', '6255149', '6252001', '5332921', '5368381', '5368361'], ['6295630', '6255149', '6252001', '5332921', '5368381', '8062691']]",locality,1.0,active,2020-08-27 22:35:21+00:00,2020-09-03 22:27:09+00:00,,,Los Angeles City College,-118.292473,34.087269,holiday,in-person,not_estimated,False
znTkc6S55GU7nWkpP8,Thanksgiving Break,,2019-11-28 08:00:00+00:00,2019-12-02 07:59:59+00:00,America/Los_Angeles,345599,academic,"['academic', 'holiday']",US,80,,,31543.0,"[{'entity_id': '32afGxjEeXh84pfVwWY9qUk', 'name': 'University of California - Los Angeles', 'type': 'venue', 'formatted_address': 'Los Angeles, CA 90095\nUnited States of America'}]","[-118.445181, 34.068921]","[['6295630', '6255149', '6252001', '5332921', '5368381', '5408545'], ['6295630', '6255149', '6252001', '5332921', '5368381', '5368361']]",locality,1.0,active,2020-08-27 23:06:59+00:00,2020-09-03 22:26:47+00:00,,,University of California - Los Angeles,-118.445181,34.068921,holiday,in-person,not_estimated,False
PBxUA5kYmb2w2aGBFX,Thanksgiving Break,,2019-11-27 08:00:00+00:00,2019-12-02 07:59:59+00:00,America/Los_Angeles,431999,academic,"['academic', 'holiday']",US,76,,,19535.0,"[{'entity_id': 'LD5w4M9KxZgSmmhvgbYdYz', 'name': 'University of Southern California', 'type': 'venue', 'formatted_address': 'Los Angeles, CA 90007\nUnited States of America'}]","[-118.285117, 34.022352]","[['6295630', '6255149', '6252001', '5332921', '5368381', '5368361'], ['6295630', '6255149', '6252001', '5332921', '5368381', '5360529']]",locality,1.0,active,2020-08-27 23:09:45+00:00,2020-09-03 22:23:47+00:00,,,University of Southern California,-118.285117,34.022352,holiday,in-person,not_estimated,False
r8RCCNQJzhTJZxdTzB,Homecoming,,2019-10-26 07:00:00+00:00,2019-10-27 06:59:59+00:00,America/Los_Angeles,86399,academic,"['academic', 'social']",US,0,,,0.0,"[{'entity_id': '32afGxjEeXh84pfVwWY9qUk', 'name': 'University of California - Los Angeles', 'type': 'venue', 'formatted_address': 'Los Angeles, CA 90095\nUnited States of America'}]","[-118.445181, 34.068921]","[['6295630', '6255149', '6252001', '5332921', '5368381', '5408545'], ['6295630', '6255149', '6252001', '5332921', '5368381', '5368361']]",locality,1.0,active,2020-08-27 23:06:20+00:00,2020-08-28 00:30:26+00:00,,,University of California - Los Angeles,-118.445181,34.068921,social,in-person,not_estimated,True
9H7Gf7WB3BCw26yHPv,Homecoming,,2019-10-19 07:00:00+00:00,2019-10-20 06:59:59+00:00,America/Los_Angeles,86399,academic,"['academic', 'social']",US,0,,,0.0,"[{'entity_id': 'LD5w4M9KxZgSmmhvgbYdYz', 'name': 'University of Southern California', 'type': 'venue', 'formatted_address': 'Los Angeles, CA 90007\nUnited States of America'}]","[-118.285117, 34.022352]","[['6295630', '6255149', '6252001', '5332921', '5368381', '5368361'], ['6295630', '6255149', '6252001', '5332921', '5368381', '5360529']]",locality,1.0,active,2020-08-27 23:09:45+00:00,2020-08-27 23:55:12+00:00,,,University of Southern California,-118.285117,34.022352,social,in-person,not_estimated,True
XCJywcsuZDEufrEUWe,Fall Break,,2019-10-17 07:00:00+00:00,2019-10-21 06:59:59+00:00,America/Los_Angeles,345599,academic,"['academic', 'holiday']",US,76,,,19535.0,"[{'entity_id': 'LD5w4M9KxZgSmmhvgbYdYz', 'name': 'University of Southern California', 'type': 'venue', 'formatted_address': 'Los Angeles, CA 90007\nUnited States of America'}]","[-118.285117, 34.022352]","[['6295630', '6255149', '6252001', '5332921', '5368381', '5368361'], ['6295630', '6255149', '6252001', '5332921', '5368381', '5360529']]",locality,1.0,active,2020-08-27 23:09:44+00:00,2020-09-03 22:18:16+00:00,,,University of Southern California,-118.285117,34.022352,holiday,in-person,not_estimated,False
MJJBs5pef2tMdYWE9b,Fall Session,,2019-09-26 07:00:00+00:00,2019-12-07 07:59:59+00:00,America/Los_Angeles,6224399,academic,"['academic', 'academic-session']",US,80,,,31543.0,"[{'entity_id': '32afGxjEeXh84pfVwWY9qUk', 'name': 'University of California - Los Angeles', 'type': 'venue', 'formatted_address': 'Los Angeles, CA 90095\nUnited States of America'}]","[-118.445181, 34.068921]","[['6295630', '6255149', '6252001', '5332921', '5368381', '5408545'], ['6295630', '6255149', '6252001', '5332921', '5368381', '5368361']]",locality,1.0,active,2020-08-27 23:05:45+00:00,2020-09-03 22:24:12+00:00,,,University of California - Los Angeles,-118.445181,34.068921,academic-session,in-person,not_estimated,True
WavWt9y9h3b3bW44s5,Fall Session,,2019-08-26 07:00:00+00:00,2019-12-07 07:59:59+00:00,America/Los_Angeles,8902799,academic,"['academic', 'academic-session']",US,71,,,10646.0,"[{'entity_id': 'htkLSUCJvJffjDUhU7cfeC', 'name': 'Los Angeles City College', 'type': 'venue', 'formatted_address': '855 North Vermont Avenue\nLos Angeles, CA 90029\nUnited States of America'}]","[-118.292473, 34.087269]","[['6295630', '6255149', '6252001', '5332921', '5368381', '5368361'], ['6295630', '6255149', '6252001', '5332921', '5368381', '8062691']]",locality,1.0,active,2020-08-27 22:35:21+00:00,2020-09-03 22:22:04+00:00,,,Los Angeles City College,-118.292473,34.087269,academic-session,in-person,not_estimated,True
X3PYgPoJzfs8ByPest,Fall Session,,2019-08-26 07:00:00+00:00,2019-12-07 07:59:59+00:00,America/Los_Angeles,8902799,academic,"['academic', 'academic-session']",US,76,,,19535.0,"[{'entity_id': 'LD5w4M9KxZgSmmhvgbYdYz', 'name': 'University of Southern California', 'type': 'venue', 'formatted_address': 'Los Angeles, CA 90007\nUnited States of America'}]","[-118.285117, 34.022352]","[['6295630', '6255149', '6252001', '5332921', '5368381', '5368361'], ['6295630', '6255149', '6252001', '5332921', '5368381', '5360529']]",locality,1.0,active,2020-08-27 23:09:43+00:00,2020-09-03 22:29:14+00:00,,,University of Southern California,-118.285117,34.022352,academic-session,in-person,not_estimated,True
jctQMnKrgje8rM3sMe,Fall Session,,2019-08-26 07:00:00+00:00,2019-12-07 07:59:59+00:00,America/Los_Angeles,8902799,academic,"['academic', 'academic-session']",US,58,,,2478.0,"[{'entity_id': 'aZtwEWCRc8nfX4CcFksdip', 'name': 'West Los Angeles College', 'type': 'venue', 'formatted_address': '9000 Overland Avenue\nCulver City, CA 90230\nUnited States of America'}]","[-118.387156, 34.004228]","[['6295630', '6255149', '6252001', '5332921', '5368381', '5364195'], ['6295630', '6255149', '6252001', '5332921', '5368381', '5368361']]",locality,1.0,active,2020-08-27 23:11:41+00:00,2020-09-03 22:20:02+00:00,,,West Los Angeles College,-118.387156,34.004228,academic-session,in-person,not_estimated,True
t2RHqCwBgtrhs7Ej76,Fall Session,,2019-08-26 07:00:00+00:00,2019-12-07 07:59:59+00:00,America/Los_Angeles,8902799,academic,"['academic', 'academic-session']",US,70,,,10263.0,"[{'entity_id': '36Ni6bFidX2bME3rKyW8m8R', 'name': 'Los Angeles Trade Technical College', 'type': 'venue', 'formatted_address': '400 West Washington Boulevard\nLos Angeles, CA 90015\nUnited States of America'}]","[-118.269695, 34.032848]","[['6295630', '6255149', '6252001', '5332921', '5368381', '5368361'], ['6295630', '6255149', '6252001', '5332921', '5368381', '5360529']]",locality,1.0,active,2020-08-27 22:37:57+00:00,2020-09-03 22:31:07+00:00,,,Los Angeles Trade Technical College,-118.269695,34.032848,academic-session,in-person,not_estimated,True
xo6twUHPqkwf9VP5WB,Summer Session,,2019-06-24 07:00:00+00:00,2019-09-14 06:59:59+00:00,America/Los_Angeles,7084799,academic,"['academic', 'academic-session']",US,70,,,9462.0,"[{'entity_id': '32afGxjEeXh84pfVwWY9qUk', 'name': 'University of California - Los Angeles', 'type': 'venue', 'formatted_address': 'Los Angeles, CA 90095\nUnited States of America'}]","[-118.445181, 34.068921]","[['6295630', '6255149', '6252001', '5332921', '5368381', '5408545'], ['6295630', '6255149', '6252001', '5332921', '5368381', '5368361']]",locality,1.0,active,2020-08-27 23:06:57+00:00,2020-09-03 22:23:25+00:00,,,University of California - Los Angeles,-118.445181,34.068921,academic-session,in-person,not_estimated,True
6JKdzuR67KZrUCmh6d,Summer Break,,2019-06-15 07:00:00+00:00,2019-09-26 06:59:59+00:00,America/Los_Angeles,8899199,academic,"['academic', 'holiday']",US,80,,,31543.0,"[{'entity_id': '32afGxjEeXh84pfVwWY9qUk', 'name': 'University of California - Los Angeles', 'type': 'venue', 'formatted_address': 'Los Angeles, CA 90095\nUnited States of America'}]","[-118.445181, 34.068921]","[['6295630', '6255149', '6252001', '5332921', '5368381', '5408545'], ['6295630', '6255149', '6252001', '5332921', '5368381', '5368361']]",locality,1.0,active,2020-08-27 23:06:57+00:00,2020-09-03 22:31:23+00:00,,,University of California - Los Angeles,-118.445181,34.068921,holiday,in-person,not_estimated,False
kGkPy63EDCaAhUdC5k,University of California-Los Angeles - Spring Graduation,,2019-06-14 07:00:00+00:00,2019-06-16 06:59:59+00:00,America/Los_Angeles,172799,academic,"['academic', 'graduation']",US,82,,,39800.0,"[{'entity_id': 'KZp2taYVtGhQpZuwJC2gM7', 'name': 'Pauley Pavilion', 'type': 'venue', 'formatted_address': '301 Westwood Plaza\nLos Angeles, CA 90095\nUnited States of America'}]","[-118.446929, 34.070342]","[['6295630', '6255149', '6252001', '5332921', '5368381', '5408545'], ['6295630', '6255149', '6252001', '5332921', '5368381', '5368361']]",locality,1.0,active,2020-08-27 23:06:31+00:00,2021-03-19 14:54:07+00:00,,,Pauley Pavilion,-118.446929,34.070342,graduation,in-person,not_estimated,True
9aWXXE9CW7rd6xkUyA,Spring Exams,,2019-06-10 07:00:00+00:00,2019-06-15 06:59:59+00:00,America/Los_Angeles,431999,academic,"['academic', 'exam']",US,80,,,31543.0,"[{'entity_id': '32afGxjEeXh84pfVwWY9qUk', 'name': 'University of California - Los Angeles', 'type': 'venue', 'formatted_address': 'Los Angeles, CA 90095\nUnited States of America'}]","[-118.445181, 34.068921]","[['6295630', '6255149', '6252001', '5332921', '5368381', '5408545'], ['6295630', '6255149', '6252001', '5332921', '5368381', '5368361']]",locality,1.0,active,2020-08-27 23:06:31+00:00,2020-09-03 22:19:47+00:00,,,University of California - Los Angeles,-118.445181,34.068921,exam,in-person,not_estimated,True
EBFhea5nDm6YjPtXXM,Summer Session,,2019-06-10 07:00:00+00:00,2019-08-19 06:59:59+00:00,America/Los_Angeles,6047999,academic,"['academic', 'academic-session', 'estimated']",US,58,,,2478.0,"[{'entity_id': 'aZtwEWCRc8nfX4CcFksdip', 'name': 'West Los Angeles College', 'type': 'venue', 'formatted_address': '9000 Overland Avenue\nCulver City, CA 90230\nUnited States of America'}]","[-118.387156, 34.004228]","[['6295630', '6255149', '6252001', '5332921', '5368381', '5364195'], ['6295630', '6255149', '6252001', '5332921', '5368381', '5368361']]",locality,1.0,active,2020-08-27 23:11:39+00:00,2020-09-03 22:22:25+00:00,,,West Los Angeles College,-118.387156,34.004228,academic-session,in-person,estimated,True
Fa29rBndT6czGKrDDn,Summer Session,,2019-06-10 07:00:00+00:00,2019-08-19 06:59:59+00:00,America/Los_Angeles,6047999,academic,"['academic', 'academic-session']",US,70,,,10263.0,"[{'entity_id': '36Ni6bFidX2bME3rKyW8m8R', 'name': 'Los Angeles Trade Technical College', 'type': 'venue', 'formatted_address': '400 West Washington Boulevard\nLos Angeles, CA 90015\nUnited States of America'}]","[-118.269695, 34.032848]","[['6295630', '6255149', '6252001', '5332921', '5368381', '5368361'], ['6295630', '6255149', '6252001', '5332921', '5368381', '5360529']]",locality,1.0,active,2020-08-27 22:37:56+00:00,2020-09-03 22:16:43+00:00,,,Los Angeles Trade Technical College,-118.269695,34.032848,academic-session,in-person,not_estimated,True
Vh6YH6DrjsZZ3f5vjS,Summer Session,,2019-06-10 07:00:00+00:00,2019-08-26 06:59:59+00:00,America/Los_Angeles,6652799,academic,"['academic', 'academic-session']",US,60,,,3193.0,"[{'entity_id': 'htkLSUCJvJffjDUhU7cfeC', 'name': 'Los Angeles City College', 'type': 'venue', 'formatted_address': '855 North Vermont Avenue\nLos Angeles, CA 90029\nUnited States of America'}]","[-118.292473, 34.087269]","[['6295630', '6255149', '6252001', '5332921', '5368381', '5368361'], ['6295630', '6255149', '6252001', '5332921', '5368381', '8062691']]",locality,1.0,active,2020-08-27 22:35:19+00:00,2020-09-03 22:18:22+00:00,,,Los Angeles City College,-118.292473,34.087269,academic-session,in-person,not_estimated,True
AKw8SYiRZqKdPsypNB,Los Angeles Trade Technical College - Spring Graduation,,2019-06-05 01:00:00+00:00,2019-06-05 01:00:00+00:00,America/Los_Angeles,0,academic,"['academic', 'graduation']",US,70,,,10258.0,"[{'entity_id': 'iE6WAPTQMrEm4tyUHbgCDM', 'name': 'Galen Center', 'type': 'venue', 'formatted_address': '3400 S Figueroa St\nLos Angeles, CA 90089\nUnited States of America'}]","[-118.279864, 34.021007]","[['6295630', '6255149', '6252001', '5332921', '5368381', '5368361'], ['6295630', '6255149', '6252001', '5332921', '5368381', '5360529']]",locality,1.0,active,2020-08-27 22:37:54+00:00,2020-09-03 22:19:15+00:00,,,Galen Center,-118.279864,34.021007,graduation,in-person,not_estimated,True
mmqmYuPQKKess9Qf6g,Los Angeles City College - Spring Graduation,,2019-06-05 00:00:00+00:00,2019-06-05 00:00:00+00:00,America/Los_Angeles,0,academic,"['academic', 'graduation']",US,65,,,5900.0,"[{'entity_id': '8KXHXYRMMCtb5MvwZrhkkW', 'name': 'The Greek Theatre', 'type': 'venue', 'formatted_address': '2700 North Vermont Avenue\nLos Angeles, CA 90027\nUnited States of America'}]","[-118.29629, 34.119532]","[['6295630', '6255149', '6252001', '5332921', '6285747'], ['6295630', '6255149', '6252001', '5332921', '5368381', '5368361']]",locality,1.0,active,2020-08-27 22:35:18+00:00,2021-03-19 14:14:18+00:00,,,The Greek Theatre,-118.29629,34.119532,graduation,in-person,not_estimated,True
yMKE9S5F9E6kRFfUkV,West Los Angeles College - Spring Graduation,,2019-06-05 00:00:00+00:00,2019-06-05 00:00:00+00:00,America/Los_Angeles,0,academic,"['academic', 'graduation']",US,69,,,9000.0,"[{'entity_id': 'aZtwEWCRc8nfX4CcFksdip', 'name': 'West Los Angeles College', 'type': 'venue', 'formatted_address': '9000 Overland Avenue\nCulver City, CA 90230\nUnited States of America'}]","[-118.387156, 34.004228]","[['6295630', '6255149', '6252001', '5332921', '5368381', '5364195'], ['6295630', '6255149', '6252001', '5332921', '5368381', '5368361']]",locality,1.0,active,2020-08-27 23:11:38+00:00,2021-03-19 13:45:36+00:00,,,West Los Angeles College,-118.387156,34.004228,graduation,in-person,not_estimated,True
M8UG6uGdfs7TEx7VWy,Summer Break,,2019-06-04 07:00:00+00:00,2019-08-26 06:59:59+00:00,America/Los_Angeles,7171199,academic,"['academic', 'estimated', 'holiday']",US,58,,,2478.0,"[{'entity_id': 'aZtwEWCRc8nfX4CcFksdip', 'name': 'West Los Angeles College', 'type': 'venue', 'formatted_address': '9000 Overland Avenue\nCulver City, CA 90230\nUnited States of America'}]","[-118.387156, 34.004228]","[['6295630', '6255149', '6252001', '5332921', '5368381', '5364195'], ['6295630', '6255149', '6252001', '5332921', '5368381', '5368361']]",locality,1.0,active,2020-08-27 23:11:40+00:00,2020-09-03 22:20:30+00:00,,,West Los Angeles College,-118.387156,34.004228,holiday,in-person,estimated,False
WdY6CTkNBFpV4AXxLg,Summer Break,,2019-06-04 07:00:00+00:00,2019-08-26 06:59:59+00:00,America/Los_Angeles,7171199,academic,"['academic', 'holiday']",US,70,,,10263.0,"[{'entity_id': '36Ni6bFidX2bME3rKyW8m8R', 'name': 'Los Angeles Trade Technical College', 'type': 'venue', 'formatted_address': '400 West Washington Boulevard\nLos Angeles, CA 90015\nUnited States of America'}]","[-118.269695, 34.032848]","[['6295630', '6255149', '6252001', '5332921', '5368381', '5368361'], ['6295630', '6255149', '6252001', '5332921', '5368381', '5360529']]",locality,1.0,active,2020-08-27 22:37:56+00:00,2020-09-03 22:12:55+00:00,,,Los Angeles Trade Technical College,-118.269695,34.032848,holiday,in-person,not_estimated,False
dn2Thh7aeVJ2kxvpL3,Summer Break,,2019-06-04 07:00:00+00:00,2019-08-26 06:59:59+00:00,America/Los_Angeles,7171199,academic,"['academic', 'holiday']",US,71,,,10646.0,"[{'entity_id': 'htkLSUCJvJffjDUhU7cfeC', 'name': 'Los Angeles City College', 'type': 'venue', 'formatted_address': '855 North Vermont Avenue\nLos Angeles, CA 90029\nUnited States of America'}]","[-118.292473, 34.087269]","[['6295630', '6255149', '6252001', '5332921', '5368381', '5368361'], ['6295630', '6255149', '6252001', '5332921', '5368381', '8062691']]",locality,1.0,active,2020-08-27 22:35:21+00:00,2020-09-03 22:15:29+00:00,,,Los Angeles City College,-118.292473,34.087269,holiday,in-person,not_estimated,False
PUbaGbHg54Tvh8sbbW,Spring Exams,,2019-05-28 07:00:00+00:00,2019-06-04 06:59:59+00:00,America/Los_Angeles,604799,academic,"['academic', 'estimated', 'exam']",US,71,,,10646.0,"[{'entity_id': 'htkLSUCJvJffjDUhU7cfeC', 'name': 'Los Angeles City College', 'type': 'venue', 'formatted_address': '855 North Vermont Avenue\nLos Angeles, CA 90029\nUnited States of America'}]","[-118.292473, 34.087269]","[['6295630', '6255149', '6252001', '5332921', '5368381', '5368361'], ['6295630', '6255149', '6252001', '5332921', '5368381', '8062691']]",locality,1.0,active,2020-08-27 22:35:17+00:00,2020-09-03 22:20:29+00:00,,,Los Angeles City College,-118.292473,34.087269,exam,in-person,estimated,True
YutJ5T6FbMahQcGE3F,Spring Exams,,2019-05-28 07:00:00+00:00,2019-06-04 06:59:59+00:00,America/Los_Angeles,604799,academic,"['academic', 'exam']",US,70,,,10263.0,"[{'entity_id': '36Ni6bFidX2bME3rKyW8m8R', 'name': 'Los Angeles Trade Technical College', 'type': 'venue', 'formatted_address': '400 West Washington Boulevard\nLos Angeles, CA 90015\nUnited States of America'}]","[-118.269695, 34.032848]","[['6295630', '6255149', '6252001', '5332921', '5368381', '5368361'], ['6295630', '6255149', '6252001', '5332921', '5368381', '5360529']]",locality,1.0,active,2020-08-27 22:37:54+00:00,2020-09-03 22:26:55+00:00,,,Los Angeles Trade Technical College,-118.269695,34.032848,exam,in-person,not_estimated,True
eRugyhTET5RGuwJBHy,Spring Exams,,2019-05-28 07:00:00+00:00,2019-06-04 06:59:59+00:00,America/Los_Angeles,604799,academic,"['academic', 'estimated', 'exam']",US,58,,,2478.0,"[{'entity_id': 'aZtwEWCRc8nfX4CcFksdip', 'name': 'West Los Angeles College', 'type': 'venue', 'formatted_address': '9000 Overland Avenue\nCulver City, CA 90230\nUnited States of America'}]","[-118.387156, 34.004228]","[['6295630', '6255149', '6252001', '5332921', '5368381', '5364195'], ['6295630', '6255149', '6252001', '5332921', '5368381', '5368361']]",locality,1.0,active,2020-08-27 23:11:37+00:00,2020-09-03 22:02:50+00:00,,,West Los Angeles College,-118.387156,34.004228,exam,in-person,estimated,True
Edz4jb2ZEFVcqmSzp5,Summer Session,,2019-05-15 07:00:00+00:00,2019-08-07 06:59:59+00:00,America/Los_Angeles,7257599,academic,"['academic', 'academic-session']",US,65,,,5860.0,"[{'entity_id': 'LD5w4M9KxZgSmmhvgbYdYz', 'name': 'University of Southern California', 'type': 'venue', 'formatted_address': 'Los Angeles, CA 90007\nUnited States of America'}]","[-118.285117, 34.022352]","[['6295630', '6255149', '6252001', '5332921', '5368381', '5368361'], ['6295630', '6255149', '6252001', '5332921', '5368381', '5360529']]",locality,1.0,active,2020-08-27 23:09:40+00:00,2020-09-03 22:25:13+00:00,,,University of Southern California,-118.285117,34.022352,academic-session,in-person,not_estimated,True
ecefdS5cjoZ2SkoJpe,University of Southern California - Spring Graduation,,2019-05-10 15:30:00+00:00,2019-05-10 15:30:00+00:00,America/Los_Angeles,0,academic,"['academic', 'graduation']",US,86,,,60000.0,"[{'entity_id': '39cwERM83Vr6zMgH5kJs8Nu', 'name': 'Alumni Memorial Park - USC', 'type': 'venue', 'formatted_address': 'Los Angeles, CA 90089\nUnited States of America'}]","[-118.284637, 34.020431]","[['6295630', '6255149', '6252001', '5332921', '5368381', '5360529'], ['6295630', '6255149', '6252001', '5332921', '5368381', '5368361']]",locality,1.0,active,2020-08-27 23:09:39+00:00,2020-09-03 22:23:06+00:00,,,Alumni Memorial Park - USC,-118.284637,34.020431,graduation,in-person,not_estimated,True
rPuyKpy8FX6q6GLMg3,Summer Break,,2019-05-09 07:00:00+00:00,2019-08-26 06:59:59+00:00,America/Los_Angeles,9417599,academic,"['academic', 'holiday']",US,76,,,19535.0,"[{'entity_id': 'LD5w4M9KxZgSmmhvgbYdYz', 'name': 'University of Southern California', 'type': 'venue', 'formatted_address': 'Los Angeles, CA 90007\nUnited States of America'}]","[-118.285117, 34.022352]","[['6295630', '6255149', '6252001', '5332921', '5368381', '5368361'], ['6295630', '6255149', '6252001', '5332921', '5368381', '5360529']]",locality,1.0,active,2020-08-27 23:09:41+00:00,2020-09-03 22:18:43+00:00,,,University of Southern California,-118.285117,34.022352,holiday,in-person,not_estimated,False
QBqLyRdJvXLbpkQvwc,Spring Exams,,2019-05-01 07:00:00+00:00,2019-05-09 06:59:59+00:00,America/Los_Angeles,691199,academic,"['academic', 'exam']",US,76,,,19535.0,"[{'entity_id': 'LD5w4M9KxZgSmmhvgbYdYz', 'name': 'University of Southern California', 'type': 'venue', 'formatted_address': 'Los Angeles, CA 90007\nUnited States of America'}]","[-118.285117, 34.022352]","[['6295630', '6255149', '6252001', '5332921', '5368381', '5368361'], ['6295630', '6255149', '6252001', '5332921', '5368381', '5360529']]",locality,1.0,active,2020-08-27 23:09:38+00:00,2020-09-03 22:26:09+00:00,,,University of Southern California,-118.285117,34.022352,exam,in-person,not_estimated,True
PvJUhNcWvTxvb4dCap,Spring Break,,2019-04-06 07:00:00+00:00,2019-04-15 06:59:59+00:00,America/Los_Angeles,777599,academic,"['academic', 'estimated', 'holiday']",US,58,,,2478.0,"[{'entity_id': 'aZtwEWCRc8nfX4CcFksdip', 'name': 'West Los Angeles College', 'type': 'venue', 'formatted_address': '9000 Overland Avenue\nCulver City, CA 90230\nUnited States of America'}]","[-118.387156, 34.004228]","[['6295630', '6255149', '6252001', '5332921', '5368381', '5364195'], ['6295630', '6255149', '6252001', '5332921', '5368381', '5368361']]",locality,1.0,active,2020-08-27 23:11:37+00:00,2020-09-03 22:29:16+00:00,,,West Los Angeles College,-118.387156,34.004228,holiday,in-person,estimated,False
XcNzTdf7yfo9Ue9WNz,Spring Session,,2019-04-01 07:00:00+00:00,2019-06-08 06:59:59+00:00,America/Los_Angeles,5875199,academic,"['academic', 'academic-session']",US,80,,,31543.0,"[{'entity_id': '32afGxjEeXh84pfVwWY9qUk', 'name': 'University of California - Los Angeles', 'type': 'venue', 'formatted_address': 'Los Angeles, CA 90095\nUnited States of America'}]","[-118.445181, 34.068921]","[['6295630', '6255149', '6252001', '5332921', '5368381', '5408545'], ['6295630', '6255149', '6252001', '5332921', '5368381', '5368361']]",locality,1.0,active,2020-08-27 23:06:00+00:00,2020-09-03 22:24:06+00:00,,,University of California - Los Angeles,-118.445181,34.068921,academic-session,in-person,not_estimated,True
TpPXsxoTngj9cfBZoi,Spring Break,,2019-03-29 07:00:00+00:00,2019-04-08 06:59:59+00:00,America/Los_Angeles,863999,academic,"['academic', 'holiday']",US,70,,,10263.0,"[{'entity_id': '36Ni6bFidX2bME3rKyW8m8R', 'name': 'Los Angeles Trade Technical College', 'type': 'venue', 'formatted_address': '400 West Washington Boulevard\nLos Angeles, CA 90015\nUnited States of America'}]","[-118.269695, 34.032848]","[['6295630', '6255149', '6252001', '5332921', '5368381', '5368361'], ['6295630', '6255149', '6252001', '5332921', '5368381', '5360529']]",locality,1.0,active,2020-08-27 22:37:53+00:00,2020-09-03 22:21:10+00:00,,,Los Angeles Trade Technical College,-118.269695,34.032848,holiday,in-person,not_estimated,False
yjkk6ZA3oFMjH3sJEy,Spring Break,,2019-03-28 07:00:00+00:00,2019-04-08 06:59:59+00:00,America/Los_Angeles,950399,academic,"['academic', 'holiday']",US,71,,,10646.0,"[{'entity_id': 'htkLSUCJvJffjDUhU7cfeC', 'name': 'Los Angeles City College', 'type': 'venue', 'formatted_address': '855 North Vermont Avenue\nLos Angeles, CA 90029\nUnited States of America'}]","[-118.292473, 34.087269]","[['6295630', '6255149', '6252001', '5332921', '5368381', '5368361'], ['6295630', '6255149', '6252001', '5332921', '5368381', '8062691']]",locality,1.0,active,2020-08-27 22:35:16+00:00,2020-09-03 22:24:04+00:00,,,Los Angeles City College,-118.292473,34.087269,holiday,in-person,not_estimated,False
jgZ9e6nVEgVe97Qa3H,Spring Break,,2019-03-23 07:00:00+00:00,2019-04-01 06:59:59+00:00,America/Los_Angeles,777599,academic,"['academic', 'holiday']",US,80,,,31543.0,"[{'entity_id': '32afGxjEeXh84pfVwWY9qUk', 'name': 'University of California - Los Angeles', 'type': 'venue', 'formatted_address': 'Los Angeles, CA 90095\nUnited States of America'}]","[-118.445181, 34.068921]","[['6295630', '6255149', '6252001', '5332921', '5368381', '5408545'], ['6295630', '6255149', '6252001', '5332921', '5368381', '5368361']]",locality,1.0,active,2020-08-27 23:06:07+00:00,2020-09-03 22:29:23+00:00,,,University of California - Los Angeles,-118.445181,34.068921,holiday,in-person,not_estimated,False
Dhp6rhQvinmZ9JmyA7,Winter Exams,,2019-03-18 07:00:00+00:00,2019-03-23 06:59:59+00:00,America/Los_Angeles,431999,academic,"['academic', 'exam']",US,80,,,31543.0,"[{'entity_id': '32afGxjEeXh84pfVwWY9qUk', 'name': 'University of California - Los Angeles', 'type': 'venue', 'formatted_address': 'Los Angeles, CA 90095\nUnited States of America'}]","[-118.445181, 34.068921]","[['6295630', '6255149', '6252001', '5332921', '5368381', '5408545'], ['6295630', '6255149', '6252001', '5332921', '5368381', '5368361']]",locality,1.0,active,2020-08-27 23:06:17+00:00,2020-09-03 22:23:33+00:00,,,University of California - Los Angeles,-118.445181,34.068921,exam,in-person,not_estimated,True
wHdhYpUAKkjqtosk85,Spring Break,,2019-03-09 08:00:00+00:00,2019-03-18 06:59:59+00:00,America/Los_Angeles,773999,academic,"['academic', 'holiday']",US,76,,,19535.0,"[{'entity_id': 'LD5w4M9KxZgSmmhvgbYdYz', 'name': 'University of Southern California', 'type': 'venue', 'formatted_address': 'Los Angeles, CA 90007\nUnited States of America'}]","[-118.285117, 34.022352]","[['6295630', '6255149', '6252001', '5332921', '5368381', '5368361'], ['6295630', '6255149', '6252001', '5332921', '5368381', '5360529']]",locality,1.0,active,2020-08-27 23:09:38+00:00,2020-09-03 22:21:26+00:00,,,University of Southern California,-118.285117,34.022352,holiday,in-person,not_estimated,False
GnmasZWTFiJnPWDMgs,Spring Session,,2019-02-04 08:00:00+00:00,2019-05-28 06:59:59+00:00,America/Los_Angeles,9759599,academic,"['academic', 'academic-session', 'estimated']",US,58,,,2478.0,"[{'entity_id': 'aZtwEWCRc8nfX4CcFksdip', 'name': 'West Los Angeles College', 'type': 'venue', 'formatted_address': '9000 Overland Avenue\nCulver City, CA 90230\nUnited States of America'}]","[-118.387156, 34.004228]","[['6295630', '6255149', '6252001', '5332921', '5368381', '5364195'], ['6295630', '6255149', '6252001', '5332921', '5368381', '5368361']]",locality,1.0,active,2020-08-27 23:11:36+00:00,2020-09-03 22:20:01+00:00,,,West Los Angeles College,-118.387156,34.004228,academic-session,in-person,estimated,True
nH663mtqeBe6UpQxho,Spring Session,,2019-02-04 08:00:00+00:00,2019-05-28 06:59:59+00:00,America/Los_Angeles,9759599,academic,"['academic', 'academic-session', 'estimated']",US,71,,,10646.0,"[{'entity_id': 'htkLSUCJvJffjDUhU7cfeC', 'name': 'Los Angeles City College', 'type': 'venue', 'formatted_address': '855 North Vermont Avenue\nLos Angeles, CA 90029\nUnited States of America'}]","[-118.292473, 34.087269]","[['6295630', '6255149', '6252001', '5332921', '5368381', '5368361'], ['6295630', '6255149', '6252001', '5332921', '5368381', '8062691']]",locality,1.0,active,2020-08-27 22:35:15+00:00,2020-09-03 22:21:39+00:00,,,Los Angeles City College,-118.292473,34.087269,academic-session,in-person,estimated,True
wE5432bRPfNQBcLMsQ,Spring Session,,2019-02-04 08:00:00+00:00,2019-05-25 06:59:59+00:00,America/Los_Angeles,9500399,academic,"['academic', 'academic-session']",US,70,,,10263.0,"[{'entity_id': '36Ni6bFidX2bME3rKyW8m8R', 'name': 'Los Angeles Trade Technical College', 'type': 'venue', 'formatted_address': '400 West Washington Boulevard\nLos Angeles, CA 90015\nUnited States of America'}]","[-118.269695, 34.032848]","[['6295630', '6255149', '6252001', '5332921', '5368381', '5368361'], ['6295630', '6255149', '6252001', '5332921', '5368381', '5360529']]",locality,1.0,active,2020-08-27 22:37:53+00:00,2020-09-03 22:19:40+00:00,,,Los Angeles Trade Technical College,-118.269695,34.032848,academic-session,in-person,not_estimated,True
YHsAp7qgDvUqpqaQ5x,Spring Session,,2019-01-07 08:00:00+00:00,2019-04-27 06:59:59+00:00,America/Los_Angeles,9500399,academic,"['academic', 'academic-session']",US,76,,,19535.0,"[{'entity_id': 'LD5w4M9KxZgSmmhvgbYdYz', 'name': 'University of Southern California', 'type': 'venue', 'formatted_address': 'Los Angeles, CA 90007\nUnited States of America'}]","[-118.285117, 34.022352]","[['6295630', '6255149', '6252001', '5332921', '5368381', '5368361'], ['6295630', '6255149', '6252001', '5332921', '5368381', '5360529']]",locality,1.0,active,2020-08-27 23:09:38+00:00,2020-09-03 22:29:02+00:00,,,University of Southern California,-118.285117,34.022352,academic-session,in-person,not_estimated,True
gfyAiMGDX9J9TB6hro,Winter Session,,2019-01-07 08:00:00+00:00,2019-03-16 06:59:59+00:00,America/Los_Angeles,5871599,academic,"['academic', 'academic-session']",US,80,,,31543.0,"[{'entity_id': '32afGxjEeXh84pfVwWY9qUk', 'name': 'University of California - Los Angeles', 'type': 'venue', 'formatted_address': 'Los Angeles, CA 90095\nUnited States of America'}]","[-118.445181, 34.068921]","[['6295630', '6255149', '6252001', '5332921', '5368381', '5408545'], ['6295630', '6255149', '6252001', '5332921', '5368381', '5368361']]",locality,1.0,active,2020-08-27 23:05:43+00:00,2020-09-03 22:31:14+00:00,,,University of California - Los Angeles,-118.445181,34.068921,academic-session,in-person,not_estimated,True
NXmg3KLr6zASrMjWxZ,Winter Session,,2019-01-02 08:00:00+00:00,2019-02-04 07:59:59+00:00,America/Los_Angeles,2851199,academic,"['academic', 'academic-session', 'estimated']",US,47,,,743.0,"[{'entity_id': 'aZtwEWCRc8nfX4CcFksdip', 'name': 'West Los Angeles College', 'type': 'venue', 'formatted_address': '9000 Overland Avenue\nCulver City, CA 90230\nUnited States of America'}]","[-118.387156, 34.004228]","[['6295630', '6255149', '6252001', '5332921', '5368381', '5364195'], ['6295630', '6255149', '6252001', '5332921', '5368381', '5368361']]",locality,1.0,active,2020-08-27 23:11:35+00:00,2020-09-03 22:12:02+00:00,,,West Los Angeles College,-118.387156,34.004228,academic-session,in-person,estimated,True
hDVd5qHnouJPhVvxPN,Winter Session,,2019-01-02 08:00:00+00:00,2019-02-04 07:59:59+00:00,America/Los_Angeles,2851199,academic,"['academic', 'academic-session']",US,60,,,3078.0,"[{'entity_id': '36Ni6bFidX2bME3rKyW8m8R', 'name': 'Los Angeles Trade Technical College', 'type': 'venue', 'formatted_address': '400 West Washington Boulevard\nLos Angeles, CA 90015\nUnited States of America'}]","[-118.269695, 34.032848]","[['6295630', '6255149', '6252001', '5332921', '5368381', '5368361'], ['6295630', '6255149', '6252001', '5332921', '5368381', '5360529']]",locality,1.0,active,2020-08-27 22:37:51+00:00,2020-09-03 22:18:54+00:00,,,Los Angeles Trade Technical College,-118.269695,34.032848,academic-session,in-person,not_estimated,True
qBtDu2Vi5MHZK7aMMN,Winter Session,,2019-01-02 08:00:00+00:00,2019-02-04 07:59:59+00:00,America/Los_Angeles,2851199,academic,"['academic', 'academic-session']",US,60,,,3193.0,"[{'entity_id': 'htkLSUCJvJffjDUhU7cfeC', 'name': 'Los Angeles City College', 'type': 'venue', 'formatted_address': '855 North Vermont Avenue\nLos Angeles, CA 90029\nUnited States of America'}]","[-118.292473, 34.087269]","[['6295630', '6255149', '6252001', '5332921', '5368381', '5368361'], ['6295630', '6255149', '6252001', '5332921', '5368381', '8062691']]",locality,1.0,active,2020-08-27 22:35:14+00:00,2020-09-03 22:18:43+00:00,,,Los Angeles City College,-118.292473,34.087269,academic-session,in-person,not_estimated,True
4APtNA3AcGoEVfs2yu,Winter Break,,2018-12-15 08:00:00+00:00,2019-02-04 07:59:59+00:00,America/Los_Angeles,4406399,academic,"['academic', 'holiday']",US,71,,,10646.0,"[{'entity_id': 'htkLSUCJvJffjDUhU7cfeC', 'name': 'Los Angeles City College', 'type': 'venue', 'formatted_address': '855 North Vermont Avenue\nLos Angeles, CA 90029\nUnited States of America'}]","[-118.292473, 34.087269]","[['6295630', '6255149', '6252001', '5332921', '5368381', '5368361'], ['6295630', '6255149', '6252001', '5332921', '5368381', '8062691']]",locality,1.0,active,2020-08-27 22:35:13+00:00,2020-09-03 22:22:52+00:00,,,Los Angeles City College,-118.292473,34.087269,holiday,in-person,not_estimated,False
ibbvwHtBNcynx27Deu,Winter Break,,2018-12-15 08:00:00+00:00,2019-01-07 07:59:59+00:00,America/Los_Angeles,1987199,academic,"['academic', 'holiday']",US,80,,,31576.0,"[{'entity_id': '32afGxjEeXh84pfVwWY9qUk', 'name': 'University of California - Los Angeles', 'type': 'venue', 'formatted_address': 'Los Angeles, CA 90095\nUnited States of America'}]","[-118.445181, 34.068921]","[['6295630', '6255149', '6252001', '5332921', '5368381', '5408545'], ['6295630', '6255149', '6252001', '5332921', '5368381', '5368361']]",locality,1.0,active,2020-08-27 23:06:53+00:00,2020-09-03 22:24:12+00:00,,,University of California - Los Angeles,-118.445181,34.068921,holiday,in-person,not_estimated,False
jozUYcJDcuocuPo4bo,Winter Break,,2018-12-15 08:00:00+00:00,2019-02-04 07:59:59+00:00,America/Los_Angeles,4406399,academic,"['academic', 'holiday']",US,71,,,10727.0,"[{'entity_id': '36Ni6bFidX2bME3rKyW8m8R', 'name': 'Los Angeles Trade Technical College', 'type': 'venue', 'formatted_address': '400 West Washington Boulevard\nLos Angeles, CA 90015\nUnited States of America'}]","[-118.269695, 34.032848]","[['6295630', '6255149', '6252001', '5332921', '5368381', '5368361'], ['6295630', '6255149', '6252001', '5332921', '5368381', '5360529']]",locality,1.0,active,2020-08-27 22:37:50+00:00,2020-09-03 22:29:20+00:00,,,Los Angeles Trade Technical College,-118.269695,34.032848,holiday,in-person,not_estimated,False
wNhEnyvFj4eqp6QqEZ,Winter Break,,2018-12-15 08:00:00+00:00,2019-02-04 07:59:59+00:00,America/Los_Angeles,4406399,academic,"['academic', 'estimated', 'holiday']",US,59,,,2699.0,"[{'entity_id': 'aZtwEWCRc8nfX4CcFksdip', 'name': 'West Los Angeles College', 'type': 'venue', 'formatted_address': '9000 Overland Avenue\nCulver City, CA 90230\nUnited States of America'}]","[-118.387156, 34.004228]","[['6295630', '6255149', '6252001', '5332921', '5368381', '5364195'], ['6295630', '6255149', '6252001', '5332921', '5368381', '5368361']]",locality,1.0,active,2020-08-27 23:11:34+00:00,2020-09-03 22:29:08+00:00,,,West Los Angeles College,-118.387156,34.004228,holiday,in-person,estimated,False
SUESYZhsQ4UeBsJvGY,Winter Break,,2018-12-13 08:00:00+00:00,2019-01-07 07:59:59+00:00,America/Los_Angeles,2159999,academic,"['academic', 'holiday']",US,76,,,19907.0,"[{'entity_id': 'LD5w4M9KxZgSmmhvgbYdYz', 'name': 'University of Southern California', 'type': 'venue', 'formatted_address': 'Los Angeles, CA 90007\nUnited States of America'}]","[-118.285117, 34.022352]","[['6295630', '6255149', '6252001', '5332921', '5368381', '5368361'], ['6295630', '6255149', '6252001', '5332921', '5368381', '5360529']]",locality,1.0,active,2020-08-27 23:09:36+00:00,2020-09-03 22:17:49+00:00,,,University of Southern California,-118.285117,34.022352,holiday,in-person,not_estimated,False
